venue_id,venue_name,lat,lng,postal_code,city,category,station_id
4b2b8249f964a520f8b624e3,Ralph & Son's,45.35213351829195,-75.83571179802097,None,Ottawa,Diner,4b2b8249f964a520f8b624e3
4d2a60a38292236a0a482bbb,MacEwen,45.3521452458518,-75.83550095558167,None,Ottawa,Gas Station,4b2b8249f964a520f8b624e3
4b26a38df964a520cd7e24e3,Shell,45.35095397397683,-75.92653827945719,K2K 2R9,Kanata,Gas Station,4b26a38df964a520cd7e24e3
4b666374f964a520da1f2be3,Esso,45.34226944117983,-75.91704129573017,K2K 2M5,Ottawa,Gas Station,4b26a38df964a520cd7e24e3
58776352f7f8dd6e029f73c6,Ultramar,45.338626,-75.911809,K2K 0K1,Ottawa,Gas Station,4b26a38df964a520cd7e24e3
56648daf498ec6e77383c24c,Ultramar,45.33769886919292,-75.9117254278375,None,Ottawa,Gas Station,4b26a38df964a520cd7e24e3
4b666374f964a520da1f2be3,Esso,45.34226944117983,-75.91704129573017,K2K 2M5,Ottawa,Gas Station,4b666374f964a520da1f2be3
58776352f7f8dd6e029f73c6,Ultramar,45.338626,-75.911809,K2K 0K1,Ottawa,Gas Station,4b666374f964a520da1f2be3
56648daf498ec6e77383c24c,Ultramar,45.33769886919292,-75.9117254278375,None,Ottawa,Gas Station,4b666374f964a520da1f2be3
4b26a38df964a520cd7e24e3,Shell,45.35095397397683,-75.92653827945719,K2K 2R9,Kanata,Gas Station,4b666374f964a520da1f2be3
4c63230fde1b2d7f490be470,MacEWEN Gas,45.383418382728834,-75.9696255911912,K2K 1X7,Dunrobin,Gas Station,4c63230fde1b2d7f490be470
4c78288d81bca0930328f914,Petro-Canada,45.308107,-75.915422,K2T 1L2,Kanata,Gas Station,4c78288d81bca0930328f914
4ba517aaf964a52014dc38e3,Esso,45.31011588651307,-75.91857060986837,K2T 1E8,Kanata,Gas Station,4c78288d81bca0930328f914
4c9a7ef0292a6dcb605ecf76,Canadian Tire Gas+,45.30859674981382,-75.91639016066637,K2T 1C3,Kanata,Gas Station,4c78288d81bca0930328f914
5a88ba2aa9fe1264b75bffb9,Esso,45.294171,-75.92801,K2S 1B9,Ottawa,Gas Station,4c78288d81bca0930328f914
4c40dbb2da3dc9282704c8b9,Esso,45.29745009146976,-75.90114857336957,K2L 1V8,Kanata,Gas Station,4c78288d81bca0930328f914
5cc85090270ee7002c0383f0,Pioneer,45.29416,-75.927029,K2S 1B9,Ottawa,Gas Station,4c78288d81bca0930328f914
4db2d6acfa8c350240be3604,Ultramar,45.29424719861647,-75.92770731819189,None,Stittsville,Gas Station,4c78288d81bca0930328f914
5cd2e27323a2e6002c82ba0b,Esso,45.294048,-75.92763,K2S 1B9,Ottawa,Gas Station,4c78288d81bca0930328f914
5b20cd69018cbb002cc84572,Meineke Car Care Centre,45.29798078546895,-75.89901858895496,K2L 1V8,Ottawa,Gas Station,4c78288d81bca0930328f914
545aa4d0498e45f1fbc9edc8,Shell,45.27918761,-75.95518669,K0A 1L0,Ottawa,Gas Station,545aa4d0498e45f1fbc9edc8
4c7a7326bd346dcb956df8ef,Kanata Irving,45.27980306359801,-75.95617911556171,None,Kanata,Gas Station,545aa4d0498e45f1fbc9edc8
4cf2b40b7e93f04da46b5469,Tin Cup Express,45.2755955984962,-75.95000593979012,None,Ottawa,Gas Station,545aa4d0498e45f1fbc9edc8
4cf3db9388de3704da7b812b,Petro-Canada,45.268,-75.938314,K2S 1B9,Stittsville,Gas Station,545aa4d0498e45f1fbc9edc8
5a88ba2aa9fe1264b75bffb9,Esso,45.294171,-75.92801,K2S 1B9,Ottawa,Gas Station,5a88ba2aa9fe1264b75bffb9
5cc85090270ee7002c0383f0,Pioneer,45.29416,-75.927029,K2S 1B9,Ottawa,Gas Station,5a88ba2aa9fe1264b75bffb9
4db2d6acfa8c350240be3604,Ultramar,45.29424719861647,-75.92770731819189,None,Stittsville,Gas Station,5a88ba2aa9fe1264b75bffb9
5cd2e27323a2e6002c82ba0b,Esso,45.294048,-75.92763,K2S 1B9,Ottawa,Gas Station,5a88ba2aa9fe1264b75bffb9
4c78288d81bca0930328f914,Petro-Canada,45.308107,-75.915422,K2T 1L2,Kanata,Gas Station,5a88ba2aa9fe1264b75bffb9
4ba517aaf964a52014dc38e3,Esso,45.31011588651307,-75.91857060986837,K2T 1E8,Kanata,Gas Station,5a88ba2aa9fe1264b75bffb9
4c1b775eeac020a1b3d744c2,Ultramar,45.27955681243415,-75.92817148654862,None,Stittsville,Gas Station,5a88ba2aa9fe1264b75bffb9
4bf71def5efe2d7fc0736834,Ultramar,45.285312731288535,-75.90820212348844,K2S 1B9,Stittsville,Gas Station,5a88ba2aa9fe1264b75bffb9
4c9a7ef0292a6dcb605ecf76,Canadian Tire Gas+,45.30859674981382,-75.91639016066637,K2T 1C3,Kanata,Gas Station,5a88ba2aa9fe1264b75bffb9
4ba517aaf964a52014dc38e3,Esso,45.31011588651307,-75.91857060986837,K2T 1E8,Kanata,Gas Station,4ba517aaf964a52014dc38e3
4c78288d81bca0930328f914,Petro-Canada,45.308107,-75.915422,K2T 1L2,Kanata,Gas Station,4ba517aaf964a52014dc38e3
4c9a7ef0292a6dcb605ecf76,Canadian Tire Gas+,45.30859674981382,-75.91639016066637,K2T 1C3,Kanata,Gas Station,4ba517aaf964a52014dc38e3
5a88ba2aa9fe1264b75bffb9,Esso,45.294171,-75.92801,K2S 1B9,Ottawa,Gas Station,4ba517aaf964a52014dc38e3
4c40dbb2da3dc9282704c8b9,Esso,45.29745009146976,-75.90114857336957,K2L 1V8,Kanata,Gas Station,4ba517aaf964a52014dc38e3
5cc85090270ee7002c0383f0,Pioneer,45.29416,-75.927029,K2S 1B9,Ottawa,Gas Station,4ba517aaf964a52014dc38e3
4db2d6acfa8c350240be3604,Ultramar,45.29424719861647,-75.92770731819189,None,Stittsville,Gas Station,4ba517aaf964a52014dc38e3
5cd2e27323a2e6002c82ba0b,Esso,45.294048,-75.92763,K2S 1B9,Ottawa,Gas Station,4ba517aaf964a52014dc38e3
4e29a6841f6e88a1546ea1e2,Petro-Canada,45.302354,-75.87921,K2L 1B1,Kanata,Gas Station,4e29a6841f6e88a1546ea1e2
4c99f6e2b8e9224b2f69493d,Shell,45.313381719751135,-75.88247926054953,K2L 2P1,Kanata,Gas Station,4e29a6841f6e88a1546ea1e2
4c692eefc946e21e8e6ee98e,Petro-Canada,45.29092,-75.870616,K2M 1H4,Kanata,Gas Station,4e29a6841f6e88a1546ea1e2
4c3cd5697d00d13a18753950,Ultramar,45.295847,-75.891905,K2L 1V4,Ottawa,Gas Station,4e29a6841f6e88a1546ea1e2
4c40dbb2da3dc9282704c8b9,Esso,45.29745009146976,-75.90114857336957,K2L 1V8,Kanata,Gas Station,4e29a6841f6e88a1546ea1e2
5880860575e13775d66e83f4,Ultramar,45.288271,-75.869011,K2M 1H4,Ottawa,Gas Station,4e29a6841f6e88a1546ea1e2
4bb32e6ca32876b0425c01fe,Ultramar Gas Bar,45.28790174427014,-75.86862178070953,None,Ottawa Division,Gas Station,4e29a6841f6e88a1546ea1e2
5b20cd69018cbb002cc84572,Meineke Car Care Centre,45.29798078546895,-75.89901858895496,K2L 1V8,Ottawa,Gas Station,4e29a6841f6e88a1546ea1e2
4c99f6e2b8e9224b2f69493d,Shell,45.313381719751135,-75.88247926054953,K2L 2P1,Kanata,Gas Station,4c99f6e2b8e9224b2f69493d
4e29a6841f6e88a1546ea1e2,Petro-Canada,45.302354,-75.87921,K2L 1B1,Kanata,Gas Station,4c99f6e2b8e9224b2f69493d
4c692eefc946e21e8e6ee98e,Petro-Canada,45.29092,-75.870616,K2M 1H4,Kanata,Gas Station,4c692eefc946e21e8e6ee98e
5880860575e13775d66e83f4,Ultramar,45.288271,-75.869011,K2M 1H4,Ottawa,Gas Station,4c692eefc946e21e8e6ee98e
4bb32e6ca32876b0425c01fe,Ultramar Gas Bar,45.28790174427014,-75.86862178070953,None,Ottawa Division,Gas Station,4c692eefc946e21e8e6ee98e
4e29a6841f6e88a1546ea1e2,Petro-Canada,45.302354,-75.87921,K2L 1B1,Kanata,Gas Station,4c692eefc946e21e8e6ee98e
4c3cd5697d00d13a18753950,Ultramar,45.295847,-75.891905,K2L 1V4,Ottawa,Gas Station,4c692eefc946e21e8e6ee98e
4cf3db9388de3704da7b812b,Petro-Canada,45.268,-75.938314,K2S 1B9,Stittsville,Gas Station,4cf3db9388de3704da7b812b
4c72bad1d944224b68780d29,Petro-Canada,45.272485,-75.93056,K2S 1B9,Stittsville,Gas Station,4cf3db9388de3704da7b812b
4cf2b40b7e93f04da46b5469,Tin Cup Express,45.2755955984962,-75.95000593979012,None,Ottawa,Gas Station,4cf3db9388de3704da7b812b
545aa4d0498e45f1fbc9edc8,Shell,45.27918761,-75.95518669,K0A 1L0,Ottawa,Gas Station,4cf3db9388de3704da7b812b
5b852391f427de002c818f3e,Ultramar,45.2763548,-75.9235742,K2S 1B9,Stittsville,Gas Station,4cf3db9388de3704da7b812b
4c1b775eeac020a1b3d744c2,Ultramar,45.27955681243415,-75.92817148654862,None,Stittsville,Gas Station,4cf3db9388de3704da7b812b
4c7a7326bd346dcb956df8ef,Kanata Irving,45.27980306359801,-75.95617911556171,None,Kanata,Gas Station,4cf3db9388de3704da7b812b
4c72bad1d944224b68780d29,Petro-Canada,45.272485,-75.93056,K2S 1B9,Stittsville,Gas Station,4c72bad1d944224b68780d29
4cf3db9388de3704da7b812b,Petro-Canada,45.268,-75.938314,K2S 1B9,Stittsville,Gas Station,4c72bad1d944224b68780d29
5b852391f427de002c818f3e,Ultramar,45.2763548,-75.9235742,K2S 1B9,Stittsville,Gas Station,4c72bad1d944224b68780d29
4c1b775eeac020a1b3d744c2,Ultramar,45.27955681243415,-75.92817148654862,None,Stittsville,Gas Station,4c72bad1d944224b68780d29
4cf2b40b7e93f04da46b5469,Tin Cup Express,45.2755955984962,-75.95000593979012,None,Ottawa,Gas Station,4c72bad1d944224b68780d29
4b666374f964a520da1f2be3,Esso,45.34226944117983,-75.91704129573017,K2K 2M5,Ottawa,Gas Station,58776352f7f8dd6e029f73c6
58776352f7f8dd6e029f73c6,Ultramar,45.338626,-75.911809,K2K 0K1,Ottawa,Gas Station,58776352f7f8dd6e029f73c6
56648daf498ec6e77383c24c,Ultramar,45.33769886919292,-75.9117254278375,None,Ottawa,Gas Station,58776352f7f8dd6e029f73c6
4b26a38df964a520cd7e24e3,Shell,45.35095397397683,-75.92653827945719,K2K 2R9,Kanata,Gas Station,58776352f7f8dd6e029f73c6
58776352f7f8dd6e029f73c6,Ultramar,45.338626,-75.911809,K2K 0K1,Ottawa,Gas Station,56648daf498ec6e77383c24c
56648daf498ec6e77383c24c,Ultramar,45.33769886919292,-75.9117254278375,None,Ottawa,Gas Station,56648daf498ec6e77383c24c
4b666374f964a520da1f2be3,Esso,45.34226944117983,-75.91704129573017,K2K 2M5,Ottawa,Gas Station,56648daf498ec6e77383c24c
4b26a38df964a520cd7e24e3,Shell,45.35095397397683,-75.92653827945719,K2K 2R9,Kanata,Gas Station,56648daf498ec6e77383c24c
4c78288d81bca0930328f914,Petro-Canada,45.308107,-75.915422,K2T 1L2,Kanata,Gas Station,4c9a7ef0292a6dcb605ecf76
4ba517aaf964a52014dc38e3,Esso,45.31011588651307,-75.91857060986837,K2T 1E8,Kanata,Gas Station,4c9a7ef0292a6dcb605ecf76
4c9a7ef0292a6dcb605ecf76,Canadian Tire Gas+,45.30859674981382,-75.91639016066637,K2T 1C3,Kanata,Gas Station,4c9a7ef0292a6dcb605ecf76
5a88ba2aa9fe1264b75bffb9,Esso,45.294171,-75.92801,K2S 1B9,Ottawa,Gas Station,4c9a7ef0292a6dcb605ecf76
4c40dbb2da3dc9282704c8b9,Esso,45.29745009146976,-75.90114857336957,K2L 1V8,Kanata,Gas Station,4c9a7ef0292a6dcb605ecf76
5cc85090270ee7002c0383f0,Pioneer,45.29416,-75.927029,K2S 1B9,Ottawa,Gas Station,4c9a7ef0292a6dcb605ecf76
4db2d6acfa8c350240be3604,Ultramar,45.29424719861647,-75.92770731819189,None,Stittsville,Gas Station,4c9a7ef0292a6dcb605ecf76
5cd2e27323a2e6002c82ba0b,Esso,45.294048,-75.92763,K2S 1B9,Ottawa,Gas Station,4c9a7ef0292a6dcb605ecf76
5b20cd69018cbb002cc84572,Meineke Car Care Centre,45.29798078546895,-75.89901858895496,K2L 1V8,Ottawa,Gas Station,4c9a7ef0292a6dcb605ecf76
4c63f28f79d1e21eaec0d915,Petro-Canada,45.327281518362746,-75.82144618034363,K2H 9N5,Nepean,Gas Station,4c63f28f79d1e21eaec0d915
4b925c16f964a5204ff433e3,Esso,45.327304503008456,-75.81979515167389,None,Ottawa,Gas Station,4c63f28f79d1e21eaec0d915
531a4cd211d271ffb807c986,Shell,45.326112,-75.823195,K2H 5B9,Nepean,Gas Station,4c63f28f79d1e21eaec0d915
5293d6bf11d260d22f714e7e,NAPA AUTOPRO - BELLS CORNER AUTO,45.326095,-75.822518,K2H 5B8,Nepean,Auto Workshop,4c63f28f79d1e21eaec0d915
5a9d992d8a6f170f053c1183,Petro-Canada,45.323992,-75.82855,K2H 5B7,Nepean,Gas Station,4c63f28f79d1e21eaec0d915
5b20cd6c01bc5a002c2d0d24,Meineke Car Care Centre,45.32467724657581,-75.82589596509939,K2H 5B9,Ottawa,Gas Station,4c63f28f79d1e21eaec0d915
583c9f8454073d1f49085cbf,Canadian Tire Gas+,45.3224828,-75.8359127,K2H 5Z2,Nepean,Gas Station,4c63f28f79d1e21eaec0d915
4d6ab039dc858cfac2416873,Canadian Tire Gas Bar,45.32134292093512,-75.83592203121819,None,None,Gas Station,4c63f28f79d1e21eaec0d915
5a88ba2aa9fe1264b75bffb9,Esso,45.294171,-75.92801,K2S 1B9,Ottawa,Gas Station,5cd2e27323a2e6002c82ba0b
5cc85090270ee7002c0383f0,Pioneer,45.29416,-75.927029,K2S 1B9,Ottawa,Gas Station,5cd2e27323a2e6002c82ba0b
4db2d6acfa8c350240be3604,Ultramar,45.29424719861647,-75.92770731819189,None,Stittsville,Gas Station,5cd2e27323a2e6002c82ba0b
5cd2e27323a2e6002c82ba0b,Esso,45.294048,-75.92763,K2S 1B9,Ottawa,Gas Station,5cd2e27323a2e6002c82ba0b
4c78288d81bca0930328f914,Petro-Canada,45.308107,-75.915422,K2T 1L2,Kanata,Gas Station,5cd2e27323a2e6002c82ba0b
4ba517aaf964a52014dc38e3,Esso,45.31011588651307,-75.91857060986837,K2T 1E8,Kanata,Gas Station,5cd2e27323a2e6002c82ba0b
4c1b775eeac020a1b3d744c2,Ultramar,45.27955681243415,-75.92817148654862,None,Stittsville,Gas Station,5cd2e27323a2e6002c82ba0b
4bf71def5efe2d7fc0736834,Ultramar,45.285312731288535,-75.90820212348844,K2S 1B9,Stittsville,Gas Station,5cd2e27323a2e6002c82ba0b
4c9a7ef0292a6dcb605ecf76,Canadian Tire Gas+,45.30859674981382,-75.91639016066637,K2T 1C3,Kanata,Gas Station,5cd2e27323a2e6002c82ba0b
5b852391f427de002c818f3e,Ultramar,45.2763548,-75.9235742,K2S 1B9,Stittsville,Gas Station,5cd2e27323a2e6002c82ba0b
5a88ba2aa9fe1264b75bffb9,Esso,45.294171,-75.92801,K2S 1B9,Ottawa,Gas Station,5cc85090270ee7002c0383f0
5cc85090270ee7002c0383f0,Pioneer,45.29416,-75.927029,K2S 1B9,Ottawa,Gas Station,5cc85090270ee7002c0383f0
4db2d6acfa8c350240be3604,Ultramar,45.29424719861647,-75.92770731819189,None,Stittsville,Gas Station,5cc85090270ee7002c0383f0
5cd2e27323a2e6002c82ba0b,Esso,45.294048,-75.92763,K2S 1B9,Ottawa,Gas Station,5cc85090270ee7002c0383f0
4c78288d81bca0930328f914,Petro-Canada,45.308107,-75.915422,K2T 1L2,Kanata,Gas Station,5cc85090270ee7002c0383f0
4ba517aaf964a52014dc38e3,Esso,45.31011588651307,-75.91857060986837,K2T 1E8,Kanata,Gas Station,5cc85090270ee7002c0383f0
4c1b775eeac020a1b3d744c2,Ultramar,45.27955681243415,-75.92817148654862,None,Stittsville,Gas Station,5cc85090270ee7002c0383f0
4bf71def5efe2d7fc0736834,Ultramar,45.285312731288535,-75.90820212348844,K2S 1B9,Stittsville,Gas Station,5cc85090270ee7002c0383f0
4c9a7ef0292a6dcb605ecf76,Canadian Tire Gas+,45.30859674981382,-75.91639016066637,K2T 1C3,Kanata,Gas Station,5cc85090270ee7002c0383f0
5b852391f427de002c818f3e,Ultramar,45.2763548,-75.9235742,K2S 1B9,Stittsville,Gas Station,5cc85090270ee7002c0383f0
4c63f28f79d1e21eaec0d915,Petro-Canada,45.327281518362746,-75.82144618034363,K2H 9N5,Nepean,Gas Station,4b925c16f964a5204ff433e3
4b925c16f964a5204ff433e3,Esso,45.327304503008456,-75.81979515167389,None,Ottawa,Gas Station,4b925c16f964a5204ff433e3
531a4cd211d271ffb807c986,Shell,45.326112,-75.823195,K2H 5B9,Nepean,Gas Station,4b925c16f964a5204ff433e3
5293d6bf11d260d22f714e7e,NAPA AUTOPRO - BELLS CORNER AUTO,45.326095,-75.822518,K2H 5B8,Nepean,Auto Workshop,4b925c16f964a5204ff433e3
5a9d992d8a6f170f053c1183,Petro-Canada,45.323992,-75.82855,K2H 5B7,Nepean,Gas Station,4b925c16f964a5204ff433e3
5b20cd6c01bc5a002c2d0d24,Meineke Car Care Centre,45.32467724657581,-75.82589596509939,K2H 5B9,Ottawa,Gas Station,4b925c16f964a5204ff433e3
583c9f8454073d1f49085cbf,Canadian Tire Gas+,45.3224828,-75.8359127,K2H 5Z2,Nepean,Gas Station,4b925c16f964a5204ff433e3
4d6ab039dc858cfac2416873,Canadian Tire Gas Bar,45.32134292093512,-75.83592203121819,None,None,Gas Station,4b925c16f964a5204ff433e3
545aa4d0498e45f1fbc9edc8,Shell,45.27918761,-75.95518669,K0A 1L0,Ottawa,Gas Station,4cf2b40b7e93f04da46b5469
4cf2b40b7e93f04da46b5469,Tin Cup Express,45.2755955984962,-75.95000593979012,None,Ottawa,Gas Station,4cf2b40b7e93f04da46b5469
4c7a7326bd346dcb956df8ef,Kanata Irving,45.27980306359801,-75.95617911556171,None,Kanata,Gas Station,4cf2b40b7e93f04da46b5469
4cf3db9388de3704da7b812b,Petro-Canada,45.268,-75.938314,K2S 1B9,Stittsville,Gas Station,4cf2b40b7e93f04da46b5469
4c72bad1d944224b68780d29,Petro-Canada,45.272485,-75.93056,K2S 1B9,Stittsville,Gas Station,4cf2b40b7e93f04da46b5469
4c1b775eeac020a1b3d744c2,Ultramar,45.27955681243415,-75.92817148654862,None,Stittsville,Gas Station,4cf2b40b7e93f04da46b5469
4c40dbb2da3dc9282704c8b9,Esso,45.29745009146976,-75.90114857336957,K2L 1V8,Kanata,Gas Station,4c40dbb2da3dc9282704c8b9
5b20cd69018cbb002cc84572,Meineke Car Care Centre,45.29798078546895,-75.89901858895496,K2L 1V8,Ottawa,Gas Station,4c40dbb2da3dc9282704c8b9
4c3cd5697d00d13a18753950,Ultramar,45.295847,-75.891905,K2L 1V4,Ottawa,Gas Station,4c40dbb2da3dc9282704c8b9
4c78288d81bca0930328f914,Petro-Canada,45.308107,-75.915422,K2T 1L2,Kanata,Gas Station,4c40dbb2da3dc9282704c8b9
4e29a6841f6e88a1546ea1e2,Petro-Canada,45.302354,-75.87921,K2L 1B1,Kanata,Gas Station,4c40dbb2da3dc9282704c8b9
4bf71def5efe2d7fc0736834,Ultramar,45.285312731288535,-75.90820212348844,K2S 1B9,Stittsville,Gas Station,4c40dbb2da3dc9282704c8b9
4ba517aaf964a52014dc38e3,Esso,45.31011588651307,-75.91857060986837,K2T 1E8,Kanata,Gas Station,4c40dbb2da3dc9282704c8b9
4c9a7ef0292a6dcb605ecf76,Canadian Tire Gas+,45.30859674981382,-75.91639016066637,K2T 1C3,Kanata,Gas Station,4c40dbb2da3dc9282704c8b9
4b716e62f964a52052462de3,Esso,45.34203844302338,-75.78830877545401,K2H 7B3,Ottawa,Gas Station,4b716e62f964a52052462de3
4d9d2893baae5481e48aec64,Petro-Canada,45.34123,-75.787664,K2H 7B3,Ottawa,Gas Station,4b716e62f964a52052462de3
4cc6bb5fb2beb1f736da294c,Esso (Pinecrest at Baseline),45.34216276461434,-75.78623927251394,K2H 7B3,Ottawa,Gas Station,4b716e62f964a52052462de3
4c9b38e580958cfa865449d4,On the Run,45.3421276,-75.7863083,K2H 7B3,Ottawa,Gas Station,4b716e62f964a52052462de3
4b7e3d71f964a520f9e62fe3,Shell,45.347329357673395,-75.78791375067023,K2C 3E5,Ottawa,Gas Station,4b716e62f964a52052462de3
5b852391f427de002c818f3e,Ultramar,45.2763548,-75.9235742,K2S 1B9,Stittsville,Gas Station,5b852391f427de002c818f3e
4c72bad1d944224b68780d29,Petro-Canada,45.272485,-75.93056,K2S 1B9,Stittsville,Gas Station,5b852391f427de002c818f3e
4c1b775eeac020a1b3d744c2,Ultramar,45.27955681243415,-75.92817148654862,None,Stittsville,Gas Station,5b852391f427de002c818f3e
4cf3db9388de3704da7b812b,Petro-Canada,45.268,-75.938314,K2S 1B9,Stittsville,Gas Station,5b852391f427de002c818f3e
4bf71def5efe2d7fc0736834,Ultramar,45.285312731288535,-75.90820212348844,K2S 1B9,Stittsville,Gas Station,5b852391f427de002c818f3e
5cd2e27323a2e6002c82ba0b,Esso,45.294048,-75.92763,K2S 1B9,Ottawa,Gas Station,5b852391f427de002c818f3e
5cc85090270ee7002c0383f0,Pioneer,45.29416,-75.927029,K2S 1B9,Ottawa,Gas Station,5b852391f427de002c818f3e
4bf71def5efe2d7fc0736834,Ultramar,45.285312731288535,-75.90820212348844,K2S 1B9,Stittsville,Gas Station,4bf71def5efe2d7fc0736834
5a88ba2aa9fe1264b75bffb9,Esso,45.294171,-75.92801,K2S 1B9,Ottawa,Gas Station,4bf71def5efe2d7fc0736834
4c40dbb2da3dc9282704c8b9,Esso,45.29745009146976,-75.90114857336957,K2L 1V8,Kanata,Gas Station,4bf71def5efe2d7fc0736834
5b852391f427de002c818f3e,Ultramar,45.2763548,-75.9235742,K2S 1B9,Stittsville,Gas Station,4bf71def5efe2d7fc0736834
4c1b775eeac020a1b3d744c2,Ultramar,45.27955681243415,-75.92817148654862,None,Stittsville,Gas Station,4bf71def5efe2d7fc0736834
4c3cd5697d00d13a18753950,Ultramar,45.295847,-75.891905,K2L 1V4,Ottawa,Gas Station,4bf71def5efe2d7fc0736834
5cc85090270ee7002c0383f0,Pioneer,45.29416,-75.927029,K2S 1B9,Ottawa,Gas Station,4bf71def5efe2d7fc0736834
5cd2e27323a2e6002c82ba0b,Esso,45.294048,-75.92763,K2S 1B9,Ottawa,Gas Station,4bf71def5efe2d7fc0736834
5b20cd69018cbb002cc84572,Meineke Car Care Centre,45.29798078546895,-75.89901858895496,K2L 1V8,Ottawa,Gas Station,4bf71def5efe2d7fc0736834
4db2d6acfa8c350240be3604,Ultramar,45.29424719861647,-75.92770731819189,None,Stittsville,Gas Station,4bf71def5efe2d7fc0736834
4b45406cf964a5201e0926e3,Shell,45.367445,-75.786366,K2B 6R7,Ottawa,Gas Station,4b45406cf964a5201e0926e3
4cfd390ec6cca35dd5bd9532,MacEwen,45.3704170215587,-75.78209278766796,None,Ottawa,Gas Station,4b45406cf964a5201e0926e3
4bf43cfd6a31d13aa686952e,Shell,45.368623422908364,-75.77323521842206,K2B 7G1,Ottawa,Gas Station,4b45406cf964a5201e0926e3
4bebbb12b3352d7f02cd56d2,Active Green+Ross,45.372109779948204,-75.77072447001736,K2A 1H2,Ottawa,Gas Station,4b45406cf964a5201e0926e3
4c3cd5697d00d13a18753950,Ultramar,45.295847,-75.891905,K2L 1V4,Ottawa,Gas Station,4c3cd5697d00d13a18753950
4c40dbb2da3dc9282704c8b9,Esso,45.29745009146976,-75.90114857336957,K2L 1V8,Kanata,Gas Station,4c3cd5697d00d13a18753950
4e29a6841f6e88a1546ea1e2,Petro-Canada,45.302354,-75.87921,K2L 1B1,Kanata,Gas Station,4c3cd5697d00d13a18753950
5b20cd69018cbb002cc84572,Meineke Car Care Centre,45.29798078546895,-75.89901858895496,K2L 1V8,Ottawa,Gas Station,4c3cd5697d00d13a18753950
4c692eefc946e21e8e6ee98e,Petro-Canada,45.29092,-75.870616,K2M 1H4,Kanata,Gas Station,4c3cd5697d00d13a18753950
4bf71def5efe2d7fc0736834,Ultramar,45.285312731288535,-75.90820212348844,K2S 1B9,Stittsville,Gas Station,4c3cd5697d00d13a18753950
5880860575e13775d66e83f4,Ultramar,45.288271,-75.869011,K2M 1H4,Ottawa,Gas Station,4c3cd5697d00d13a18753950
4b716e62f964a52052462de3,Esso,45.34203844302338,-75.78830877545401,K2H 7B3,Ottawa,Gas Station,4d9d2893baae5481e48aec64
4d9d2893baae5481e48aec64,Petro-Canada,45.34123,-75.787664,K2H 7B3,Ottawa,Gas Station,4d9d2893baae5481e48aec64
4cc6bb5fb2beb1f736da294c,Esso (Pinecrest at Baseline),45.34216276461434,-75.78623927251394,K2H 7B3,Ottawa,Gas Station,4d9d2893baae5481e48aec64
4c9b38e580958cfa865449d4,On the Run,45.3421276,-75.7863083,K2H 7B3,Ottawa,Gas Station,4d9d2893baae5481e48aec64
4b7e3d71f964a520f9e62fe3,Shell,45.347329357673395,-75.78791375067023,K2C 3E5,Ottawa,Gas Station,4d9d2893baae5481e48aec64
4bfda894e529c9285e43bb8c,Petro-Canada,45.353744,-75.808798,K2H 5A5,Nepean,Gas Station,4bfda894e529c9285e43bb8c
4b7e3d71f964a520f9e62fe3,Shell,45.347329357673395,-75.78791375067023,K2C 3E5,Ottawa,Gas Station,4bfda894e529c9285e43bb8c
4d6ffee03599370461bc169d,Ultramar,45.254506,-75.916428,K2S 1A2,Stittsville,Gas Station,4d6ffee03599370461bc169d
4cef13527db3224b0fdc2a2e,Shell,45.254484,-75.916362,None,None,Gas Station,4d6ffee03599370461bc169d
4c692eefc946e21e8e6ee98e,Petro-Canada,45.29092,-75.870616,K2M 1H4,Kanata,Gas Station,5880860575e13775d66e83f4
5880860575e13775d66e83f4,Ultramar,45.288271,-75.869011,K2M 1H4,Ottawa,Gas Station,5880860575e13775d66e83f4
4bb32e6ca32876b0425c01fe,Ultramar Gas Bar,45.28790174427014,-75.86862178070953,None,Ottawa Division,Gas Station,5880860575e13775d66e83f4
4e29a6841f6e88a1546ea1e2,Petro-Canada,45.302354,-75.87921,K2L 1B1,Kanata,Gas Station,5880860575e13775d66e83f4
4c3cd5697d00d13a18753950,Ultramar,45.295847,-75.891905,K2L 1V4,Ottawa,Gas Station,5880860575e13775d66e83f4
4c40dbb2da3dc9282704c8b9,Esso,45.29745009146976,-75.90114857336957,K2L 1V8,Kanata,Gas Station,5b20cd69018cbb002cc84572
5b20cd69018cbb002cc84572,Meineke Car Care Centre,45.29798078546895,-75.89901858895496,K2L 1V8,Ottawa,Gas Station,5b20cd69018cbb002cc84572
4c3cd5697d00d13a18753950,Ultramar,45.295847,-75.891905,K2L 1V4,Ottawa,Gas Station,5b20cd69018cbb002cc84572
4e29a6841f6e88a1546ea1e2,Petro-Canada,45.302354,-75.87921,K2L 1B1,Kanata,Gas Station,5b20cd69018cbb002cc84572
4c78288d81bca0930328f914,Petro-Canada,45.308107,-75.915422,K2T 1L2,Kanata,Gas Station,5b20cd69018cbb002cc84572
4bf71def5efe2d7fc0736834,Ultramar,45.285312731288535,-75.90820212348844,K2S 1B9,Stittsville,Gas Station,5b20cd69018cbb002cc84572
4c9a7ef0292a6dcb605ecf76,Canadian Tire Gas+,45.30859674981382,-75.91639016066637,K2T 1C3,Kanata,Gas Station,5b20cd69018cbb002cc84572
4d6ab039dc858cfac2416873,Canadian Tire Gas Bar,45.32134292093512,-75.83592203121819,None,None,Gas Station,583c9f8454073d1f49085cbf
583c9f8454073d1f49085cbf,Canadian Tire Gas+,45.3224828,-75.8359127,K2H 5Z2,Nepean,Gas Station,583c9f8454073d1f49085cbf
5a9d992d8a6f170f053c1183,Petro-Canada,45.323992,-75.82855,K2H 5B7,Nepean,Gas Station,583c9f8454073d1f49085cbf
4c63f28f79d1e21eaec0d915,Petro-Canada,45.327281518362746,-75.82144618034363,K2H 9N5,Nepean,Gas Station,583c9f8454073d1f49085cbf
4b925c16f964a5204ff433e3,Esso,45.327304503008456,-75.81979515167389,None,Ottawa,Gas Station,583c9f8454073d1f49085cbf
5b20cd6c01bc5a002c2d0d24,Meineke Car Care Centre,45.32467724657581,-75.82589596509939,K2H 5B9,Ottawa,Gas Station,583c9f8454073d1f49085cbf
531a4cd211d271ffb807c986,Shell,45.326112,-75.823195,K2H 5B9,Nepean,Gas Station,583c9f8454073d1f49085cbf
5293d6bf11d260d22f714e7e,NAPA AUTOPRO - BELLS CORNER AUTO,45.326095,-75.822518,K2H 5B8,Nepean,Auto Workshop,583c9f8454073d1f49085cbf
4b7f190af964a520481630e3,Island Park Esso,45.397360459182835,-75.7416723492678,None,Ottawa,Gas Station,4b7f190af964a520481630e3
4b1ecf1bf964a520d21f24e3,Petro-Canada,45.400913,-75.729452,K1Y 1G6,Ottawa,Gas Station,4b7f190af964a520481630e3
4c483d5996abd13a90887301,Mac's Convenience Store,45.393417,-75.750335,K1Z 6W9,Ottawa,Gas Station,4b7f190af964a520481630e3
4c1a9a2aeac020a1788743c2,Shell,45.381208834429785,-75.73349386453629,K1Z 6A2,Ottawa,Gas Station,4b7f190af964a520481630e3
4b129fc6f964a520778b23e3,Shell,45.3806285835496,-75.74722423599982,K2A 1C4,Ottawa,Gas Station,4b7f190af964a520481630e3
4ea890306da1bfeaab1676db,Costco Gasoline,45.33738198576367,-75.71933389243213,K2G 1E3,Nepean,Gas Station,4ea890306da1bfeaab1676db
4cd84a2b7bb06dcb59b0a1b2,Shell,45.33547777150267,-75.72389374821829,K2G 1E3,Nepean,Gas Station,4ea890306da1bfeaab1676db
5b3166c622d490002c7d98e2,Ultramar Energy,45.338,-75.717841,K2E 1A6,Ottawa,Gas Station,4ea890306da1bfeaab1676db
5bd728dd82a750002c9d1de0,Superior Propane,45.339022,-75.720759,K2E 1A3,Nepean,Gas Station,4ea890306da1bfeaab1676db
4b8b1444f964a520db9132e3,Esso,45.343381227579606,-75.72949900769844,K2G 3K4,Ottawa,Gas Station,4ea890306da1bfeaab1676db
51b4c3c9498e8a9622c7c684,Canadian Tire Gas+,45.34331252018479,-75.72950063603383,K2G 3K4,Nepean,Gas Station,4ea890306da1bfeaab1676db
512bacf7e4b020f729f79e82,Air Liquide Canada Magasin,45.329736612264725,-75.72318725646409,K2G 0A7,Ottawa,Factory,4ea890306da1bfeaab1676db
4c0fec78f1b6a593e6117b27,Esso,45.35030126933906,-75.73367705668883,K2G 3K1,Ottawa,Gas Station,4ea890306da1bfeaab1676db
57eeb393498e06930c9d9c41,Petro-Pass Truck Stop,45.326525,-75.719035,K2G 1G1,Nepean,Gas Station,4ea890306da1bfeaab1676db
4b7160b3f964a520a4432de3,Esso,45.33347452558583,-75.70196629171075,K2E 7A4,Ottawa,Gas Station,4ea890306da1bfeaab1676db
4f8828a910814e61a4fed181,Tim Hortons,45.327369205372676,-75.70152729749685,K2E 6Z8,Nepean,Coffee Shop,4ea890306da1bfeaab1676db
4bcbc40568f976b08cc66183,Petro-Canada,45.342585,-75.756463,K2G 1V9,Nepean,Gas Station,4bcbc40568f976b08cc66183
4b14a284f964a52048a523e3,Esso,45.334379607951185,-75.75196051514654,K2G 1W2,Ottawa,Gas Station,4bcbc40568f976b08cc66183
4c0fec78f1b6a593e6117b27,Esso,45.35030126933906,-75.73367705668883,K2G 3K1,Ottawa,Gas Station,4bcbc40568f976b08cc66183
4d0fa08b71e8a1cd84d57bbd,Petro-Canada,45.375825,-75.757519,K2A 1E3,Ottawa,Gas Station,4d0fa08b71e8a1cd84d57bbd
4c255bd7136d20a10788e361,Esso,45.37638134584919,-75.7572068227246,K2A 1E4,Ottawa,Gas Station,4d0fa08b71e8a1cd84d57bbd
4b129fc6f964a520778b23e3,Shell,45.3806285835496,-75.74722423599982,K2A 1C4,Ottawa,Gas Station,4d0fa08b71e8a1cd84d57bbd
4dab8a064df01c19b1a2bb61,Midas,45.37735686230297,-75.75366947444837,K2A 1E1,Ottawa,Gas Station,4d0fa08b71e8a1cd84d57bbd
57c7cefb498e207618164de0,Meineke Car Care Centre,45.37871254888547,-75.75025230646133,K2A 1C6,Ottawa,Gas Station,4d0fa08b71e8a1cd84d57bbd
4bebbb12b3352d7f02cd56d2,Active Green+Ross,45.372109779948204,-75.77072447001736,K2A 1H2,Ottawa,Gas Station,4d0fa08b71e8a1cd84d57bbd
4bf43cfd6a31d13aa686952e,Shell,45.368623422908364,-75.77323521842206,K2B 7G1,Ottawa,Gas Station,4d0fa08b71e8a1cd84d57bbd
4c1a9a2aeac020a1788743c2,Shell,45.381208834429785,-75.73349386453629,K1Z 6A2,Ottawa,Gas Station,4d0fa08b71e8a1cd84d57bbd
4b7f190af964a520481630e3,Island Park Esso,45.397360459182835,-75.7416723492678,None,Ottawa,Gas Station,4b1ecf1bf964a520d21f24e3
4b1ecf1bf964a520d21f24e3,Petro-Canada,45.400913,-75.729452,K1Y 1G6,Ottawa,Gas Station,4b1ecf1bf964a520d21f24e3
4c483d5996abd13a90887301,Mac's Convenience Store,45.393417,-75.750335,K1Z 6W9,Ottawa,Gas Station,4b1ecf1bf964a520d21f24e3
4bf43cfd6a31d13aa686952e,Shell,45.368623422908364,-75.77323521842206,K2B 7G1,Ottawa,Gas Station,4bf43cfd6a31d13aa686952e
4bebbb12b3352d7f02cd56d2,Active Green+Ross,45.372109779948204,-75.77072447001736,K2A 1H2,Ottawa,Gas Station,4bf43cfd6a31d13aa686952e
4b45406cf964a5201e0926e3,Shell,45.367445,-75.786366,K2B 6R7,Ottawa,Gas Station,4bf43cfd6a31d13aa686952e
4cfd390ec6cca35dd5bd9532,MacEwen,45.3704170215587,-75.78209278766796,None,Ottawa,Gas Station,4bf43cfd6a31d13aa686952e
4d0fa08b71e8a1cd84d57bbd,Petro-Canada,45.375825,-75.757519,K2A 1E3,Ottawa,Gas Station,4bf43cfd6a31d13aa686952e
4c255bd7136d20a10788e361,Esso,45.37638134584919,-75.7572068227246,K2A 1E4,Ottawa,Gas Station,4bf43cfd6a31d13aa686952e
4dab8a064df01c19b1a2bb61,Midas,45.37735686230297,-75.75366947444837,K2A 1E1,Ottawa,Gas Station,4bf43cfd6a31d13aa686952e
4c0fec78f1b6a593e6117b27,Esso,45.35030126933906,-75.73367705668883,K2G 3K1,Ottawa,Gas Station,4c0fec78f1b6a593e6117b27
4be2e28c660ec928d972ca3b,Shell,45.35425577238386,-75.73592838496675,K2G 3J8,Nepean,Gas Station,4c0fec78f1b6a593e6117b27
4b8b1444f964a520db9132e3,Esso,45.343381227579606,-75.72949900769844,K2G 3K4,Ottawa,Gas Station,4c0fec78f1b6a593e6117b27
4dc9201645dd9aa940b644fe,Ultramar,45.354983,-75.735482,K2G 3J4,Nepean,Gas Station,4c0fec78f1b6a593e6117b27
4ea890306da1bfeaab1676db,Costco Gasoline,45.33738198576367,-75.71933389243213,K2G 1E3,Nepean,Gas Station,4c0fec78f1b6a593e6117b27
4b9fc720f964a520ca3d37e3,Petro-Canada,45.361259,-75.739137,K2C 0A9,Nepean,Gas Station,4c0fec78f1b6a593e6117b27
51b4c3c9498e8a9622c7c684,Canadian Tire Gas+,45.34331252018479,-75.72950063603383,K2G 3K4,Nepean,Gas Station,4c0fec78f1b6a593e6117b27
4bcbc40568f976b08cc66183,Petro-Canada,45.342585,-75.756463,K2G 1V9,Nepean,Gas Station,4c0fec78f1b6a593e6117b27
4b7f09a3f964a520051230e3,refuel,45.36327249164529,-75.73428926759148,K2E 5P2,Nepean,Gas Station,4c0fec78f1b6a593e6117b27
4cd84a2b7bb06dcb59b0a1b2,Shell,45.33547777150267,-75.72389374821829,K2G 1E3,Nepean,Gas Station,4c0fec78f1b6a593e6117b27
4c0c0c8d7e3fc9280c3ff682,Mr. Lube,45.361099,-75.740329,K2C 0B2,Ottawa,Gas Station,4c0fec78f1b6a593e6117b27
5bd728dd82a750002c9d1de0,Superior Propane,45.339022,-75.720759,K2E 1A3,Nepean,Gas Station,4c0fec78f1b6a593e6117b27
5b3166c622d490002c7d98e2,Ultramar Energy,45.338,-75.717841,K2E 1A6,Ottawa,Gas Station,4c0fec78f1b6a593e6117b27
4b129fc6f964a520778b23e3,Shell,45.3806285835496,-75.74722423599982,K2A 1C4,Ottawa,Gas Station,4b129fc6f964a520778b23e3
4b7f190af964a520481630e3,Island Park Esso,45.397360459182835,-75.7416723492678,None,Ottawa,Gas Station,4b129fc6f964a520778b23e3
4d0fa08b71e8a1cd84d57bbd,Petro-Canada,45.375825,-75.757519,K2A 1E3,Ottawa,Gas Station,4b129fc6f964a520778b23e3
57c7cefb498e207618164de0,Meineke Car Care Centre,45.37871254888547,-75.75025230646133,K2A 1C6,Ottawa,Gas Station,4b129fc6f964a520778b23e3
4c1a9a2aeac020a1788743c2,Shell,45.381208834429785,-75.73349386453629,K1Z 6A2,Ottawa,Gas Station,4b129fc6f964a520778b23e3
4dab8a064df01c19b1a2bb61,Midas,45.37735686230297,-75.75366947444837,K2A 1E1,Ottawa,Gas Station,4b129fc6f964a520778b23e3
4c255bd7136d20a10788e361,Esso,45.37638134584919,-75.7572068227246,K2A 1E4,Ottawa,Gas Station,4b129fc6f964a520778b23e3
4c483d5996abd13a90887301,Mac's Convenience Store,45.393417,-75.750335,K1Z 6W9,Ottawa,Gas Station,4b129fc6f964a520778b23e3
4c1a9a2aeac020a1788743c2,Shell,45.381208834429785,-75.73349386453629,K1Z 6A2,Ottawa,Gas Station,4c1a9a2aeac020a1788743c2
4b7f190af964a520481630e3,Island Park Esso,45.397360459182835,-75.7416723492678,None,Ottawa,Gas Station,4c1a9a2aeac020a1788743c2
4b129fc6f964a520778b23e3,Shell,45.3806285835496,-75.74722423599982,K2A 1C4,Ottawa,Gas Station,4c1a9a2aeac020a1788743c2
4d0fa08b71e8a1cd84d57bbd,Petro-Canada,45.375825,-75.757519,K2A 1E3,Ottawa,Gas Station,4c1a9a2aeac020a1788743c2
57c7cefb498e207618164de0,Meineke Car Care Centre,45.37871254888547,-75.75025230646133,K2A 1C6,Ottawa,Gas Station,4c1a9a2aeac020a1788743c2
4dab8a064df01c19b1a2bb61,Midas,45.37735686230297,-75.75366947444837,K2A 1E1,Ottawa,Gas Station,4c1a9a2aeac020a1788743c2
4c255bd7136d20a10788e361,Esso,45.37638134584919,-75.7572068227246,K2A 1E4,Ottawa,Gas Station,4c1a9a2aeac020a1788743c2
4b7f09a3f964a520051230e3,refuel,45.36327249164529,-75.73428926759148,K2E 5P2,Nepean,Gas Station,4c1a9a2aeac020a1788743c2
4c483d5996abd13a90887301,Mac's Convenience Store,45.393417,-75.750335,K1Z 6W9,Ottawa,Gas Station,4c1a9a2aeac020a1788743c2
4b1ea725f964a520491d24e3,Petro-Canada,45.407342,-75.703848,K1R 6J9,Ottawa,Gas Station,4b1ea725f964a520491d24e3
4b22db5af964a520e34e24e3,Petro-Canada,45.411115,-75.705966,K1R 6P4,Ottawa,Gas Station,4b1ea725f964a520491d24e3
4bdf240fffdec928b3daeaa1,Midas,45.408339,-75.704141,K1R 6J6,Ottawa,Gas Station,4b1ea725f964a520491d24e3
4b1868c5f964a52054d223e3,Drummond's Gas,45.403584510447324,-75.70106239522,K1S 4E7,Ottawa,Gas Station,4b1ea725f964a520491d24e3
4bae839bf964a5207abb3be3,MacEwen Petroleum,45.409604688574824,-75.69232818505336,K2P 1Z6,Ottawa,Gas Station,4b1ea725f964a520491d24e3
4b806d5ff964a5205b7130e3,Esso,45.411769150785275,-75.69355011976306,K2P 1Z1,Ottawa,Gas Station,4b1ea725f964a520491d24e3
531a4cd211d271ffb807c620,Shell,45.41861,-75.69694,K2P 1T5,Ottawa,Gas Station,4b1ea725f964a520491d24e3
4be2e28c660ec928d972ca3b,Shell,45.35425577238386,-75.73592838496675,K2G 3J8,Nepean,Gas Station,4be2e28c660ec928d972ca3b
4c0fec78f1b6a593e6117b27,Esso,45.35030126933906,-75.73367705668883,K2G 3K1,Ottawa,Gas Station,4be2e28c660ec928d972ca3b
4dc9201645dd9aa940b644fe,Ultramar,45.354983,-75.735482,K2G 3J4,Nepean,Gas Station,4be2e28c660ec928d972ca3b
4b9fc720f964a520ca3d37e3,Petro-Canada,45.361259,-75.739137,K2C 0A9,Nepean,Gas Station,4be2e28c660ec928d972ca3b
4b8b1444f964a520db9132e3,Esso,45.343381227579606,-75.72949900769844,K2G 3K4,Ottawa,Gas Station,4be2e28c660ec928d972ca3b
4b7f09a3f964a520051230e3,refuel,45.36327249164529,-75.73428926759148,K2E 5P2,Nepean,Gas Station,4be2e28c660ec928d972ca3b
4c0c0c8d7e3fc9280c3ff682,Mr. Lube,45.361099,-75.740329,K2C 0B2,Ottawa,Gas Station,4be2e28c660ec928d972ca3b
51b4c3c9498e8a9622c7c684,Canadian Tire Gas+,45.34331252018479,-75.72950063603383,K2G 3K4,Nepean,Gas Station,4be2e28c660ec928d972ca3b
4b8b1444f964a520db9132e3,Esso,45.343381227579606,-75.72949900769844,K2G 3K4,Ottawa,Gas Station,4b8b1444f964a520db9132e3
4ea890306da1bfeaab1676db,Costco Gasoline,45.33738198576367,-75.71933389243213,K2G 1E3,Nepean,Gas Station,4b8b1444f964a520db9132e3
51b4c3c9498e8a9622c7c684,Canadian Tire Gas+,45.34331252018479,-75.72950063603383,K2G 3K4,Nepean,Gas Station,4b8b1444f964a520db9132e3
4c0fec78f1b6a593e6117b27,Esso,45.35030126933906,-75.73367705668883,K2G 3K1,Ottawa,Gas Station,4b8b1444f964a520db9132e3
4cd84a2b7bb06dcb59b0a1b2,Shell,45.33547777150267,-75.72389374821829,K2G 1E3,Nepean,Gas Station,4b8b1444f964a520db9132e3
5bd728dd82a750002c9d1de0,Superior Propane,45.339022,-75.720759,K2E 1A3,Nepean,Gas Station,4b8b1444f964a520db9132e3
4be2e28c660ec928d972ca3b,Shell,45.35425577238386,-75.73592838496675,K2G 3J8,Nepean,Gas Station,4b8b1444f964a520db9132e3
5b3166c622d490002c7d98e2,Ultramar Energy,45.338,-75.717841,K2E 1A6,Ottawa,Gas Station,4b8b1444f964a520db9132e3
4dc9201645dd9aa940b644fe,Ultramar,45.354983,-75.735482,K2G 3J4,Nepean,Gas Station,4b8b1444f964a520db9132e3
512bacf7e4b020f729f79e82,Air Liquide Canada Magasin,45.329736612264725,-75.72318725646409,K2G 0A7,Ottawa,Factory,4b8b1444f964a520db9132e3
4b22db5af964a520e34e24e3,Petro-Canada,45.411115,-75.705966,K1R 6P4,Ottawa,Gas Station,4b22db5af964a520e34e24e3
4b1ea725f964a520491d24e3,Petro-Canada,45.407342,-75.703848,K1R 6J9,Ottawa,Gas Station,4b22db5af964a520e34e24e3
4bdf240fffdec928b3daeaa1,Midas,45.408339,-75.704141,K1R 6J6,Ottawa,Gas Station,4b22db5af964a520e34e24e3
4bae839bf964a5207abb3be3,MacEwen Petroleum,45.409604688574824,-75.69232818505336,K2P 1Z6,Ottawa,Gas Station,4b22db5af964a520e34e24e3
4b1868c5f964a52054d223e3,Drummond's Gas,45.403584510447324,-75.70106239522,K1S 4E7,Ottawa,Gas Station,4b22db5af964a520e34e24e3
531a4cd211d271ffb807c620,Shell,45.41861,-75.69694,K2P 1T5,Ottawa,Gas Station,4b22db5af964a520e34e24e3
4b806d5ff964a5205b7130e3,Esso,45.411769150785275,-75.69355011976306,K2P 1Z1,Ottawa,Gas Station,4b22db5af964a520e34e24e3
4b45406cf964a5201e0926e3,Shell,45.367445,-75.786366,K2B 6R7,Ottawa,Gas Station,4cfd390ec6cca35dd5bd9532
4cfd390ec6cca35dd5bd9532,MacEwen,45.3704170215587,-75.78209278766796,None,Ottawa,Gas Station,4cfd390ec6cca35dd5bd9532
4bf43cfd6a31d13aa686952e,Shell,45.368623422908364,-75.77323521842206,K2B 7G1,Ottawa,Gas Station,4cfd390ec6cca35dd5bd9532
4bebbb12b3352d7f02cd56d2,Active Green+Ross,45.372109779948204,-75.77072447001736,K2A 1H2,Ottawa,Gas Station,4cfd390ec6cca35dd5bd9532
4b14a284f964a52048a523e3,Esso,45.334379607951185,-75.75196051514654,K2G 1W2,Ottawa,Gas Station,4b14a284f964a52048a523e3
4bcbc40568f976b08cc66183,Petro-Canada,45.342585,-75.756463,K2G 1V9,Nepean,Gas Station,4b14a284f964a52048a523e3
4d0c1a79903d37045545bb55,Petro-Canada,45.29789,-75.731714,K2J 4P5,Nepean,Gas Station,4d0c1a79903d37045545bb55
4e86759377c8edfe5ad47659,Shell,45.291602223612045,-75.72800432765533,K2J 4G3,Nepean,Gas Station,4d0c1a79903d37045545bb55
4db715410437fa536a65afb4,Esso,45.28483038456674,-75.72294657302675,K2G 6A4,Ottawa,Gas Station,4d0c1a79903d37045545bb55
4bfbbd36d2b720a1b051336a,Quickie,45.28506063449237,-75.72280098507443,None,Ottawa,Gas Station,4d0c1a79903d37045545bb55
5b4ecd39610f04002cf6cf61,Ultramar,45.2847395,-75.7229296,K2G 6A4,Nepean,Gas Station,4d0c1a79903d37045545bb55
4b716e62f964a52052462de3,Esso,45.34203844302338,-75.78830877545401,K2H 7B3,Ottawa,Gas Station,4cc6bb5fb2beb1f736da294c
4d9d2893baae5481e48aec64,Petro-Canada,45.34123,-75.787664,K2H 7B3,Ottawa,Gas Station,4cc6bb5fb2beb1f736da294c
4cc6bb5fb2beb1f736da294c,Esso (Pinecrest at Baseline),45.34216276461434,-75.78623927251394,K2H 7B3,Ottawa,Gas Station,4cc6bb5fb2beb1f736da294c
4c9b38e580958cfa865449d4,On the Run,45.3421276,-75.7863083,K2H 7B3,Ottawa,Gas Station,4cc6bb5fb2beb1f736da294c
4b7e3d71f964a520f9e62fe3,Shell,45.347329357673395,-75.78791375067023,K2C 3E5,Ottawa,Gas Station,4cc6bb5fb2beb1f736da294c
4c796199bd346dcbb63bf5ef,Petro-Canada,45.428758,-75.685672,K1N 5Y5,Ottawa,Gas Station,4c796199bd346dcbb63bf5ef
4b3d4ee2f964a520179225e3,Shell,45.4332134,-75.66968915,K1L 6E8,Ottawa,Gas Station,4c796199bd346dcbb63bf5ef
4c5d675385a1e21efe365911,Shell,45.43940923,-75.67671312,K1L 8B3,Ottawa,Gas Station,4c796199bd346dcbb63bf5ef
4c4642d9cd5ca5930c5a0087,Petro-Canada,45.433146,-75.668333,K1L 6E7,Vanier,Gas Station,4c796199bd346dcbb63bf5ef
531a4cd211d271ffb807c620,Shell,45.41861,-75.69694,K2P 1T5,Ottawa,Gas Station,4c796199bd346dcbb63bf5ef
4b806d5ff964a5205b7130e3,Esso,45.411769150785275,-75.69355011976306,K2P 1Z1,Ottawa,Gas Station,4c796199bd346dcbb63bf5ef
4d0fa08b71e8a1cd84d57bbd,Petro-Canada,45.375825,-75.757519,K2A 1E3,Ottawa,Gas Station,4c255bd7136d20a10788e361
4c255bd7136d20a10788e361,Esso,45.37638134584919,-75.7572068227246,K2A 1E4,Ottawa,Gas Station,4c255bd7136d20a10788e361
4b129fc6f964a520778b23e3,Shell,45.3806285835496,-75.74722423599982,K2A 1C4,Ottawa,Gas Station,4c255bd7136d20a10788e361
4dab8a064df01c19b1a2bb61,Midas,45.37735686230297,-75.75366947444837,K2A 1E1,Ottawa,Gas Station,4c255bd7136d20a10788e361
57c7cefb498e207618164de0,Meineke Car Care Centre,45.37871254888547,-75.75025230646133,K2A 1C6,Ottawa,Gas Station,4c255bd7136d20a10788e361
4bebbb12b3352d7f02cd56d2,Active Green+Ross,45.372109779948204,-75.77072447001736,K2A 1H2,Ottawa,Gas Station,4c255bd7136d20a10788e361
4bf43cfd6a31d13aa686952e,Shell,45.368623422908364,-75.77323521842206,K2B 7G1,Ottawa,Gas Station,4c255bd7136d20a10788e361
4c1a9a2aeac020a1788743c2,Shell,45.381208834429785,-75.73349386453629,K1Z 6A2,Ottawa,Gas Station,4c255bd7136d20a10788e361
4c483d5996abd13a90887301,Mac's Convenience Store,45.393417,-75.750335,K1Z 6W9,Ottawa,Gas Station,4c255bd7136d20a10788e361
4bc21ef4abf4952110ffc193,Petro-Canada,45.353183,-75.70477,K2C 3V3,Ottawa,Gas Station,4bc21ef4abf4952110ffc193
4cadc3032a55224b1dc17069,Riverside Esso,45.34246271316887,-75.6925713746092,K1V 1G8,Ottawa,Gas Station,4bc21ef4abf4952110ffc193
4ca33502f832a1cd70529be5,Shell,45.36856838407044,-75.70162800545937,K2C 1N6,Ottawa,Gas Station,4bc21ef4abf4952110ffc193
5b3166c622d490002c7d98e2,Ultramar Energy,45.338,-75.717841,K2E 1A6,Ottawa,Gas Station,4bc21ef4abf4952110ffc193
4ea890306da1bfeaab1676db,Costco Gasoline,45.33738198576367,-75.71933389243213,K2G 1E3,Nepean,Gas Station,4cd84a2b7bb06dcb59b0a1b2
4cd84a2b7bb06dcb59b0a1b2,Shell,45.33547777150267,-75.72389374821829,K2G 1E3,Nepean,Gas Station,4cd84a2b7bb06dcb59b0a1b2
5bd728dd82a750002c9d1de0,Superior Propane,45.339022,-75.720759,K2E 1A3,Nepean,Gas Station,4cd84a2b7bb06dcb59b0a1b2
5b3166c622d490002c7d98e2,Ultramar Energy,45.338,-75.717841,K2E 1A6,Ottawa,Gas Station,4cd84a2b7bb06dcb59b0a1b2
4b8b1444f964a520db9132e3,Esso,45.343381227579606,-75.72949900769844,K2G 3K4,Ottawa,Gas Station,4cd84a2b7bb06dcb59b0a1b2
512bacf7e4b020f729f79e82,Air Liquide Canada Magasin,45.329736612264725,-75.72318725646409,K2G 0A7,Ottawa,Factory,4cd84a2b7bb06dcb59b0a1b2
51b4c3c9498e8a9622c7c684,Canadian Tire Gas+,45.34331252018479,-75.72950063603383,K2G 3K4,Nepean,Gas Station,4cd84a2b7bb06dcb59b0a1b2
57eeb393498e06930c9d9c41,Petro-Pass Truck Stop,45.326525,-75.719035,K2G 1G1,Nepean,Gas Station,4cd84a2b7bb06dcb59b0a1b2
4c0fec78f1b6a593e6117b27,Esso,45.35030126933906,-75.73367705668883,K2G 3K1,Ottawa,Gas Station,4cd84a2b7bb06dcb59b0a1b2
4b7160b3f964a520a4432de3,Esso,45.33347452558583,-75.70196629171075,K2E 7A4,Ottawa,Gas Station,4cd84a2b7bb06dcb59b0a1b2
4f8828a910814e61a4fed181,Tim Hortons,45.327369205372676,-75.70152729749685,K2E 6Z8,Nepean,Coffee Shop,4cd84a2b7bb06dcb59b0a1b2
4c39cfd42c8020a14c368d00,Petro-Canada,45.353763,-75.646184,K1V 8R9,Ottawa,Gas Station,4c39cfd42c8020a14c368d00
57eeaba4498e1e1c58c104f1,Petro-Canada,45.35371,-75.642179,K1T 1M9,Gloucester,Gas Station,4c39cfd42c8020a14c368d00
4b8538c2f964a520815131e3,Shell,45.35363847022218,-75.64327863505588,K1V 8S2,Ottawa,Gas Station,4c39cfd42c8020a14c368d00
4bbd217b4e069c74aa6d9ee3,Esso,45.36052102054499,-75.63177120424243,K1T 3Z3,Ottawa,Gas Station,4c39cfd42c8020a14c368d00
587c8a6c9e35d312245f954d,Ultramar,45.360503,-75.631663,K1T 3Z3,Ottawa,Gas Station,4c39cfd42c8020a14c368d00
4c13b3f5f1e0b71376b334bc,Pioneer Energy,45.347975,-75.625072,K1T 1N7,Gloucester,Gas Station,4c39cfd42c8020a14c368d00
4c34cebba0ced13afbcd186e,Quickie,45.35093511703351,-75.67023396492004,K1V 9X5,Ottawa,Gas Station,4c39cfd42c8020a14c368d00
5878e52365e7c7514c7f656d,Ultramar,45.351015,-75.670291,K1V 0H9,Ottawa,Gas Station,4c39cfd42c8020a14c368d00
4b9f87dcf964a520472937e3,Canadian Tire Gas+,45.435594318337024,-75.60664518764234,K1J 8X3,Ottawa,Gas Station,4b9f87dcf964a520472937e3
4bedbf82e24d20a104ee7114,Pioneer Gas,45.43640942259172,-75.60440651825871,None,Ottawa,Gas Station,4b9f87dcf964a520472937e3
4ba3f3d5f964a520e77038e3,Mr Gas,45.43323771047425,-75.61272350836121,None,None,Gas Station,4b9f87dcf964a520472937e3
4e8673fbd66a9b178e911eda,Petro-Canada,45.447474,-75.59479,K1J 6M1,Gloucester,Gas Station,4b9f87dcf964a520472937e3
4c48b9726f1420a1c8eca954,Oil Changers,45.446784,-75.594309,None,Ottawa,Gas Station,4b9f87dcf964a520472937e3
4c95098638dd8cfa3cd2ce62,Petro-Canada,45.419393,-75.596303,K1B 4C6,Gloucester,Gas Station,4b9f87dcf964a520472937e3
4b7c954df964a520429c2fe3,Circle K,45.4479063,-75.5939022,K1J 6M6,Ottawa,Gas Station,4b9f87dcf964a520472937e3
4e001453d22d5ec6f277559b,Shell,45.38916716368916,-75.61822301686017,K1G 1B2,Ottawa,Gas Station,4e001453d22d5ec6f277559b
58776b636e60751134a23c0b,Ultramar,45.395459,-75.621428,K1G 2A1,Ottawa,Gas Station,4e001453d22d5ec6f277559b
4b6d7bd3f964a52082772ce3,Esso,45.383077138391556,-75.63096040142683,K1H 1W1,Ottawa,Gas Station,4e001453d22d5ec6f277559b
5a60f0654f0e586d106787c1,NAPA AUTOPRO - J & D Auto-Tech Inc,45.3953459,-75.6218727,K1G 2A1,Ottawa,Gas Station,4e001453d22d5ec6f277559b
4c65e3129cb82d7fcc478fd2,Quickie,45.39547230875543,-75.62157284902324,None,None,Gas Station,4e001453d22d5ec6f277559b
4c4ec2919efabe9a84fb986a,Petro-Canada,45.373824,-75.623971,K1G 3N4,Ottawa,Gas Station,4e001453d22d5ec6f277559b
59a5d61779187166d80627b5,Ultramar,45.382234,-75.601757,K1G 3V8,Ottawa,Gas Station,4e001453d22d5ec6f277559b
4ec18d860cd6d2a16f80db3c,Pipeline,45.382234,-75.601757,K1G 3V8,Ottawa,Gas Station,4e001453d22d5ec6f277559b
4d474b0d14aa8cfadc96863d,Petro-Canada,45.405315,-75.62679,K1G 1A2,Ottawa,Gas Station,4e001453d22d5ec6f277559b
58af042976b8b22951f4a130,Ultramar,45.38041,-75.63939,K1V 6A1,Ottawa,Gas Station,4e001453d22d5ec6f277559b
51e04bcb1d9fb5b225504f25,Pioneer Energy,45.406635,-75.616974,K1B 4G6,Ottawa,Gas Station,4e001453d22d5ec6f277559b
4b716e62f964a52052462de3,Esso,45.34203844302338,-75.78830877545401,K2H 7B3,Ottawa,Gas Station,4c9b38e580958cfa865449d4
4d9d2893baae5481e48aec64,Petro-Canada,45.34123,-75.787664,K2H 7B3,Ottawa,Gas Station,4c9b38e580958cfa865449d4
4cc6bb5fb2beb1f736da294c,Esso (Pinecrest at Baseline),45.34216276461434,-75.78623927251394,K2H 7B3,Ottawa,Gas Station,4c9b38e580958cfa865449d4
4c9b38e580958cfa865449d4,On the Run,45.3421276,-75.7863083,K2H 7B3,Ottawa,Gas Station,4c9b38e580958cfa865449d4
4b7e3d71f964a520f9e62fe3,Shell,45.347329357673395,-75.78791375067023,K2C 3E5,Ottawa,Gas Station,4c9b38e580958cfa865449d4
4bdb7d802a3a0f47c66bafb6,Petro-Canada,45.342989,-75.669964,K1V 1C3,Ottawa,Gas Station,4bdb7d802a3a0f47c66bafb6
4c34cebba0ced13afbcd186e,Quickie,45.35093511703351,-75.67023396492004,K1V 9X5,Ottawa,Gas Station,4bdb7d802a3a0f47c66bafb6
5878e52365e7c7514c7f656d,Ultramar,45.351015,-75.670291,K1V 0H9,Ottawa,Gas Station,4bdb7d802a3a0f47c66bafb6
4cadc3032a55224b1dc17069,Riverside Esso,45.34246271316887,-75.6925713746092,K1V 1G8,Ottawa,Gas Station,4bdb7d802a3a0f47c66bafb6
4b9fc720f964a520ca3d37e3,Petro-Canada,45.361259,-75.739137,K2C 0A9,Nepean,Gas Station,4b7f09a3f964a520051230e3
4b7f09a3f964a520051230e3,refuel,45.36327249164529,-75.73428926759148,K2E 5P2,Nepean,Gas Station,4b7f09a3f964a520051230e3
4be2e28c660ec928d972ca3b,Shell,45.35425577238386,-75.73592838496675,K2G 3J8,Nepean,Gas Station,4b7f09a3f964a520051230e3
4c0c0c8d7e3fc9280c3ff682,Mr. Lube,45.361099,-75.740329,K2C 0B2,Ottawa,Gas Station,4b7f09a3f964a520051230e3
4c0fec78f1b6a593e6117b27,Esso,45.35030126933906,-75.73367705668883,K2G 3K1,Ottawa,Gas Station,4b7f09a3f964a520051230e3
4dc9201645dd9aa940b644fe,Ultramar,45.354983,-75.735482,K2G 3J4,Nepean,Gas Station,4b7f09a3f964a520051230e3
4c1a9a2aeac020a1788743c2,Shell,45.381208834429785,-75.73349386453629,K1Z 6A2,Ottawa,Gas Station,4b7f09a3f964a520051230e3
4b716e62f964a52052462de3,Esso,45.34203844302338,-75.78830877545401,K2H 7B3,Ottawa,Gas Station,4b7e3d71f964a520f9e62fe3
4d9d2893baae5481e48aec64,Petro-Canada,45.34123,-75.787664,K2H 7B3,Ottawa,Gas Station,4b7e3d71f964a520f9e62fe3
4b7e3d71f964a520f9e62fe3,Shell,45.347329357673395,-75.78791375067023,K2C 3E5,Ottawa,Gas Station,4b7e3d71f964a520f9e62fe3
4cc6bb5fb2beb1f736da294c,Esso (Pinecrest at Baseline),45.34216276461434,-75.78623927251394,K2H 7B3,Ottawa,Gas Station,4b7e3d71f964a520f9e62fe3
4c9b38e580958cfa865449d4,On the Run,45.3421276,-75.7863083,K2H 7B3,Ottawa,Gas Station,4b7e3d71f964a520f9e62fe3
4bfda894e529c9285e43bb8c,Petro-Canada,45.353744,-75.808798,K2H 5A5,Nepean,Gas Station,4b7e3d71f964a520f9e62fe3
4bd7678f0b779c745b1a05a0,Petro-Canada,45.276001,-75.719503,K2J 4G5,Nepean,Gas Station,4bd7678f0b779c745b1a05a0
4db715410437fa536a65afb4,Esso,45.28483038456674,-75.72294657302675,K2G 6A4,Ottawa,Gas Station,4bd7678f0b779c745b1a05a0
5b4ecd39610f04002cf6cf61,Ultramar,45.2847395,-75.7229296,K2G 6A4,Nepean,Gas Station,4bd7678f0b779c745b1a05a0
4bfbbd36d2b720a1b051336a,Quickie,45.28506063449237,-75.72280098507443,None,Ottawa,Gas Station,4bd7678f0b779c745b1a05a0
4b76bac2f964a5201d5b2ee3,Esso,45.27453796446751,-75.73826557792235,K2J 5L4,Barrhaven,Gas Station,4bd7678f0b779c745b1a05a0
4b8d2125f964a5205be932e3,Shell,45.28685487,-75.70293123,K2C 3H1,Nepean,Gas Station,4bd7678f0b779c745b1a05a0
4e86759377c8edfe5ad47659,Shell,45.291602223612045,-75.72800432765533,K2J 4G3,Nepean,Gas Station,4bd7678f0b779c745b1a05a0
4cd1e7f45b5ca35d834384f0,McEwen Gas & Wash,45.270930172359876,-75.69884870496931,None,Ottawa,Gas Station,4bd7678f0b779c745b1a05a0
4b4ce790f964a520abc326e3,MacEwen,45.26953675323259,-75.69895151392065,K1V 2G2,Ottawa,Gas Station,4bd7678f0b779c745b1a05a0
4b18fccef964a520f6d623e3,Petro-Canada,45.45939,-75.491225,K4A 3W3,Cumberland,Gas Station,4b18fccef964a520f6d623e3
4bd5ff26637ba593e56ef770,Shell,45.461483573685626,-75.48750349967173,K4A 4H8,Ottawa,Gas Station,4b18fccef964a520f6d623e3
5a60fdcb5455b22bcfc2444e,NAPA AUTOPRO - Precision Automotive,45.459339237719526,-75.48951339558698,K4A 3W2,Orléans,Gas Station,4b18fccef964a520f6d623e3
4b6b34d5f964a52091f92be3,Refuel at Superstore,45.45743763030909,-75.49643227302778,None,Ottawa,Gas Station,4b18fccef964a520f6d623e3
4e5e21851850b75573f4b878,Petro-Canada,45.46813748328399,-75.49171134368896,K1E 3E8,Orléans,Gas Station,4b18fccef964a520f6d623e3
4cd2eb3b25ee6dcbc511470f,Esso,45.455637,-75.505014,None,None,Gas Station,4b18fccef964a520f6d623e3
4e501f2c18383eb2af2bc185,Canadian Tire Gas+,45.467240870338756,-75.49085853668171,K1E 3X2,Orléans,Gas Station,4b18fccef964a520f6d623e3
5a1c9a676dcf04231331bec6,Petro-Canada,45.467915,-75.491846,K1E 3E8,Orléans,Gas Station,4b18fccef964a520f6d623e3
50cbbbbde4b05e3ef08039b0,Ultramar Brian Coburn & 10th,45.45082372071338,-75.48285131461155,None,None,Gas Station,4b18fccef964a520f6d623e3
4bcb0823fb84c9b6cb061e3e,Circle K,45.4531781,-75.5119981,K1C 1T1,Orléans,Gas Station,4b18fccef964a520f6d623e3
4bb3ed86737d76b039ea3a7c,Petro-Canada,45.46417,-75.539435,K1C 1E4,Orléans,Gas Station,4bb3ed86737d76b039ea3a7c
4b59d639f964a5200d9b28e3,Mr. Lube,45.463915,-75.540608,K1C 1E4,Orléans,Gas Station,4bb3ed86737d76b039ea3a7c
5880afcfb50d5245de11f1c2,Ultramar,45.461829,-75.548433,K1C 7C6,Orléans,Gas Station,4bb3ed86737d76b039ea3a7c
4fce4f7ce4b0231f2cd142e8,NAPA AUTOPRO - Orleans AUTOPRO,45.46740396072522,-75.53350698784925,K1C 1E7,Orléans,Gas Station,4bb3ed86737d76b039ea3a7c
4d3337416c7c721ed84eb756,Pioneer Energy,45.471675,-75.522841,K1C 1G5,Orléans,Gas Station,4bb3ed86737d76b039ea3a7c
5b4d9379a42362002c3125d0,Meineke Car Care Centre,45.47134,-75.5234399,K1C 1G3,Ottawa,Gas Station,4bb3ed86737d76b039ea3a7c
4b18fccef964a520f6d623e3,Petro-Canada,45.45939,-75.491225,K4A 3W3,Cumberland,Gas Station,4bd5ff26637ba593e56ef770
4bd5ff26637ba593e56ef770,Shell,45.461483573685626,-75.48750349967173,K4A 4H8,Ottawa,Gas Station,4bd5ff26637ba593e56ef770
4e5e21851850b75573f4b878,Petro-Canada,45.46813748328399,-75.49171134368896,K1E 3E8,Orléans,Gas Station,4bd5ff26637ba593e56ef770
5a60fdcb5455b22bcfc2444e,NAPA AUTOPRO - Precision Automotive,45.459339237719526,-75.48951339558698,K4A 3W2,Orléans,Gas Station,4bd5ff26637ba593e56ef770
4e501f2c18383eb2af2bc185,Canadian Tire Gas+,45.467240870338756,-75.49085853668171,K1E 3X2,Orléans,Gas Station,4bd5ff26637ba593e56ef770
5a1c9a676dcf04231331bec6,Petro-Canada,45.467915,-75.491846,K1E 3E8,Orléans,Gas Station,4bd5ff26637ba593e56ef770
4b6b34d5f964a52091f92be3,Refuel at Superstore,45.45743763030909,-75.49643227302778,None,Ottawa,Gas Station,4bd5ff26637ba593e56ef770
4cd2eb3b25ee6dcbc511470f,Esso,45.455637,-75.505014,None,None,Gas Station,4bd5ff26637ba593e56ef770
50cbbbbde4b05e3ef08039b0,Ultramar Brian Coburn & 10th,45.45082372071338,-75.48285131461155,None,None,Gas Station,4bd5ff26637ba593e56ef770
4b8a9a20f964a520947432e3,Esso,45.41493121831715,-75.60473716562313,None,Ottawa,Gas Station,4b8a9a20f964a520947432e3
4e8673fed66a9b178e91269f,Petro-Canada,45.414551778980865,-75.60870796122774,K1B 3K5,Ottawa,Gas Station,4b8a9a20f964a520947432e3
4c95098638dd8cfa3cd2ce62,Petro-Canada,45.419393,-75.596303,K1B 4C6,Gloucester,Gas Station,4b8a9a20f964a520947432e3
57ee9e37498e4bb1d91214df,Petro-Pass Truck Stop,45.411983,-75.612086,K1B 4V5,Ottawa,Gas Station,4b8a9a20f964a520947432e3
5b4cd52eccad6b002cc840f8,Praxair Canada Inc.,45.4146462,-75.61596829999999,K1B 3W6,Ottawa,Gas Station,4b8a9a20f964a520947432e3
51e04bcb1d9fb5b225504f25,Pioneer Energy,45.406635,-75.616974,K1B 4G6,Ottawa,Gas Station,4b8a9a20f964a520947432e3
4e8673fbd66a9b178e911eda,Petro-Canada,45.447474,-75.59479,K1J 6M1,Gloucester,Gas Station,4e8673fbd66a9b178e911eda
4c48b9726f1420a1c8eca954,Oil Changers,45.446784,-75.594309,None,Ottawa,Gas Station,4e8673fbd66a9b178e911eda
4b7c954df964a520429c2fe3,Circle K,45.4479063,-75.5939022,K1J 6M6,Ottawa,Gas Station,4e8673fbd66a9b178e911eda
4c8add853dc2a1cd332cb132,Petro-Canada,45.449477,-75.588401,K1J 1G4,Ottawa,Gas Station,4e8673fbd66a9b178e911eda
4b9f87dcf964a520472937e3,Canadian Tire Gas+,45.435594318337024,-75.60664518764234,K1J 8X3,Ottawa,Gas Station,4e8673fbd66a9b178e911eda
4bedbf82e24d20a104ee7114,Pioneer Gas,45.43640942259172,-75.60440651825871,None,Ottawa,Gas Station,4e8673fbd66a9b178e911eda
4d36046c48098cfa08504217,Esso,45.491051038281554,-75.47998721813163,K1T 1C1,Ottawa,Gas Station,4d36046c48098cfa08504217
4ee0fb7ff9ab28df82836187,Centre De Location patrice raiche,45.480604,-75.476863,None,Shawinigan-Sud,Gas Station,4d36046c48098cfa08504217
4c6294b579d1e21eeb59d615,Canadian Tire Gas Station,45.476055,-75.49379,None,Ottawa,Gas Station,4d36046c48098cfa08504217
4d0c212d95c1a1cd3483fafe,Petro-Canada,45.431518,-75.564004,K1B 4Z5,Gloucester,Gas Station,4d0c212d95c1a1cd3483fafe
4e5e21851850b75573f4b878,Petro-Canada,45.46813748328399,-75.49171134368896,K1E 3E8,Orléans,Gas Station,4e501f2c18383eb2af2bc185
4b18fccef964a520f6d623e3,Petro-Canada,45.45939,-75.491225,K4A 3W3,Cumberland,Gas Station,4e501f2c18383eb2af2bc185
4e501f2c18383eb2af2bc185,Canadian Tire Gas+,45.467240870338756,-75.49085853668171,K1E 3X2,Orléans,Gas Station,4e501f2c18383eb2af2bc185
5a1c9a676dcf04231331bec6,Petro-Canada,45.467915,-75.491846,K1E 3E8,Orléans,Gas Station,4e501f2c18383eb2af2bc185
4bd5ff26637ba593e56ef770,Shell,45.461483573685626,-75.48750349967173,K4A 4H8,Ottawa,Gas Station,4e501f2c18383eb2af2bc185
5a60fdcb5455b22bcfc2444e,NAPA AUTOPRO - Precision Automotive,45.459339237719526,-75.48951339558698,K4A 3W2,Orléans,Gas Station,4e501f2c18383eb2af2bc185
4b6b34d5f964a52091f92be3,Refuel at Superstore,45.45743763030909,-75.49643227302778,None,Ottawa,Gas Station,4e501f2c18383eb2af2bc185
4cd2eb3b25ee6dcbc511470f,Esso,45.455637,-75.505014,None,None,Gas Station,4e501f2c18383eb2af2bc185
50cbbbbde4b05e3ef08039b0,Ultramar Brian Coburn & 10th,45.45082372071338,-75.48285131461155,None,None,Gas Station,4e501f2c18383eb2af2bc185
4b7d78a3f964a520a2c02fe3,Ultramar,45.447068,-75.52725,K1C 1T1,Ottawa,Gas Station,4b7d78a3f964a520a2c02fe3
4cd2eb3b25ee6dcbc511470f,Esso,45.455637,-75.505014,None,None,Gas Station,4b7d78a3f964a520a2c02fe3
4bcb0823fb84c9b6cb061e3e,Circle K,45.4531781,-75.5119981,K1C 1T1,Orléans,Gas Station,4b7d78a3f964a520a2c02fe3
4e5e21851850b75573f4b878,Petro-Canada,45.46813748328399,-75.49171134368896,K1E 3E8,Orléans,Gas Station,5a1c9a676dcf04231331bec6
4b18fccef964a520f6d623e3,Petro-Canada,45.45939,-75.491225,K4A 3W3,Cumberland,Gas Station,5a1c9a676dcf04231331bec6
4e501f2c18383eb2af2bc185,Canadian Tire Gas+,45.467240870338756,-75.49085853668171,K1E 3X2,Orléans,Gas Station,5a1c9a676dcf04231331bec6
5a1c9a676dcf04231331bec6,Petro-Canada,45.467915,-75.491846,K1E 3E8,Orléans,Gas Station,5a1c9a676dcf04231331bec6
4bd5ff26637ba593e56ef770,Shell,45.461483573685626,-75.48750349967173,K4A 4H8,Ottawa,Gas Station,5a1c9a676dcf04231331bec6
5a60fdcb5455b22bcfc2444e,NAPA AUTOPRO - Precision Automotive,45.459339237719526,-75.48951339558698,K4A 3W2,Orléans,Gas Station,5a1c9a676dcf04231331bec6
4b6b34d5f964a52091f92be3,Refuel at Superstore,45.45743763030909,-75.49643227302778,None,Ottawa,Gas Station,5a1c9a676dcf04231331bec6
4cd2eb3b25ee6dcbc511470f,Esso,45.455637,-75.505014,None,None,Gas Station,5a1c9a676dcf04231331bec6
4dd9d376b0fb8af380c0e9d1,Petro-Canada,45.478342,-75.512485,K1C 1T1,Orléans,Gas Station,5a1c9a676dcf04231331bec6
4b7c612bf964a520e38f2fe3,Shell,45.47425707786498,-75.51559747645466,K1C 7C2,Orléans,Gas Station,5a1c9a676dcf04231331bec6
4b772322f964a52012812ee3,Ultramar,45.470986500173254,-75.45404613933518,K4A 4R7,Ottawa,Gas Station,4b772322f964a52012812ee3
4c4ec2919efabe9a84fb986a,Petro-Canada,45.373824,-75.623971,K1G 3N4,Ottawa,Gas Station,4c4ec2919efabe9a84fb986a
4e67699e2271517970277eca,Esso,45.364149476057584,-75.61986646117148,K1T 3S4,Ottawa,Gas Station,4c4ec2919efabe9a84fb986a
4b6d7bd3f964a52082772ce3,Esso,45.383077138391556,-75.63096040142683,K1H 1W1,Ottawa,Gas Station,4c4ec2919efabe9a84fb986a
4e001453d22d5ec6f277559b,Shell,45.38916716368916,-75.61822301686017,K1G 1B2,Ottawa,Gas Station,4c4ec2919efabe9a84fb986a
4bbd217b4e069c74aa6d9ee3,Esso,45.36052102054499,-75.63177120424243,K1T 3Z3,Ottawa,Gas Station,4c4ec2919efabe9a84fb986a
58af042976b8b22951f4a130,Ultramar,45.38041,-75.63939,K1V 6A1,Ottawa,Gas Station,4c4ec2919efabe9a84fb986a
587c8a6c9e35d312245f954d,Ultramar,45.360503,-75.631663,K1T 3Z3,Ottawa,Gas Station,4c4ec2919efabe9a84fb986a
59a5d61779187166d80627b5,Ultramar,45.382234,-75.601757,K1G 3V8,Ottawa,Gas Station,4c4ec2919efabe9a84fb986a
4ec18d860cd6d2a16f80db3c,Pipeline,45.382234,-75.601757,K1G 3V8,Ottawa,Gas Station,4c4ec2919efabe9a84fb986a
4b4fe6ecf964a520181927e3,Petro-Canada,45.425284,-75.637431,K1J 7S4,Gloucester,Gas Station,4b4fe6ecf964a520181927e3
4d10ef9ad467236a912ec74a,Petro-Canada,45.42856176,-75.63915804,K1J 7S4,Ottawa,Gas Station,4b4fe6ecf964a520181927e3
4c0152630bce20a12782f6c6,Saab Gas Centre,45.42506294,-75.63533742,None,Ottawa,Gas Station,4b4fe6ecf964a520181927e3
5a9d97486eda02095169baf2,Petro-Canada,45.42836,-75.6391918,K1K 3B1,Ottawa,Gas Station,4b4fe6ecf964a520181927e3
4c7dbbe59221236a1755803d,Pioneer Energy,45.426103,-75.631007,K1J 8V1,Gloucester,Gas Station,4b4fe6ecf964a520181927e3
4c10d9ad6b7e2d7f80332835,Pioneer Energy,45.411151,-75.640736,K1G 0Z1,Ottawa,Gas Station,4b4fe6ecf964a520181927e3
4d493d025129a35d605237ac,MacEwen Gas,45.41232023329462,-75.63038569830562,None,Ottawa,Gas Station,4b4fe6ecf964a520181927e3
4e29bad245ddfe8f9dff7183,Pioneer Energy,45.441638,-75.644181,K1K 0T9,Ottawa,Gas Station,4b4fe6ecf964a520181927e3
4c95098638dd8cfa3cd2ce62,Petro-Canada,45.419393,-75.596303,K1B 4C6,Gloucester,Gas Station,4c95098638dd8cfa3cd2ce62
4b8a9a20f964a520947432e3,Esso,45.41493121831715,-75.60473716562313,None,Ottawa,Gas Station,4c95098638dd8cfa3cd2ce62
4e8673fed66a9b178e91269f,Petro-Canada,45.414551778980865,-75.60870796122774,K1B 3K5,Ottawa,Gas Station,4c95098638dd8cfa3cd2ce62
4b9f87dcf964a520472937e3,Canadian Tire Gas+,45.435594318337024,-75.60664518764234,K1J 8X3,Ottawa,Gas Station,4c95098638dd8cfa3cd2ce62
57ee9e37498e4bb1d91214df,Petro-Pass Truck Stop,45.411983,-75.612086,K1B 4V5,Ottawa,Gas Station,4c95098638dd8cfa3cd2ce62
5b4cd52eccad6b002cc840f8,Praxair Canada Inc.,45.4146462,-75.61596829999999,K1B 3W6,Ottawa,Gas Station,4c95098638dd8cfa3cd2ce62
4bedbf82e24d20a104ee7114,Pioneer Gas,45.43640942259172,-75.60440651825871,None,Ottawa,Gas Station,4c95098638dd8cfa3cd2ce62
4b18fccef964a520f6d623e3,Petro-Canada,45.45939,-75.491225,K4A 3W3,Cumberland,Gas Station,5a60fdcb5455b22bcfc2444e
4bd5ff26637ba593e56ef770,Shell,45.461483573685626,-75.48750349967173,K4A 4H8,Ottawa,Gas Station,5a60fdcb5455b22bcfc2444e
5a60fdcb5455b22bcfc2444e,NAPA AUTOPRO - Precision Automotive,45.459339237719526,-75.48951339558698,K4A 3W2,Orléans,Gas Station,5a60fdcb5455b22bcfc2444e
4b6b34d5f964a52091f92be3,Refuel at Superstore,45.45743763030909,-75.49643227302778,None,Ottawa,Gas Station,5a60fdcb5455b22bcfc2444e
4e5e21851850b75573f4b878,Petro-Canada,45.46813748328399,-75.49171134368896,K1E 3E8,Orléans,Gas Station,5a60fdcb5455b22bcfc2444e
4cd2eb3b25ee6dcbc511470f,Esso,45.455637,-75.505014,None,None,Gas Station,5a60fdcb5455b22bcfc2444e
4e501f2c18383eb2af2bc185,Canadian Tire Gas+,45.467240870338756,-75.49085853668171,K1E 3X2,Orléans,Gas Station,5a60fdcb5455b22bcfc2444e
5a1c9a676dcf04231331bec6,Petro-Canada,45.467915,-75.491846,K1E 3E8,Orléans,Gas Station,5a60fdcb5455b22bcfc2444e
50cbbbbde4b05e3ef08039b0,Ultramar Brian Coburn & 10th,45.45082372071338,-75.48285131461155,None,None,Gas Station,5a60fdcb5455b22bcfc2444e
4bcb0823fb84c9b6cb061e3e,Circle K,45.4531781,-75.5119981,K1C 1T1,Orléans,Gas Station,5a60fdcb5455b22bcfc2444e
4d10ef9ad467236a912ec74a,Petro-Canada,45.42856176,-75.63915804,K1J 7S4,Ottawa,Gas Station,4d10ef9ad467236a912ec74a
4b4fe6ecf964a520181927e3,Petro-Canada,45.425284,-75.637431,K1J 7S4,Gloucester,Gas Station,4d10ef9ad467236a912ec74a
5a9d97486eda02095169baf2,Petro-Canada,45.42836,-75.6391918,K1K 3B1,Ottawa,Gas Station,4d10ef9ad467236a912ec74a
4c0152630bce20a12782f6c6,Saab Gas Centre,45.42506294,-75.63533742,None,Ottawa,Gas Station,4d10ef9ad467236a912ec74a
4c7dbbe59221236a1755803d,Pioneer Energy,45.426103,-75.631007,K1J 8V1,Gloucester,Gas Station,4d10ef9ad467236a912ec74a
4e29bad245ddfe8f9dff7183,Pioneer Energy,45.441638,-75.644181,K1K 0T9,Ottawa,Gas Station,4d10ef9ad467236a912ec74a
4c10d9ad6b7e2d7f80332835,Pioneer Energy,45.411151,-75.640736,K1G 0Z1,Ottawa,Gas Station,4d10ef9ad467236a912ec74a
4d493d025129a35d605237ac,MacEwen Gas,45.41232023329462,-75.63038569830562,None,Ottawa,Gas Station,4d10ef9ad467236a912ec74a
4b8a9a20f964a520947432e3,Esso,45.41493121831715,-75.60473716562313,None,Ottawa,Gas Station,4e8673fed66a9b178e91269f
4e8673fed66a9b178e91269f,Petro-Canada,45.414551778980865,-75.60870796122774,K1B 3K5,Ottawa,Gas Station,4e8673fed66a9b178e91269f
57ee9e37498e4bb1d91214df,Petro-Pass Truck Stop,45.411983,-75.612086,K1B 4V5,Ottawa,Gas Station,4e8673fed66a9b178e91269f
5b4cd52eccad6b002cc840f8,Praxair Canada Inc.,45.4146462,-75.61596829999999,K1B 3W6,Ottawa,Gas Station,4e8673fed66a9b178e91269f
4c95098638dd8cfa3cd2ce62,Petro-Canada,45.419393,-75.596303,K1B 4C6,Gloucester,Gas Station,4e8673fed66a9b178e91269f
51e04bcb1d9fb5b225504f25,Pioneer Energy,45.406635,-75.616974,K1B 4G6,Ottawa,Gas Station,4e8673fed66a9b178e91269f
4d474b0d14aa8cfadc96863d,Petro-Canada,45.405315,-75.62679,K1G 1A2,Ottawa,Gas Station,4e8673fed66a9b178e91269f
4d493d025129a35d605237ac,MacEwen Gas,45.41232023329462,-75.63038569830562,None,Ottawa,Gas Station,4e8673fed66a9b178e91269f
4d474b0d14aa8cfadc96863d,Petro-Canada,45.405315,-75.62679,K1G 1A2,Ottawa,Gas Station,4d474b0d14aa8cfadc96863d
51e04bcb1d9fb5b225504f25,Pioneer Energy,45.406635,-75.616974,K1B 4G6,Ottawa,Gas Station,4d474b0d14aa8cfadc96863d
4d493d025129a35d605237ac,MacEwen Gas,45.41232023329462,-75.63038569830562,None,Ottawa,Gas Station,4d474b0d14aa8cfadc96863d
4c10d9ad6b7e2d7f80332835,Pioneer Energy,45.411151,-75.640736,K1G 0Z1,Ottawa,Gas Station,4d474b0d14aa8cfadc96863d
4e001453d22d5ec6f277559b,Shell,45.38916716368916,-75.61822301686017,K1G 1B2,Ottawa,Gas Station,4d474b0d14aa8cfadc96863d
58776b636e60751134a23c0b,Ultramar,45.395459,-75.621428,K1G 2A1,Ottawa,Gas Station,4d474b0d14aa8cfadc96863d
57ee9e37498e4bb1d91214df,Petro-Pass Truck Stop,45.411983,-75.612086,K1B 4V5,Ottawa,Gas Station,4d474b0d14aa8cfadc96863d
4c65e3129cb82d7fcc478fd2,Quickie,45.39547230875543,-75.62157284902324,None,None,Gas Station,4d474b0d14aa8cfadc96863d
5a60f0654f0e586d106787c1,NAPA AUTOPRO - J & D Auto-Tech Inc,45.3953459,-75.6218727,K1G 2A1,Ottawa,Gas Station,4d474b0d14aa8cfadc96863d
4e8673fed66a9b178e91269f,Petro-Canada,45.414551778980865,-75.60870796122774,K1B 3K5,Ottawa,Gas Station,4d474b0d14aa8cfadc96863d
5b4cd52eccad6b002cc840f8,Praxair Canada Inc.,45.4146462,-75.61596829999999,K1B 3W6,Ottawa,Gas Station,4d474b0d14aa8cfadc96863d
4cd2eb3b25ee6dcbc511470f,Esso,45.455637,-75.505014,None,None,Gas Station,4bcb0823fb84c9b6cb061e3e
4bcb0823fb84c9b6cb061e3e,Circle K,45.4531781,-75.5119981,K1C 1T1,Orléans,Gas Station,4bcb0823fb84c9b6cb061e3e
4b18fccef964a520f6d623e3,Petro-Canada,45.45939,-75.491225,K4A 3W3,Cumberland,Gas Station,4bcb0823fb84c9b6cb061e3e
4b6b34d5f964a52091f92be3,Refuel at Superstore,45.45743763030909,-75.49643227302778,None,Ottawa,Gas Station,4bcb0823fb84c9b6cb061e3e
4b7d78a3f964a520a2c02fe3,Ultramar,45.447068,-75.52725,K1C 1T1,Ottawa,Gas Station,4bcb0823fb84c9b6cb061e3e
5a60fdcb5455b22bcfc2444e,NAPA AUTOPRO - Precision Automotive,45.459339237719526,-75.48951339558698,K4A 3W2,Orléans,Gas Station,4bcb0823fb84c9b6cb061e3e
4e67699e2271517970277eca,Esso,45.364149476057584,-75.61986646117148,K1T 3S4,Ottawa,Gas Station,4e67699e2271517970277eca
4c4ec2919efabe9a84fb986a,Petro-Canada,45.373824,-75.623971,K1G 3N4,Ottawa,Gas Station,4e67699e2271517970277eca
4bbd217b4e069c74aa6d9ee3,Esso,45.36052102054499,-75.63177120424243,K1T 3Z3,Ottawa,Gas Station,4e67699e2271517970277eca
587c8a6c9e35d312245f954d,Ultramar,45.360503,-75.631663,K1T 3Z3,Ottawa,Gas Station,4e67699e2271517970277eca
4c13b3f5f1e0b71376b334bc,Pioneer Energy,45.347975,-75.625072,K1T 1N7,Gloucester,Gas Station,4e67699e2271517970277eca
4e8673fbd66a9b178e911eda,Petro-Canada,45.447474,-75.59479,K1J 6M1,Gloucester,Gas Station,4c8add853dc2a1cd332cb132
4c8add853dc2a1cd332cb132,Petro-Canada,45.449477,-75.588401,K1J 1G4,Ottawa,Gas Station,4c8add853dc2a1cd332cb132
4c48b9726f1420a1c8eca954,Oil Changers,45.446784,-75.594309,None,Ottawa,Gas Station,4c8add853dc2a1cd332cb132
4b7c954df964a520429c2fe3,Circle K,45.4479063,-75.5939022,K1J 6M6,Ottawa,Gas Station,4c8add853dc2a1cd332cb132
4bedbf82e24d20a104ee7114,Pioneer Gas,45.43640942259172,-75.60440651825871,None,Ottawa,Gas Station,4c8add853dc2a1cd332cb132
4c10d9ad6b7e2d7f80332835,Pioneer Energy,45.411151,-75.640736,K1G 0Z1,Ottawa,Gas Station,4c10d9ad6b7e2d7f80332835
4d493d025129a35d605237ac,MacEwen Gas,45.41232023329462,-75.63038569830562,None,Ottawa,Gas Station,4c10d9ad6b7e2d7f80332835
4d474b0d14aa8cfadc96863d,Petro-Canada,45.405315,-75.62679,K1G 1A2,Ottawa,Gas Station,4c10d9ad6b7e2d7f80332835
4b4fe6ecf964a520181927e3,Petro-Canada,45.425284,-75.637431,K1J 7S4,Gloucester,Gas Station,4c10d9ad6b7e2d7f80332835
4d10ef9ad467236a912ec74a,Petro-Canada,45.42856176,-75.63915804,K1J 7S4,Ottawa,Gas Station,4c10d9ad6b7e2d7f80332835
4c0152630bce20a12782f6c6,Saab Gas Centre,45.42506294,-75.63533742,None,Ottawa,Gas Station,4c10d9ad6b7e2d7f80332835
4c7dbbe59221236a1755803d,Pioneer Energy,45.426103,-75.631007,K1J 8V1,Gloucester,Gas Station,4c10d9ad6b7e2d7f80332835
5a9d97486eda02095169baf2,Petro-Canada,45.42836,-75.6391918,K1K 3B1,Ottawa,Gas Station,4c10d9ad6b7e2d7f80332835
51e04bcb1d9fb5b225504f25,Pioneer Energy,45.406635,-75.616974,K1B 4G6,Ottawa,Gas Station,4c10d9ad6b7e2d7f80332835
5b4cd52eccad6b002cc840f8,Praxair Canada Inc.,45.4146462,-75.61596829999999,K1B 3W6,Ottawa,Gas Station,4c10d9ad6b7e2d7f80332835
4d3337416c7c721ed84eb756,Pioneer Energy,45.471675,-75.522841,K1C 1G5,Orléans,Gas Station,5b4d9379a42362002c3125d0
4b7c612bf964a520e38f2fe3,Shell,45.47425707786498,-75.51559747645466,K1C 7C2,Orléans,Gas Station,5b4d9379a42362002c3125d0
5b4d9379a42362002c3125d0,Meineke Car Care Centre,45.47134,-75.5234399,K1C 1G3,Ottawa,Gas Station,5b4d9379a42362002c3125d0
4dd9d376b0fb8af380c0e9d1,Petro-Canada,45.478342,-75.512485,K1C 1T1,Orléans,Gas Station,5b4d9379a42362002c3125d0
4bb3ed86737d76b039ea3a7c,Petro-Canada,45.46417,-75.539435,K1C 1E4,Orléans,Gas Station,5b4d9379a42362002c3125d0
4fce4f7ce4b0231f2cd142e8,NAPA AUTOPRO - Orleans AUTOPRO,45.46740396072522,-75.53350698784925,K1C 1E7,Orléans,Gas Station,5b4d9379a42362002c3125d0
4b59d639f964a5200d9b28e3,Mr. Lube,45.463915,-75.540608,K1C 1E4,Orléans,Gas Station,5b4d9379a42362002c3125d0
4c39cfd42c8020a14c368d00,Petro-Canada,45.353763,-75.646184,K1V 8R9,Ottawa,Gas Station,57eeaba4498e1e1c58c104f1
57eeaba4498e1e1c58c104f1,Petro-Canada,45.35371,-75.642179,K1T 1M9,Gloucester,Gas Station,57eeaba4498e1e1c58c104f1
4b8538c2f964a520815131e3,Shell,45.35363847022218,-75.64327863505588,K1V 8S2,Ottawa,Gas Station,57eeaba4498e1e1c58c104f1
4bbd217b4e069c74aa6d9ee3,Esso,45.36052102054499,-75.63177120424243,K1T 3Z3,Ottawa,Gas Station,57eeaba4498e1e1c58c104f1
587c8a6c9e35d312245f954d,Ultramar,45.360503,-75.631663,K1T 3Z3,Ottawa,Gas Station,57eeaba4498e1e1c58c104f1
4c13b3f5f1e0b71376b334bc,Pioneer Energy,45.347975,-75.625072,K1T 1N7,Gloucester,Gas Station,57eeaba4498e1e1c58c104f1
4bb3ed86737d76b039ea3a7c,Petro-Canada,45.46417,-75.539435,K1C 1E4,Orléans,Gas Station,4fce4f7ce4b0231f2cd142e8
4fce4f7ce4b0231f2cd142e8,NAPA AUTOPRO - Orleans AUTOPRO,45.46740396072522,-75.53350698784925,K1C 1E7,Orléans,Gas Station,4fce4f7ce4b0231f2cd142e8
4b59d639f964a5200d9b28e3,Mr. Lube,45.463915,-75.540608,K1C 1E4,Orléans,Gas Station,4fce4f7ce4b0231f2cd142e8
4d3337416c7c721ed84eb756,Pioneer Energy,45.471675,-75.522841,K1C 1G5,Orléans,Gas Station,4fce4f7ce4b0231f2cd142e8
4b7c612bf964a520e38f2fe3,Shell,45.47425707786498,-75.51559747645466,K1C 7C2,Orléans,Gas Station,4fce4f7ce4b0231f2cd142e8
5b4d9379a42362002c3125d0,Meineke Car Care Centre,45.47134,-75.5234399,K1C 1G3,Ottawa,Gas Station,4fce4f7ce4b0231f2cd142e8
5880afcfb50d5245de11f1c2,Ultramar,45.461829,-75.548433,K1C 7C6,Orléans,Gas Station,4fce4f7ce4b0231f2cd142e8
4b6d7bd3f964a52082772ce3,Esso,45.383077138391556,-75.63096040142683,K1H 1W1,Ottawa,Gas Station,4b6d7bd3f964a52082772ce3
4e001453d22d5ec6f277559b,Shell,45.38916716368916,-75.61822301686017,K1G 1B2,Ottawa,Gas Station,4b6d7bd3f964a52082772ce3
4c4ec2919efabe9a84fb986a,Petro-Canada,45.373824,-75.623971,K1G 3N4,Ottawa,Gas Station,4b6d7bd3f964a52082772ce3
58af042976b8b22951f4a130,Ultramar,45.38041,-75.63939,K1V 6A1,Ottawa,Gas Station,4b6d7bd3f964a52082772ce3
58776b636e60751134a23c0b,Ultramar,45.395459,-75.621428,K1G 2A1,Ottawa,Gas Station,4b6d7bd3f964a52082772ce3
5a60f0654f0e586d106787c1,NAPA AUTOPRO - J & D Auto-Tech Inc,45.3953459,-75.6218727,K1G 2A1,Ottawa,Gas Station,4b6d7bd3f964a52082772ce3
4c65e3129cb82d7fcc478fd2,Quickie,45.39547230875543,-75.62157284902324,None,None,Gas Station,4b6d7bd3f964a52082772ce3
4c4642d9cd5ca5930c5a0087,Petro-Canada,45.433146,-75.668333,K1L 6E7,Vanier,Gas Station,4c4642d9cd5ca5930c5a0087
4b3d4ee2f964a520179225e3,Shell,45.4332134,-75.66968915,K1L 6E8,Ottawa,Gas Station,4c4642d9cd5ca5930c5a0087
4c5d675385a1e21efe365911,Shell,45.43940923,-75.67671312,K1L 8B3,Ottawa,Gas Station,4c4642d9cd5ca5930c5a0087
4c796199bd346dcbb63bf5ef,Petro-Canada,45.428758,-75.685672,K1N 5Y5,Ottawa,Gas Station,4c4642d9cd5ca5930c5a0087
4bb3ed86737d76b039ea3a7c,Petro-Canada,45.46417,-75.539435,K1C 1E4,Orléans,Gas Station,4b59d639f964a5200d9b28e3
4b59d639f964a5200d9b28e3,Mr. Lube,45.463915,-75.540608,K1C 1E4,Orléans,Gas Station,4b59d639f964a5200d9b28e3
5880afcfb50d5245de11f1c2,Ultramar,45.461829,-75.548433,K1C 7C6,Orléans,Gas Station,4b59d639f964a5200d9b28e3
4fce4f7ce4b0231f2cd142e8,NAPA AUTOPRO - Orleans AUTOPRO,45.46740396072522,-75.53350698784925,K1C 1E7,Orléans,Gas Station,4b59d639f964a5200d9b28e3
4d3337416c7c721ed84eb756,Pioneer Energy,45.471675,-75.522841,K1C 1G5,Orléans,Gas Station,4b59d639f964a5200d9b28e3
5b4d9379a42362002c3125d0,Meineke Car Care Centre,45.47134,-75.5234399,K1C 1G3,Ottawa,Gas Station,4b59d639f964a5200d9b28e3
4e8673fbd66a9b178e911eda,Petro-Canada,45.447474,-75.59479,K1J 6M1,Gloucester,Gas Station,4c48b9726f1420a1c8eca954
4c48b9726f1420a1c8eca954,Oil Changers,45.446784,-75.594309,None,Ottawa,Gas Station,4c48b9726f1420a1c8eca954
4b7c954df964a520429c2fe3,Circle K,45.4479063,-75.5939022,K1J 6M6,Ottawa,Gas Station,4c48b9726f1420a1c8eca954
4c8add853dc2a1cd332cb132,Petro-Canada,45.449477,-75.588401,K1J 1G4,Ottawa,Gas Station,4c48b9726f1420a1c8eca954
4b9f87dcf964a520472937e3,Canadian Tire Gas+,45.435594318337024,-75.60664518764234,K1J 8X3,Ottawa,Gas Station,4c48b9726f1420a1c8eca954
4bedbf82e24d20a104ee7114,Pioneer Gas,45.43640942259172,-75.60440651825871,None,Ottawa,Gas Station,4c48b9726f1420a1c8eca954
4c4642d9cd5ca5930c5a0087,Petro-Canada,45.433146,-75.668333,K1L 6E7,Vanier,Gas Station,4b3d4ee2f964a520179225e3
4b3d4ee2f964a520179225e3,Shell,45.4332134,-75.66968915,K1L 6E8,Ottawa,Gas Station,4b3d4ee2f964a520179225e3
4c5d675385a1e21efe365911,Shell,45.43940923,-75.67671312,K1L 8B3,Ottawa,Gas Station,4b3d4ee2f964a520179225e3
4c796199bd346dcbb63bf5ef,Petro-Canada,45.428758,-75.685672,K1N 5Y5,Ottawa,Gas Station,4b3d4ee2f964a520179225e3
4b9f87dcf964a520472937e3,Canadian Tire Gas+,45.435594318337024,-75.60664518764234,K1J 8X3,Ottawa,Gas Station,4bedbf82e24d20a104ee7114
4bedbf82e24d20a104ee7114,Pioneer Gas,45.43640942259172,-75.60440651825871,None,Ottawa,Gas Station,4bedbf82e24d20a104ee7114
4ba3f3d5f964a520e77038e3,Mr Gas,45.43323771047425,-75.61272350836121,None,None,Gas Station,4bedbf82e24d20a104ee7114
4e8673fbd66a9b178e911eda,Petro-Canada,45.447474,-75.59479,K1J 6M1,Gloucester,Gas Station,4bedbf82e24d20a104ee7114
4c48b9726f1420a1c8eca954,Oil Changers,45.446784,-75.594309,None,Ottawa,Gas Station,4bedbf82e24d20a104ee7114
4b7c954df964a520429c2fe3,Circle K,45.4479063,-75.5939022,K1J 6M6,Ottawa,Gas Station,4bedbf82e24d20a104ee7114
4c95098638dd8cfa3cd2ce62,Petro-Canada,45.419393,-75.596303,K1B 4C6,Gloucester,Gas Station,4bedbf82e24d20a104ee7114
4c8add853dc2a1cd332cb132,Petro-Canada,45.449477,-75.588401,K1J 1G4,Ottawa,Gas Station,4bedbf82e24d20a104ee7114
4e8673fed66a9b178e91269f,Petro-Canada,45.414551778980865,-75.60870796122774,K1B 3K5,Ottawa,Gas Station,57ee9e37498e4bb1d91214df
4b8a9a20f964a520947432e3,Esso,45.41493121831715,-75.60473716562313,None,Ottawa,Gas Station,57ee9e37498e4bb1d91214df
57ee9e37498e4bb1d91214df,Petro-Pass Truck Stop,45.411983,-75.612086,K1B 4V5,Ottawa,Gas Station,57ee9e37498e4bb1d91214df
5b4cd52eccad6b002cc840f8,Praxair Canada Inc.,45.4146462,-75.61596829999999,K1B 3W6,Ottawa,Gas Station,57ee9e37498e4bb1d91214df
51e04bcb1d9fb5b225504f25,Pioneer Energy,45.406635,-75.616974,K1B 4G6,Ottawa,Gas Station,57ee9e37498e4bb1d91214df
4d474b0d14aa8cfadc96863d,Petro-Canada,45.405315,-75.62679,K1G 1A2,Ottawa,Gas Station,57ee9e37498e4bb1d91214df
4c95098638dd8cfa3cd2ce62,Petro-Canada,45.419393,-75.596303,K1B 4C6,Gloucester,Gas Station,57ee9e37498e4bb1d91214df
4d493d025129a35d605237ac,MacEwen Gas,45.41232023329462,-75.63038569830562,None,Ottawa,Gas Station,57ee9e37498e4bb1d91214df
58776b636e60751134a23c0b,Ultramar,45.395459,-75.621428,K1G 2A1,Ottawa,Gas Station,57ee9e37498e4bb1d91214df
4c65e3129cb82d7fcc478fd2,Quickie,45.39547230875543,-75.62157284902324,None,None,Gas Station,57ee9e37498e4bb1d91214df
59a5d61779187166d80627b5,Ultramar,45.382234,-75.601757,K1G 3V8,Ottawa,Gas Station,59a5d61779187166d80627b5
4ec18d860cd6d2a16f80db3c,Pipeline,45.382234,-75.601757,K1G 3V8,Ottawa,Gas Station,59a5d61779187166d80627b5
4e001453d22d5ec6f277559b,Shell,45.38916716368916,-75.61822301686017,K1G 1B2,Ottawa,Gas Station,59a5d61779187166d80627b5
4da599398154a54251bb668d,Ultramar,45.374736,-75.596987,K1G 4G2,Ottawa,Gas Station,59a5d61779187166d80627b5
4c4ec2919efabe9a84fb986a,Petro-Canada,45.373824,-75.623971,K1G 3N4,Ottawa,Gas Station,59a5d61779187166d80627b5
59a5d61779187166d80627b5,Ultramar,45.382234,-75.601757,K1G 3V8,Ottawa,Gas Station,4ec18d860cd6d2a16f80db3c
4ec18d860cd6d2a16f80db3c,Pipeline,45.382234,-75.601757,K1G 3V8,Ottawa,Gas Station,4ec18d860cd6d2a16f80db3c
4e001453d22d5ec6f277559b,Shell,45.38916716368916,-75.61822301686017,K1G 1B2,Ottawa,Gas Station,4ec18d860cd6d2a16f80db3c
4da599398154a54251bb668d,Ultramar,45.374736,-75.596987,K1G 4G2,Ottawa,Gas Station,4ec18d860cd6d2a16f80db3c
4c4ec2919efabe9a84fb986a,Petro-Canada,45.373824,-75.623971,K1G 3N4,Ottawa,Gas Station,4ec18d860cd6d2a16f80db3c
4da599398154a54251bb668d,Ultramar,45.374736,-75.596987,K1G 4G2,Ottawa,Gas Station,4da599398154a54251bb668d
59a5d61779187166d80627b5,Ultramar,45.382234,-75.601757,K1G 3V8,Ottawa,Gas Station,4da599398154a54251bb668d
4ec18d860cd6d2a16f80db3c,Pipeline,45.382234,-75.601757,K1G 3V8,Ottawa,Gas Station,4da599398154a54251bb668d
4c5d675385a1e21efe365911,Shell,45.43940923,-75.67671312,K1L 8B3,Ottawa,Gas Station,4c5d675385a1e21efe365911
4b3d4ee2f964a520179225e3,Shell,45.4332134,-75.66968915,K1L 6E8,Ottawa,Gas Station,4c5d675385a1e21efe365911
4c4642d9cd5ca5930c5a0087,Petro-Canada,45.433146,-75.668333,K1L 6E7,Vanier,Gas Station,4c5d675385a1e21efe365911
4c796199bd346dcbb63bf5ef,Petro-Canada,45.428758,-75.685672,K1N 5Y5,Ottawa,Gas Station,4c5d675385a1e21efe365911
4cb3345aeb65b1f703fb81cd,MacEwen Petroleum,45.2697594004997,-75.5945612535884,K1G 3N3,Ottawa,Gas Station,4cb3345aeb65b1f703fb81cd
4bfe591de529c928bd2abc8c,MacEwen Gas,45.26980177996046,-75.59434545497373,None,Ottawa,Gas Station,4cb3345aeb65b1f703fb81cd
4d17c458b15cb1f7b597b621,Drummonds Gas Station,45.281599669070715,-75.57097457191362,None,Ottawa,Gas Station,4d17c458b15cb1f7b597b621
4e8673fcd66a9b178e911faa,Petro-Canada,45.2834,-75.56604,K1T 1M9,Gloucester,Gas Station,4d17c458b15cb1f7b597b621
513f544ae4b0f802737daf6a,MacEWAN Gas Bar,45.29684601468064,-75.58058236768369,None,Ottawa,Gas Station,4d17c458b15cb1f7b597b621
5124de9ee4b089c767c17aff,MacEwens,45.29716039113579,-75.58080914147426,None,Ottawa,Gas Station,4d17c458b15cb1f7b597b621
4b755da6f964a52078082ee3,Petro-Canada,45.333823,-75.693783,K1V 2E8,Ottawa,Gas Station,4b755da6f964a52078082ee3
4b7160b3f964a520a4432de3,Esso,45.33347452558583,-75.70196629171075,K2E 7A4,Ottawa,Gas Station,4b755da6f964a52078082ee3
4cadc3032a55224b1dc17069,Riverside Esso,45.34246271316887,-75.6925713746092,K1V 1G8,Ottawa,Gas Station,4b755da6f964a52078082ee3
5b3166c622d490002c7d98e2,Ultramar Energy,45.338,-75.717841,K2E 1A6,Ottawa,Gas Station,4b755da6f964a52078082ee3
4f8828a910814e61a4fed181,Tim Hortons,45.327369205372676,-75.70152729749685,K2E 6Z8,Nepean,Coffee Shop,4b755da6f964a52078082ee3
4e8673fcd66a9b178e911faa,Petro-Canada,45.2834,-75.56604,K1T 1M9,Gloucester,Gas Station,4e8673fcd66a9b178e911faa
4d17c458b15cb1f7b597b621,Drummonds Gas Station,45.281599669070715,-75.57097457191362,None,Ottawa,Gas Station,4e8673fcd66a9b178e911faa
513f544ae4b0f802737daf6a,MacEWAN Gas Bar,45.29684601468064,-75.58058236768369,None,Ottawa,Gas Station,4e8673fcd66a9b178e911faa
5124de9ee4b089c767c17aff,MacEwens,45.29716039113579,-75.58080914147426,None,Ottawa,Gas Station,4e8673fcd66a9b178e911faa
5124de9ee4b089c767c17aff,MacEwens,45.29716039113579,-75.58080914147426,None,Ottawa,Gas Station,5124de9ee4b089c767c17aff
513f544ae4b0f802737daf6a,MacEWAN Gas Bar,45.29684601468064,-75.58058236768369,None,Ottawa,Gas Station,5124de9ee4b089c767c17aff
4d17c458b15cb1f7b597b621,Drummonds Gas Station,45.281599669070715,-75.57097457191362,None,Ottawa,Gas Station,5124de9ee4b089c767c17aff
4e8673fcd66a9b178e911faa,Petro-Canada,45.2834,-75.56604,K1T 1M9,Gloucester,Gas Station,5124de9ee4b089c767c17aff
4d20e92916cfb60c7c1d5d61,Esso,45.331288,-75.5995287,K1T 3W5,Ottawa,Gas Station,4d20e92916cfb60c7c1d5d61
4dc99dc22271f579debd3058,Leitrim Service Centre,45.331494,-75.599134,None,Gloucester,Gas Station,4d20e92916cfb60c7c1d5d61
4c200933b4e62d7fa697e093,Stinson,45.32472595936018,-75.59658744189625,None,Ottawa,Gas Station,4d20e92916cfb60c7c1d5d61
53767622498e1d9a9944d4b7,Canadian Tire + Gas Bar,45.319459,-75.593361,None,Findlay Creek,Gas Station,4d20e92916cfb60c7c1d5d61
527fd04211d2e567e60fd037,Canadian Tire Gas+,45.31815093064238,-75.59388641230454,K1T 0K8,Gloucester,Gas Station,4d20e92916cfb60c7c1d5d61
4b8d2125f964a5205be932e3,Shell,45.28685487,-75.70293123,K2C 3H1,Nepean,Gas Station,4b8d2125f964a5205be932e3
4bd7678f0b779c745b1a05a0,Petro-Canada,45.276001,-75.719503,K2J 4G5,Nepean,Gas Station,4b8d2125f964a5205be932e3
4db715410437fa536a65afb4,Esso,45.28483038456674,-75.72294657302675,K2G 6A4,Ottawa,Gas Station,4b8d2125f964a5205be932e3
58789d250393cc5a95291efe,Ultramar,45.30033915230139,-75.69985091686249,K2G 6A4,Nepean,Gas Station,4b8d2125f964a5205be932e3
4bfbbd36d2b720a1b051336a,Quickie,45.28506063449237,-75.72280098507443,None,Ottawa,Gas Station,4b8d2125f964a5205be932e3
5b4ecd39610f04002cf6cf61,Ultramar,45.2847395,-75.7229296,K2G 6A4,Nepean,Gas Station,4b8d2125f964a5205be932e3
4cd1e7f45b5ca35d834384f0,McEwen Gas & Wash,45.270930172359876,-75.69884870496931,None,Ottawa,Gas Station,4b8d2125f964a5205be932e3
4b4ce790f964a520abc326e3,MacEwen,45.26953675323259,-75.69895151392065,K1V 2G2,Ottawa,Gas Station,4b8d2125f964a5205be932e3
4c200933b4e62d7fa697e093,Stinson,45.32472595936018,-75.59658744189625,None,Ottawa,Gas Station,4c200933b4e62d7fa697e093
4d20e92916cfb60c7c1d5d61,Esso,45.331288,-75.5995287,K1T 3W5,Ottawa,Gas Station,4c200933b4e62d7fa697e093
53767622498e1d9a9944d4b7,Canadian Tire + Gas Bar,45.319459,-75.593361,None,Findlay Creek,Gas Station,4c200933b4e62d7fa697e093
527fd04211d2e567e60fd037,Canadian Tire Gas+,45.31815093064238,-75.59388641230454,K1T 0K8,Gloucester,Gas Station,4c200933b4e62d7fa697e093
4dc99dc22271f579debd3058,Leitrim Service Centre,45.331494,-75.599134,None,Gloucester,Gas Station,4c200933b4e62d7fa697e093
4bbd217b4e069c74aa6d9ee3,Esso,45.36052102054499,-75.63177120424243,K1T 3Z3,Ottawa,Gas Station,4bbd217b4e069c74aa6d9ee3
587c8a6c9e35d312245f954d,Ultramar,45.360503,-75.631663,K1T 3Z3,Ottawa,Gas Station,4bbd217b4e069c74aa6d9ee3
4e67699e2271517970277eca,Esso,45.364149476057584,-75.61986646117148,K1T 3S4,Ottawa,Gas Station,4bbd217b4e069c74aa6d9ee3
57eeaba4498e1e1c58c104f1,Petro-Canada,45.35371,-75.642179,K1T 1M9,Gloucester,Gas Station,4bbd217b4e069c74aa6d9ee3
4c39cfd42c8020a14c368d00,Petro-Canada,45.353763,-75.646184,K1V 8R9,Ottawa,Gas Station,4bbd217b4e069c74aa6d9ee3
4b8538c2f964a520815131e3,Shell,45.35363847022218,-75.64327863505588,K1V 8S2,Ottawa,Gas Station,4bbd217b4e069c74aa6d9ee3
4c4ec2919efabe9a84fb986a,Petro-Canada,45.373824,-75.623971,K1G 3N4,Ottawa,Gas Station,4bbd217b4e069c74aa6d9ee3
4c13b3f5f1e0b71376b334bc,Pioneer Energy,45.347975,-75.625072,K1T 1N7,Gloucester,Gas Station,4bbd217b4e069c74aa6d9ee3
4c48a3513013a5939789b0e1,Petro-Canada,45.268864,-75.749585,K2J 4B1,Ottawa,Gas Station,4c48a3513013a5939789b0e1
4c6f03eed97fa14326c1f1ca,Canadian Tire Gas Bar,45.27246178219889,-75.74671366321382,None,None,Gas Station,4c48a3513013a5939789b0e1
583c9f7d24f61108b96a2b73,Canadian Tire Gas+,45.272268,-75.7457082,K2J 4Y6,Nepean,Gas Station,4c48a3513013a5939789b0e1
4b76bac2f964a5201d5b2ee3,Esso,45.27453796446751,-75.73826557792235,K2J 5L4,Barrhaven,Gas Station,4c48a3513013a5939789b0e1
4c39cfd42c8020a14c368d00,Petro-Canada,45.353763,-75.646184,K1V 8R9,Ottawa,Gas Station,4b8538c2f964a520815131e3
57eeaba4498e1e1c58c104f1,Petro-Canada,45.35371,-75.642179,K1T 1M9,Gloucester,Gas Station,4b8538c2f964a520815131e3
4b8538c2f964a520815131e3,Shell,45.35363847022218,-75.64327863505588,K1V 8S2,Ottawa,Gas Station,4b8538c2f964a520815131e3
4bbd217b4e069c74aa6d9ee3,Esso,45.36052102054499,-75.63177120424243,K1T 3Z3,Ottawa,Gas Station,4b8538c2f964a520815131e3
587c8a6c9e35d312245f954d,Ultramar,45.360503,-75.631663,K1T 3Z3,Ottawa,Gas Station,4b8538c2f964a520815131e3
4c13b3f5f1e0b71376b334bc,Pioneer Energy,45.347975,-75.625072,K1T 1N7,Gloucester,Gas Station,4b8538c2f964a520815131e3
4cd1e7f45b5ca35d834384f0,McEwen Gas & Wash,45.270930172359876,-75.69884870496931,None,Ottawa,Gas Station,4b4ce790f964a520abc326e3
4b4ce790f964a520abc326e3,MacEwen,45.26953675323259,-75.69895151392065,K1V 2G2,Ottawa,Gas Station,4b4ce790f964a520abc326e3
4bd7678f0b779c745b1a05a0,Petro-Canada,45.276001,-75.719503,K2J 4G5,Nepean,Gas Station,4b4ce790f964a520abc326e3
4b8d2125f964a5205be932e3,Shell,45.28685487,-75.70293123,K2C 3H1,Nepean,Gas Station,4b4ce790f964a520abc326e3
4cd1e7f45b5ca35d834384f0,McEwen Gas & Wash,45.270930172359876,-75.69884870496931,None,Ottawa,Gas Station,4cd1e7f45b5ca35d834384f0
4b4ce790f964a520abc326e3,MacEwen,45.26953675323259,-75.69895151392065,K1V 2G2,Ottawa,Gas Station,4cd1e7f45b5ca35d834384f0
4bd7678f0b779c745b1a05a0,Petro-Canada,45.276001,-75.719503,K2J 4G5,Nepean,Gas Station,4cd1e7f45b5ca35d834384f0
4b8d2125f964a5205be932e3,Shell,45.28685487,-75.70293123,K2C 3H1,Nepean,Gas Station,4cd1e7f45b5ca35d834384f0
4bef0ed6c80dc928a46f27e3,Petro-Canada,45.287359,-75.757252,K2J 1A1,Nepean,Gas Station,4bef0ed6c80dc928a46f27e3
4c6f03eed97fa14326c1f1ca,Canadian Tire Gas Bar,45.27246178219889,-75.74671366321382,None,None,Gas Station,4bef0ed6c80dc928a46f27e3
583c9f7d24f61108b96a2b73,Canadian Tire Gas+,45.272268,-75.7457082,K2J 4Y6,Nepean,Gas Station,4bef0ed6c80dc928a46f27e3
4e86759377c8edfe5ad47659,Shell,45.291602223612045,-75.72800432765533,K2J 4G3,Nepean,Gas Station,4e86759377c8edfe5ad47659
4d0c1a79903d37045545bb55,Petro-Canada,45.29789,-75.731714,K2J 4P5,Nepean,Gas Station,4e86759377c8edfe5ad47659
4db715410437fa536a65afb4,Esso,45.28483038456674,-75.72294657302675,K2G 6A4,Ottawa,Gas Station,4e86759377c8edfe5ad47659
4bfbbd36d2b720a1b051336a,Quickie,45.28506063449237,-75.72280098507443,None,Ottawa,Gas Station,4e86759377c8edfe5ad47659
5b4ecd39610f04002cf6cf61,Ultramar,45.2847395,-75.7229296,K2G 6A4,Nepean,Gas Station,4e86759377c8edfe5ad47659
4bd7678f0b779c745b1a05a0,Petro-Canada,45.276001,-75.719503,K2J 4G5,Nepean,Gas Station,4e86759377c8edfe5ad47659
4b76bac2f964a5201d5b2ee3,Esso,45.27453796446751,-75.73826557792235,K2J 5L4,Barrhaven,Gas Station,4b76bac2f964a5201d5b2ee3
583c9f7d24f61108b96a2b73,Canadian Tire Gas+,45.272268,-75.7457082,K2J 4Y6,Nepean,Gas Station,4b76bac2f964a5201d5b2ee3
4c6f03eed97fa14326c1f1ca,Canadian Tire Gas Bar,45.27246178219889,-75.74671366321382,None,None,Gas Station,4b76bac2f964a5201d5b2ee3
4c48a3513013a5939789b0e1,Petro-Canada,45.268864,-75.749585,K2J 4B1,Ottawa,Gas Station,4b76bac2f964a5201d5b2ee3
4bd7678f0b779c745b1a05a0,Petro-Canada,45.276001,-75.719503,K2J 4G5,Nepean,Gas Station,4b76bac2f964a5201d5b2ee3
4db715410437fa536a65afb4,Esso,45.28483038456674,-75.72294657302675,K2G 6A4,Ottawa,Gas Station,4b76bac2f964a5201d5b2ee3
5b4ecd39610f04002cf6cf61,Ultramar,45.2847395,-75.7229296,K2G 6A4,Nepean,Gas Station,4b76bac2f964a5201d5b2ee3
4bfbbd36d2b720a1b051336a,Quickie,45.28506063449237,-75.72280098507443,None,Ottawa,Gas Station,4b76bac2f964a5201d5b2ee3
4f3d3a11e4b0fa28e0f38929,Esso Avitat,45.3237251202578,-75.6566448071217,K1V 9B4,Ottawa,Gas Station,4f3d3a11e4b0fa28e0f38929
58789d250393cc5a95291efe,Ultramar,45.30033915230139,-75.69985091686249,K2G 6A4,Nepean,Gas Station,58789d250393cc5a95291efe
4b8d2125f964a5205be932e3,Shell,45.28685487,-75.70293123,K2C 3H1,Nepean,Gas Station,58789d250393cc5a95291efe
4b9fc720f964a520ca3d37e3,Petro-Canada,45.361259,-75.739137,K2C 0A9,Nepean,Gas Station,4b9fc720f964a520ca3d37e3
4c0c0c8d7e3fc9280c3ff682,Mr. Lube,45.361099,-75.740329,K2C 0B2,Ottawa,Gas Station,4b9fc720f964a520ca3d37e3
4be2e28c660ec928d972ca3b,Shell,45.35425577238386,-75.73592838496675,K2G 3J8,Nepean,Gas Station,4b9fc720f964a520ca3d37e3
4b7f09a3f964a520051230e3,refuel,45.36327249164529,-75.73428926759148,K2E 5P2,Nepean,Gas Station,4b9fc720f964a520ca3d37e3
4c0fec78f1b6a593e6117b27,Esso,45.35030126933906,-75.73367705668883,K2G 3K1,Ottawa,Gas Station,4b9fc720f964a520ca3d37e3
4dc9201645dd9aa940b644fe,Ultramar,45.354983,-75.735482,K2G 3J4,Nepean,Gas Station,4b9fc720f964a520ca3d37e3
4db715410437fa536a65afb4,Esso,45.28483038456674,-75.72294657302675,K2G 6A4,Ottawa,Gas Station,5b4ecd39610f04002cf6cf61
5b4ecd39610f04002cf6cf61,Ultramar,45.2847395,-75.7229296,K2G 6A4,Nepean,Gas Station,5b4ecd39610f04002cf6cf61
4bfbbd36d2b720a1b051336a,Quickie,45.28506063449237,-75.72280098507443,None,Ottawa,Gas Station,5b4ecd39610f04002cf6cf61
4bd7678f0b779c745b1a05a0,Petro-Canada,45.276001,-75.719503,K2J 4G5,Nepean,Gas Station,5b4ecd39610f04002cf6cf61
4e86759377c8edfe5ad47659,Shell,45.291602223612045,-75.72800432765533,K2J 4G3,Nepean,Gas Station,5b4ecd39610f04002cf6cf61
4d0c1a79903d37045545bb55,Petro-Canada,45.29789,-75.731714,K2J 4P5,Nepean,Gas Station,5b4ecd39610f04002cf6cf61
4b8d2125f964a5205be932e3,Shell,45.28685487,-75.70293123,K2C 3H1,Nepean,Gas Station,5b4ecd39610f04002cf6cf61
4b76bac2f964a5201d5b2ee3,Esso,45.27453796446751,-75.73826557792235,K2J 5L4,Barrhaven,Gas Station,5b4ecd39610f04002cf6cf61
4db715410437fa536a65afb4,Esso,45.28483038456674,-75.72294657302675,K2G 6A4,Ottawa,Gas Station,4bfbbd36d2b720a1b051336a
5b4ecd39610f04002cf6cf61,Ultramar,45.2847395,-75.7229296,K2G 6A4,Nepean,Gas Station,4bfbbd36d2b720a1b051336a
4bfbbd36d2b720a1b051336a,Quickie,45.28506063449237,-75.72280098507443,None,Ottawa,Gas Station,4bfbbd36d2b720a1b051336a
4bd7678f0b779c745b1a05a0,Petro-Canada,45.276001,-75.719503,K2J 4G5,Nepean,Gas Station,4bfbbd36d2b720a1b051336a
4e86759377c8edfe5ad47659,Shell,45.291602223612045,-75.72800432765533,K2J 4G3,Nepean,Gas Station,4bfbbd36d2b720a1b051336a
4d0c1a79903d37045545bb55,Petro-Canada,45.29789,-75.731714,K2J 4P5,Nepean,Gas Station,4bfbbd36d2b720a1b051336a
4b8d2125f964a5205be932e3,Shell,45.28685487,-75.70293123,K2C 3H1,Nepean,Gas Station,4bfbbd36d2b720a1b051336a
4b76bac2f964a5201d5b2ee3,Esso,45.27453796446751,-75.73826557792235,K2J 5L4,Barrhaven,Gas Station,4bfbbd36d2b720a1b051336a
4c13b3f5f1e0b71376b334bc,Pioneer Energy,45.347975,-75.625072,K1T 1N7,Gloucester,Gas Station,4c13b3f5f1e0b71376b334bc
57eeaba4498e1e1c58c104f1,Petro-Canada,45.35371,-75.642179,K1T 1M9,Gloucester,Gas Station,4c13b3f5f1e0b71376b334bc
4bbd217b4e069c74aa6d9ee3,Esso,45.36052102054499,-75.63177120424243,K1T 3Z3,Ottawa,Gas Station,4c13b3f5f1e0b71376b334bc
4c39cfd42c8020a14c368d00,Petro-Canada,45.353763,-75.646184,K1V 8R9,Ottawa,Gas Station,4c13b3f5f1e0b71376b334bc
4b8538c2f964a520815131e3,Shell,45.35363847022218,-75.64327863505588,K1V 8S2,Ottawa,Gas Station,4c13b3f5f1e0b71376b334bc
4e67699e2271517970277eca,Esso,45.364149476057584,-75.61986646117148,K1T 3S4,Ottawa,Gas Station,4c13b3f5f1e0b71376b334bc
587c8a6c9e35d312245f954d,Ultramar,45.360503,-75.631663,K1T 3Z3,Ottawa,Gas Station,4c13b3f5f1e0b71376b334bc
587c62735a586959d91b1813,Ultramar,45.240422,-75.712735,K2C 3H2,Nepean,Gas Station,4bed4f4fbac3c9b6d710fee9
4bed4f4fbac3c9b6d710fee9,Ultramar,45.240365,-75.71267,K2C 3H2,Ottawa,Gas Station,4bed4f4fbac3c9b6d710fee9
587c62735a586959d91b1813,Ultramar,45.240422,-75.712735,K2C 3H2,Nepean,Gas Station,587c62735a586959d91b1813
4bed4f4fbac3c9b6d710fee9,Ultramar,45.240365,-75.71267,K2C 3H2,Ottawa,Gas Station,587c62735a586959d91b1813
4db715410437fa536a65afb4,Esso,45.28483038456674,-75.72294657302675,K2G 6A4,Ottawa,Gas Station,4db715410437fa536a65afb4
5b4ecd39610f04002cf6cf61,Ultramar,45.2847395,-75.7229296,K2G 6A4,Nepean,Gas Station,4db715410437fa536a65afb4
4bfbbd36d2b720a1b051336a,Quickie,45.28506063449237,-75.72280098507443,None,Ottawa,Gas Station,4db715410437fa536a65afb4
4bd7678f0b779c745b1a05a0,Petro-Canada,45.276001,-75.719503,K2J 4G5,Nepean,Gas Station,4db715410437fa536a65afb4
4e86759377c8edfe5ad47659,Shell,45.291602223612045,-75.72800432765533,K2J 4G3,Nepean,Gas Station,4db715410437fa536a65afb4
4d0c1a79903d37045545bb55,Petro-Canada,45.29789,-75.731714,K2J 4P5,Nepean,Gas Station,4db715410437fa536a65afb4
4b8d2125f964a5205be932e3,Shell,45.28685487,-75.70293123,K2C 3H1,Nepean,Gas Station,4db715410437fa536a65afb4
4b76bac2f964a5201d5b2ee3,Esso,45.27453796446751,-75.73826557792235,K2J 5L4,Barrhaven,Gas Station,4db715410437fa536a65afb4
5824862bf2c98b32f0bf22b5,Costco Gasoline,45.26883848573053,-75.78267559772908,None,Ottawa,Gas Station,5824862bf2c98b32f0bf22b5
4b622087f964a52042372ae3,MacEWEN,45.26915772645751,-75.80187214994338,None,Nepean,Gas Station,5824862bf2c98b32f0bf22b5
4b697a1df964a520d2a32be3,Ultramar,45.28139,-75.837993,K2M 2Z2,Ottawa,Gas Station,4b697a1df964a520d2a32be3
4c48a3513013a5939789b0e1,Petro-Canada,45.268864,-75.749585,K2J 4B1,Ottawa,Gas Station,583c9f7d24f61108b96a2b73
4c6f03eed97fa14326c1f1ca,Canadian Tire Gas Bar,45.27246178219889,-75.74671366321382,None,None,Gas Station,583c9f7d24f61108b96a2b73
583c9f7d24f61108b96a2b73,Canadian Tire Gas+,45.272268,-75.7457082,K2J 4Y6,Nepean,Gas Station,583c9f7d24f61108b96a2b73
4b76bac2f964a5201d5b2ee3,Esso,45.27453796446751,-75.73826557792235,K2J 5L4,Barrhaven,Gas Station,583c9f7d24f61108b96a2b73
4bef0ed6c80dc928a46f27e3,Petro-Canada,45.287359,-75.757252,K2J 1A1,Nepean,Gas Station,583c9f7d24f61108b96a2b73
4b2b8249f964a520f8b624e3,Ralph & Son's,45.35213351829195,-75.83571179802097,None,Ottawa,Diner,4d2a60a38292236a0a482bbb
4d2a60a38292236a0a482bbb,MacEwen,45.3521452458518,-75.83550095558167,None,Ottawa,Gas Station,4d2a60a38292236a0a482bbb
5a88ba2aa9fe1264b75bffb9,Esso,45.294171,-75.92801,K2S 1B9,Ottawa,Gas Station,4db2d6acfa8c350240be3604
5cc85090270ee7002c0383f0,Pioneer,45.29416,-75.927029,K2S 1B9,Ottawa,Gas Station,4db2d6acfa8c350240be3604
4db2d6acfa8c350240be3604,Ultramar,45.29424719861647,-75.92770731819189,None,Stittsville,Gas Station,4db2d6acfa8c350240be3604
5cd2e27323a2e6002c82ba0b,Esso,45.294048,-75.92763,K2S 1B9,Ottawa,Gas Station,4db2d6acfa8c350240be3604
4c78288d81bca0930328f914,Petro-Canada,45.308107,-75.915422,K2T 1L2,Kanata,Gas Station,4db2d6acfa8c350240be3604
4ba517aaf964a52014dc38e3,Esso,45.31011588651307,-75.91857060986837,K2T 1E8,Kanata,Gas Station,4db2d6acfa8c350240be3604
4c1b775eeac020a1b3d744c2,Ultramar,45.27955681243415,-75.92817148654862,None,Stittsville,Gas Station,4db2d6acfa8c350240be3604
4bf71def5efe2d7fc0736834,Ultramar,45.285312731288535,-75.90820212348844,K2S 1B9,Stittsville,Gas Station,4db2d6acfa8c350240be3604
4c9a7ef0292a6dcb605ecf76,Canadian Tire Gas+,45.30859674981382,-75.91639016066637,K2T 1C3,Kanata,Gas Station,4db2d6acfa8c350240be3604
545aa4d0498e45f1fbc9edc8,Shell,45.27918761,-75.95518669,K0A 1L0,Ottawa,Gas Station,4c7a7326bd346dcb956df8ef
4c7a7326bd346dcb956df8ef,Kanata Irving,45.27980306359801,-75.95617911556171,None,Kanata,Gas Station,4c7a7326bd346dcb956df8ef
4cf2b40b7e93f04da46b5469,Tin Cup Express,45.2755955984962,-75.95000593979012,None,Ottawa,Gas Station,4c7a7326bd346dcb956df8ef
4cf3db9388de3704da7b812b,Petro-Canada,45.268,-75.938314,K2S 1B9,Stittsville,Gas Station,4c7a7326bd346dcb956df8ef
4c1b775eeac020a1b3d744c2,Ultramar,45.27955681243415,-75.92817148654862,None,Stittsville,Gas Station,4c1b775eeac020a1b3d744c2
5b852391f427de002c818f3e,Ultramar,45.2763548,-75.9235742,K2S 1B9,Stittsville,Gas Station,4c1b775eeac020a1b3d744c2
4c72bad1d944224b68780d29,Petro-Canada,45.272485,-75.93056,K2S 1B9,Stittsville,Gas Station,4c1b775eeac020a1b3d744c2
5a88ba2aa9fe1264b75bffb9,Esso,45.294171,-75.92801,K2S 1B9,Ottawa,Gas Station,4c1b775eeac020a1b3d744c2
4cf3db9388de3704da7b812b,Petro-Canada,45.268,-75.938314,K2S 1B9,Stittsville,Gas Station,4c1b775eeac020a1b3d744c2
5cd2e27323a2e6002c82ba0b,Esso,45.294048,-75.92763,K2S 1B9,Ottawa,Gas Station,4c1b775eeac020a1b3d744c2
5cc85090270ee7002c0383f0,Pioneer,45.29416,-75.927029,K2S 1B9,Ottawa,Gas Station,4c1b775eeac020a1b3d744c2
4db2d6acfa8c350240be3604,Ultramar,45.29424719861647,-75.92770731819189,None,Stittsville,Gas Station,4c1b775eeac020a1b3d744c2
4bf71def5efe2d7fc0736834,Ultramar,45.285312731288535,-75.90820212348844,K2S 1B9,Stittsville,Gas Station,4c1b775eeac020a1b3d744c2
4cf2b40b7e93f04da46b5469,Tin Cup Express,45.2755955984962,-75.95000593979012,None,Ottawa,Gas Station,4c1b775eeac020a1b3d744c2
4c692eefc946e21e8e6ee98e,Petro-Canada,45.29092,-75.870616,K2M 1H4,Kanata,Gas Station,4bb32e6ca32876b0425c01fe
5880860575e13775d66e83f4,Ultramar,45.288271,-75.869011,K2M 1H4,Ottawa,Gas Station,4bb32e6ca32876b0425c01fe
4bb32e6ca32876b0425c01fe,Ultramar Gas Bar,45.28790174427014,-75.86862178070953,None,Ottawa Division,Gas Station,4bb32e6ca32876b0425c01fe
4e29a6841f6e88a1546ea1e2,Petro-Canada,45.302354,-75.87921,K2L 1B1,Kanata,Gas Station,4bb32e6ca32876b0425c01fe
4c63f28f79d1e21eaec0d915,Petro-Canada,45.327281518362746,-75.82144618034363,K2H 9N5,Nepean,Gas Station,531a4cd211d271ffb807c986
4b925c16f964a5204ff433e3,Esso,45.327304503008456,-75.81979515167389,None,Ottawa,Gas Station,531a4cd211d271ffb807c986
531a4cd211d271ffb807c986,Shell,45.326112,-75.823195,K2H 5B9,Nepean,Gas Station,531a4cd211d271ffb807c986
5293d6bf11d260d22f714e7e,NAPA AUTOPRO - BELLS CORNER AUTO,45.326095,-75.822518,K2H 5B8,Nepean,Auto Workshop,531a4cd211d271ffb807c986
5a9d992d8a6f170f053c1183,Petro-Canada,45.323992,-75.82855,K2H 5B7,Nepean,Gas Station,531a4cd211d271ffb807c986
5b20cd6c01bc5a002c2d0d24,Meineke Car Care Centre,45.32467724657581,-75.82589596509939,K2H 5B9,Ottawa,Gas Station,531a4cd211d271ffb807c986
583c9f8454073d1f49085cbf,Canadian Tire Gas+,45.3224828,-75.8359127,K2H 5Z2,Nepean,Gas Station,531a4cd211d271ffb807c986
4d6ab039dc858cfac2416873,Canadian Tire Gas Bar,45.32134292093512,-75.83592203121819,None,None,Gas Station,531a4cd211d271ffb807c986
4c63f28f79d1e21eaec0d915,Petro-Canada,45.327281518362746,-75.82144618034363,K2H 9N5,Nepean,Gas Station,5293d6bf11d260d22f714e7e
4b925c16f964a5204ff433e3,Esso,45.327304503008456,-75.81979515167389,None,Ottawa,Gas Station,5293d6bf11d260d22f714e7e
531a4cd211d271ffb807c986,Shell,45.326112,-75.823195,K2H 5B9,Nepean,Gas Station,5293d6bf11d260d22f714e7e
5293d6bf11d260d22f714e7e,NAPA AUTOPRO - BELLS CORNER AUTO,45.326095,-75.822518,K2H 5B8,Nepean,Auto Workshop,5293d6bf11d260d22f714e7e
5a9d992d8a6f170f053c1183,Petro-Canada,45.323992,-75.82855,K2H 5B7,Nepean,Gas Station,5293d6bf11d260d22f714e7e
5b20cd6c01bc5a002c2d0d24,Meineke Car Care Centre,45.32467724657581,-75.82589596509939,K2H 5B9,Ottawa,Gas Station,5293d6bf11d260d22f714e7e
583c9f8454073d1f49085cbf,Canadian Tire Gas+,45.3224828,-75.8359127,K2H 5Z2,Nepean,Gas Station,5293d6bf11d260d22f714e7e
4d6ab039dc858cfac2416873,Canadian Tire Gas Bar,45.32134292093512,-75.83592203121819,None,None,Gas Station,5293d6bf11d260d22f714e7e
5a9d992d8a6f170f053c1183,Petro-Canada,45.323992,-75.82855,K2H 5B7,Nepean,Gas Station,5a9d992d8a6f170f053c1183
4c63f28f79d1e21eaec0d915,Petro-Canada,45.327281518362746,-75.82144618034363,K2H 9N5,Nepean,Gas Station,5a9d992d8a6f170f053c1183
4b925c16f964a5204ff433e3,Esso,45.327304503008456,-75.81979515167389,None,Ottawa,Gas Station,5a9d992d8a6f170f053c1183
5b20cd6c01bc5a002c2d0d24,Meineke Car Care Centre,45.32467724657581,-75.82589596509939,K2H 5B9,Ottawa,Gas Station,5a9d992d8a6f170f053c1183
531a4cd211d271ffb807c986,Shell,45.326112,-75.823195,K2H 5B9,Nepean,Gas Station,5a9d992d8a6f170f053c1183
583c9f8454073d1f49085cbf,Canadian Tire Gas+,45.3224828,-75.8359127,K2H 5Z2,Nepean,Gas Station,5a9d992d8a6f170f053c1183
4d6ab039dc858cfac2416873,Canadian Tire Gas Bar,45.32134292093512,-75.83592203121819,None,None,Gas Station,5a9d992d8a6f170f053c1183
5293d6bf11d260d22f714e7e,NAPA AUTOPRO - BELLS CORNER AUTO,45.326095,-75.822518,K2H 5B8,Nepean,Auto Workshop,5a9d992d8a6f170f053c1183
4c63f28f79d1e21eaec0d915,Petro-Canada,45.327281518362746,-75.82144618034363,K2H 9N5,Nepean,Gas Station,5b20cd6c01bc5a002c2d0d24
4b925c16f964a5204ff433e3,Esso,45.327304503008456,-75.81979515167389,None,Ottawa,Gas Station,5b20cd6c01bc5a002c2d0d24
5a9d992d8a6f170f053c1183,Petro-Canada,45.323992,-75.82855,K2H 5B7,Nepean,Gas Station,5b20cd6c01bc5a002c2d0d24
531a4cd211d271ffb807c986,Shell,45.326112,-75.823195,K2H 5B9,Nepean,Gas Station,5b20cd6c01bc5a002c2d0d24
5b20cd6c01bc5a002c2d0d24,Meineke Car Care Centre,45.32467724657581,-75.82589596509939,K2H 5B9,Ottawa,Gas Station,5b20cd6c01bc5a002c2d0d24
5293d6bf11d260d22f714e7e,NAPA AUTOPRO - BELLS CORNER AUTO,45.326095,-75.822518,K2H 5B8,Nepean,Auto Workshop,5b20cd6c01bc5a002c2d0d24
583c9f8454073d1f49085cbf,Canadian Tire Gas+,45.3224828,-75.8359127,K2H 5Z2,Nepean,Gas Station,5b20cd6c01bc5a002c2d0d24
4d6ab039dc858cfac2416873,Canadian Tire Gas Bar,45.32134292093512,-75.83592203121819,None,None,Gas Station,5b20cd6c01bc5a002c2d0d24
4d6ab039dc858cfac2416873,Canadian Tire Gas Bar,45.32134292093512,-75.83592203121819,None,None,Gas Station,4d6ab039dc858cfac2416873
583c9f8454073d1f49085cbf,Canadian Tire Gas+,45.3224828,-75.8359127,K2H 5Z2,Nepean,Gas Station,4d6ab039dc858cfac2416873
5a9d992d8a6f170f053c1183,Petro-Canada,45.323992,-75.82855,K2H 5B7,Nepean,Gas Station,4d6ab039dc858cfac2416873
4c63f28f79d1e21eaec0d915,Petro-Canada,45.327281518362746,-75.82144618034363,K2H 9N5,Nepean,Gas Station,4d6ab039dc858cfac2416873
4b925c16f964a5204ff433e3,Esso,45.327304503008456,-75.81979515167389,None,Ottawa,Gas Station,4d6ab039dc858cfac2416873
5b20cd6c01bc5a002c2d0d24,Meineke Car Care Centre,45.32467724657581,-75.82589596509939,K2H 5B9,Ottawa,Gas Station,4d6ab039dc858cfac2416873
531a4cd211d271ffb807c986,Shell,45.326112,-75.823195,K2H 5B9,Nepean,Gas Station,4d6ab039dc858cfac2416873
5293d6bf11d260d22f714e7e,NAPA AUTOPRO - BELLS CORNER AUTO,45.326095,-75.822518,K2H 5B8,Nepean,Auto Workshop,4d6ab039dc858cfac2416873
4bf43cfd6a31d13aa686952e,Shell,45.368623422908364,-75.77323521842206,K2B 7G1,Ottawa,Gas Station,4bebbb12b3352d7f02cd56d2
4bebbb12b3352d7f02cd56d2,Active Green+Ross,45.372109779948204,-75.77072447001736,K2A 1H2,Ottawa,Gas Station,4bebbb12b3352d7f02cd56d2
4d0fa08b71e8a1cd84d57bbd,Petro-Canada,45.375825,-75.757519,K2A 1E3,Ottawa,Gas Station,4bebbb12b3352d7f02cd56d2
4b45406cf964a5201e0926e3,Shell,45.367445,-75.786366,K2B 6R7,Ottawa,Gas Station,4bebbb12b3352d7f02cd56d2
4cfd390ec6cca35dd5bd9532,MacEwen,45.3704170215587,-75.78209278766796,None,Ottawa,Gas Station,4bebbb12b3352d7f02cd56d2
4c255bd7136d20a10788e361,Esso,45.37638134584919,-75.7572068227246,K2A 1E4,Ottawa,Gas Station,4bebbb12b3352d7f02cd56d2
4dab8a064df01c19b1a2bb61,Midas,45.37735686230297,-75.75366947444837,K2A 1E1,Ottawa,Gas Station,4bebbb12b3352d7f02cd56d2
57c7cefb498e207618164de0,Meineke Car Care Centre,45.37871254888547,-75.75025230646133,K2A 1C6,Ottawa,Gas Station,4bebbb12b3352d7f02cd56d2
4d6ffee03599370461bc169d,Ultramar,45.254506,-75.916428,K2S 1A2,Stittsville,Gas Station,4cef13527db3224b0fdc2a2e
4cef13527db3224b0fdc2a2e,Shell,45.254484,-75.916362,None,None,Gas Station,4cef13527db3224b0fdc2a2e
4b7f190af964a520481630e3,Island Park Esso,45.397360459182835,-75.7416723492678,None,Ottawa,Gas Station,4c483d5996abd13a90887301
4c483d5996abd13a90887301,Mac's Convenience Store,45.393417,-75.750335,K1Z 6W9,Ottawa,Gas Station,4c483d5996abd13a90887301
4b129fc6f964a520778b23e3,Shell,45.3806285835496,-75.74722423599982,K2A 1C4,Ottawa,Gas Station,4c483d5996abd13a90887301
4b1ecf1bf964a520d21f24e3,Petro-Canada,45.400913,-75.729452,K1Y 1G6,Ottawa,Gas Station,4c483d5996abd13a90887301
4c1a9a2aeac020a1788743c2,Shell,45.381208834429785,-75.73349386453629,K1Z 6A2,Ottawa,Gas Station,4c483d5996abd13a90887301
57c7cefb498e207618164de0,Meineke Car Care Centre,45.37871254888547,-75.75025230646133,K2A 1C6,Ottawa,Gas Station,4c483d5996abd13a90887301
4c255bd7136d20a10788e361,Esso,45.37638134584919,-75.7572068227246,K2A 1E4,Ottawa,Gas Station,4c483d5996abd13a90887301
4dab8a064df01c19b1a2bb61,Midas,45.37735686230297,-75.75366947444837,K2A 1E1,Ottawa,Gas Station,4c483d5996abd13a90887301
4ea890306da1bfeaab1676db,Costco Gasoline,45.33738198576367,-75.71933389243213,K2G 1E3,Nepean,Gas Station,5b3166c622d490002c7d98e2
5b3166c622d490002c7d98e2,Ultramar Energy,45.338,-75.717841,K2E 1A6,Ottawa,Gas Station,5b3166c622d490002c7d98e2
4cd84a2b7bb06dcb59b0a1b2,Shell,45.33547777150267,-75.72389374821829,K2G 1E3,Nepean,Gas Station,5b3166c622d490002c7d98e2
5bd728dd82a750002c9d1de0,Superior Propane,45.339022,-75.720759,K2E 1A3,Nepean,Gas Station,5b3166c622d490002c7d98e2
4b8b1444f964a520db9132e3,Esso,45.343381227579606,-75.72949900769844,K2G 3K4,Ottawa,Gas Station,5b3166c622d490002c7d98e2
4b755da6f964a52078082ee3,Petro-Canada,45.333823,-75.693783,K1V 2E8,Ottawa,Gas Station,5b3166c622d490002c7d98e2
51b4c3c9498e8a9622c7c684,Canadian Tire Gas+,45.34331252018479,-75.72950063603383,K2G 3K4,Nepean,Gas Station,5b3166c622d490002c7d98e2
4c0fec78f1b6a593e6117b27,Esso,45.35030126933906,-75.73367705668883,K2G 3K1,Ottawa,Gas Station,5b3166c622d490002c7d98e2
512bacf7e4b020f729f79e82,Air Liquide Canada Magasin,45.329736612264725,-75.72318725646409,K2G 0A7,Ottawa,Factory,5b3166c622d490002c7d98e2
57eeb393498e06930c9d9c41,Petro-Pass Truck Stop,45.326525,-75.719035,K2G 1G1,Nepean,Gas Station,5b3166c622d490002c7d98e2
4b7160b3f964a520a4432de3,Esso,45.33347452558583,-75.70196629171075,K2E 7A4,Ottawa,Gas Station,5b3166c622d490002c7d98e2
4bc21ef4abf4952110ffc193,Petro-Canada,45.353183,-75.70477,K2C 3V3,Ottawa,Gas Station,5b3166c622d490002c7d98e2
4f8828a910814e61a4fed181,Tim Hortons,45.327369205372676,-75.70152729749685,K2E 6Z8,Nepean,Coffee Shop,5b3166c622d490002c7d98e2
4ea890306da1bfeaab1676db,Costco Gasoline,45.33738198576367,-75.71933389243213,K2G 1E3,Nepean,Gas Station,5bd728dd82a750002c9d1de0
4cd84a2b7bb06dcb59b0a1b2,Shell,45.33547777150267,-75.72389374821829,K2G 1E3,Nepean,Gas Station,5bd728dd82a750002c9d1de0
5bd728dd82a750002c9d1de0,Superior Propane,45.339022,-75.720759,K2E 1A3,Nepean,Gas Station,5bd728dd82a750002c9d1de0
5b3166c622d490002c7d98e2,Ultramar Energy,45.338,-75.717841,K2E 1A6,Ottawa,Gas Station,5bd728dd82a750002c9d1de0
4b8b1444f964a520db9132e3,Esso,45.343381227579606,-75.72949900769844,K2G 3K4,Ottawa,Gas Station,5bd728dd82a750002c9d1de0
51b4c3c9498e8a9622c7c684,Canadian Tire Gas+,45.34331252018479,-75.72950063603383,K2G 3K4,Nepean,Gas Station,5bd728dd82a750002c9d1de0
4c0fec78f1b6a593e6117b27,Esso,45.35030126933906,-75.73367705668883,K2G 3K1,Ottawa,Gas Station,5bd728dd82a750002c9d1de0
512bacf7e4b020f729f79e82,Air Liquide Canada Magasin,45.329736612264725,-75.72318725646409,K2G 0A7,Ottawa,Factory,5bd728dd82a750002c9d1de0
57eeb393498e06930c9d9c41,Petro-Pass Truck Stop,45.326525,-75.719035,K2G 1G1,Nepean,Gas Station,5bd728dd82a750002c9d1de0
4b7160b3f964a520a4432de3,Esso,45.33347452558583,-75.70196629171075,K2E 7A4,Ottawa,Gas Station,5bd728dd82a750002c9d1de0
4f8828a910814e61a4fed181,Tim Hortons,45.327369205372676,-75.70152729749685,K2E 6Z8,Nepean,Coffee Shop,5bd728dd82a750002c9d1de0
4b8b1444f964a520db9132e3,Esso,45.343381227579606,-75.72949900769844,K2G 3K4,Ottawa,Gas Station,51b4c3c9498e8a9622c7c684
4ea890306da1bfeaab1676db,Costco Gasoline,45.33738198576367,-75.71933389243213,K2G 1E3,Nepean,Gas Station,51b4c3c9498e8a9622c7c684
51b4c3c9498e8a9622c7c684,Canadian Tire Gas+,45.34331252018479,-75.72950063603383,K2G 3K4,Nepean,Gas Station,51b4c3c9498e8a9622c7c684
4c0fec78f1b6a593e6117b27,Esso,45.35030126933906,-75.73367705668883,K2G 3K1,Ottawa,Gas Station,51b4c3c9498e8a9622c7c684
4cd84a2b7bb06dcb59b0a1b2,Shell,45.33547777150267,-75.72389374821829,K2G 1E3,Nepean,Gas Station,51b4c3c9498e8a9622c7c684
5bd728dd82a750002c9d1de0,Superior Propane,45.339022,-75.720759,K2E 1A3,Nepean,Gas Station,51b4c3c9498e8a9622c7c684
4be2e28c660ec928d972ca3b,Shell,45.35425577238386,-75.73592838496675,K2G 3J8,Nepean,Gas Station,51b4c3c9498e8a9622c7c684
5b3166c622d490002c7d98e2,Ultramar Energy,45.338,-75.717841,K2E 1A6,Ottawa,Gas Station,51b4c3c9498e8a9622c7c684
4dc9201645dd9aa940b644fe,Ultramar,45.354983,-75.735482,K2G 3J4,Nepean,Gas Station,51b4c3c9498e8a9622c7c684
512bacf7e4b020f729f79e82,Air Liquide Canada Magasin,45.329736612264725,-75.72318725646409,K2G 0A7,Ottawa,Factory,51b4c3c9498e8a9622c7c684
4ea890306da1bfeaab1676db,Costco Gasoline,45.33738198576367,-75.71933389243213,K2G 1E3,Nepean,Gas Station,512bacf7e4b020f729f79e82
4cd84a2b7bb06dcb59b0a1b2,Shell,45.33547777150267,-75.72389374821829,K2G 1E3,Nepean,Gas Station,512bacf7e4b020f729f79e82
512bacf7e4b020f729f79e82,Air Liquide Canada Magasin,45.329736612264725,-75.72318725646409,K2G 0A7,Ottawa,Factory,512bacf7e4b020f729f79e82
57eeb393498e06930c9d9c41,Petro-Pass Truck Stop,45.326525,-75.719035,K2G 1G1,Nepean,Gas Station,512bacf7e4b020f729f79e82
5b3166c622d490002c7d98e2,Ultramar Energy,45.338,-75.717841,K2E 1A6,Ottawa,Gas Station,512bacf7e4b020f729f79e82
5bd728dd82a750002c9d1de0,Superior Propane,45.339022,-75.720759,K2E 1A3,Nepean,Gas Station,512bacf7e4b020f729f79e82
4b8b1444f964a520db9132e3,Esso,45.343381227579606,-75.72949900769844,K2G 3K4,Ottawa,Gas Station,512bacf7e4b020f729f79e82
51b4c3c9498e8a9622c7c684,Canadian Tire Gas+,45.34331252018479,-75.72950063603383,K2G 3K4,Nepean,Gas Station,512bacf7e4b020f729f79e82
4b7160b3f964a520a4432de3,Esso,45.33347452558583,-75.70196629171075,K2E 7A4,Ottawa,Gas Station,512bacf7e4b020f729f79e82
4f8828a910814e61a4fed181,Tim Hortons,45.327369205372676,-75.70152729749685,K2E 6Z8,Nepean,Coffee Shop,512bacf7e4b020f729f79e82
4ea890306da1bfeaab1676db,Costco Gasoline,45.33738198576367,-75.71933389243213,K2G 1E3,Nepean,Gas Station,57eeb393498e06930c9d9c41
57eeb393498e06930c9d9c41,Petro-Pass Truck Stop,45.326525,-75.719035,K2G 1G1,Nepean,Gas Station,57eeb393498e06930c9d9c41
512bacf7e4b020f729f79e82,Air Liquide Canada Magasin,45.329736612264725,-75.72318725646409,K2G 0A7,Ottawa,Factory,57eeb393498e06930c9d9c41
4cd84a2b7bb06dcb59b0a1b2,Shell,45.33547777150267,-75.72389374821829,K2G 1E3,Nepean,Gas Station,57eeb393498e06930c9d9c41
5b3166c622d490002c7d98e2,Ultramar Energy,45.338,-75.717841,K2E 1A6,Ottawa,Gas Station,57eeb393498e06930c9d9c41
5bd728dd82a750002c9d1de0,Superior Propane,45.339022,-75.720759,K2E 1A3,Nepean,Gas Station,57eeb393498e06930c9d9c41
4b7160b3f964a520a4432de3,Esso,45.33347452558583,-75.70196629171075,K2E 7A4,Ottawa,Gas Station,57eeb393498e06930c9d9c41
4f8828a910814e61a4fed181,Tim Hortons,45.327369205372676,-75.70152729749685,K2E 6Z8,Nepean,Coffee Shop,57eeb393498e06930c9d9c41
4b755da6f964a52078082ee3,Petro-Canada,45.333823,-75.693783,K1V 2E8,Ottawa,Gas Station,4b7160b3f964a520a4432de3
4ea890306da1bfeaab1676db,Costco Gasoline,45.33738198576367,-75.71933389243213,K2G 1E3,Nepean,Gas Station,4b7160b3f964a520a4432de3
4b7160b3f964a520a4432de3,Esso,45.33347452558583,-75.70196629171075,K2E 7A4,Ottawa,Gas Station,4b7160b3f964a520a4432de3
4cadc3032a55224b1dc17069,Riverside Esso,45.34246271316887,-75.6925713746092,K1V 1G8,Ottawa,Gas Station,4b7160b3f964a520a4432de3
5b3166c622d490002c7d98e2,Ultramar Energy,45.338,-75.717841,K2E 1A6,Ottawa,Gas Station,4b7160b3f964a520a4432de3
4cd84a2b7bb06dcb59b0a1b2,Shell,45.33547777150267,-75.72389374821829,K2G 1E3,Nepean,Gas Station,4b7160b3f964a520a4432de3
57eeb393498e06930c9d9c41,Petro-Pass Truck Stop,45.326525,-75.719035,K2G 1G1,Nepean,Gas Station,4b7160b3f964a520a4432de3
5bd728dd82a750002c9d1de0,Superior Propane,45.339022,-75.720759,K2E 1A3,Nepean,Gas Station,4b7160b3f964a520a4432de3
512bacf7e4b020f729f79e82,Air Liquide Canada Magasin,45.329736612264725,-75.72318725646409,K2G 0A7,Ottawa,Factory,4b7160b3f964a520a4432de3
4f8828a910814e61a4fed181,Tim Hortons,45.327369205372676,-75.70152729749685,K2E 6Z8,Nepean,Coffee Shop,4b7160b3f964a520a4432de3
4b755da6f964a52078082ee3,Petro-Canada,45.333823,-75.693783,K1V 2E8,Ottawa,Gas Station,4f8828a910814e61a4fed181
4ea890306da1bfeaab1676db,Costco Gasoline,45.33738198576367,-75.71933389243213,K2G 1E3,Nepean,Gas Station,4f8828a910814e61a4fed181
4b7160b3f964a520a4432de3,Esso,45.33347452558583,-75.70196629171075,K2E 7A4,Ottawa,Gas Station,4f8828a910814e61a4fed181
57eeb393498e06930c9d9c41,Petro-Pass Truck Stop,45.326525,-75.719035,K2G 1G1,Nepean,Gas Station,4f8828a910814e61a4fed181
4cd84a2b7bb06dcb59b0a1b2,Shell,45.33547777150267,-75.72389374821829,K2G 1E3,Nepean,Gas Station,4f8828a910814e61a4fed181
5b3166c622d490002c7d98e2,Ultramar Energy,45.338,-75.717841,K2E 1A6,Ottawa,Gas Station,4f8828a910814e61a4fed181
4cadc3032a55224b1dc17069,Riverside Esso,45.34246271316887,-75.6925713746092,K1V 1G8,Ottawa,Gas Station,4f8828a910814e61a4fed181
512bacf7e4b020f729f79e82,Air Liquide Canada Magasin,45.329736612264725,-75.72318725646409,K2G 0A7,Ottawa,Factory,4f8828a910814e61a4fed181
5bd728dd82a750002c9d1de0,Superior Propane,45.339022,-75.720759,K2E 1A3,Nepean,Gas Station,4f8828a910814e61a4fed181
4f8828a910814e61a4fed181,Tim Hortons,45.327369205372676,-75.70152729749685,K2E 6Z8,Nepean,Coffee Shop,4f8828a910814e61a4fed181
4d0fa08b71e8a1cd84d57bbd,Petro-Canada,45.375825,-75.757519,K2A 1E3,Ottawa,Gas Station,4dab8a064df01c19b1a2bb61
4b129fc6f964a520778b23e3,Shell,45.3806285835496,-75.74722423599982,K2A 1C4,Ottawa,Gas Station,4dab8a064df01c19b1a2bb61
4c255bd7136d20a10788e361,Esso,45.37638134584919,-75.7572068227246,K2A 1E4,Ottawa,Gas Station,4dab8a064df01c19b1a2bb61
4dab8a064df01c19b1a2bb61,Midas,45.37735686230297,-75.75366947444837,K2A 1E1,Ottawa,Gas Station,4dab8a064df01c19b1a2bb61
57c7cefb498e207618164de0,Meineke Car Care Centre,45.37871254888547,-75.75025230646133,K2A 1C6,Ottawa,Gas Station,4dab8a064df01c19b1a2bb61
4c1a9a2aeac020a1788743c2,Shell,45.381208834429785,-75.73349386453629,K1Z 6A2,Ottawa,Gas Station,4dab8a064df01c19b1a2bb61
4bebbb12b3352d7f02cd56d2,Active Green+Ross,45.372109779948204,-75.77072447001736,K2A 1H2,Ottawa,Gas Station,4dab8a064df01c19b1a2bb61
4bf43cfd6a31d13aa686952e,Shell,45.368623422908364,-75.77323521842206,K2B 7G1,Ottawa,Gas Station,4dab8a064df01c19b1a2bb61
4c483d5996abd13a90887301,Mac's Convenience Store,45.393417,-75.750335,K1Z 6W9,Ottawa,Gas Station,4dab8a064df01c19b1a2bb61
4b129fc6f964a520778b23e3,Shell,45.3806285835496,-75.74722423599982,K2A 1C4,Ottawa,Gas Station,57c7cefb498e207618164de0
4d0fa08b71e8a1cd84d57bbd,Petro-Canada,45.375825,-75.757519,K2A 1E3,Ottawa,Gas Station,57c7cefb498e207618164de0
57c7cefb498e207618164de0,Meineke Car Care Centre,45.37871254888547,-75.75025230646133,K2A 1C6,Ottawa,Gas Station,57c7cefb498e207618164de0
4dab8a064df01c19b1a2bb61,Midas,45.37735686230297,-75.75366947444837,K2A 1E1,Ottawa,Gas Station,57c7cefb498e207618164de0
4c255bd7136d20a10788e361,Esso,45.37638134584919,-75.7572068227246,K2A 1E4,Ottawa,Gas Station,57c7cefb498e207618164de0
4c1a9a2aeac020a1788743c2,Shell,45.381208834429785,-75.73349386453629,K1Z 6A2,Ottawa,Gas Station,57c7cefb498e207618164de0
4bebbb12b3352d7f02cd56d2,Active Green+Ross,45.372109779948204,-75.77072447001736,K2A 1H2,Ottawa,Gas Station,57c7cefb498e207618164de0
4c483d5996abd13a90887301,Mac's Convenience Store,45.393417,-75.750335,K1Z 6W9,Ottawa,Gas Station,57c7cefb498e207618164de0
4be2e28c660ec928d972ca3b,Shell,45.35425577238386,-75.73592838496675,K2G 3J8,Nepean,Gas Station,4dc9201645dd9aa940b644fe
4c0fec78f1b6a593e6117b27,Esso,45.35030126933906,-75.73367705668883,K2G 3K1,Ottawa,Gas Station,4dc9201645dd9aa940b644fe
4dc9201645dd9aa940b644fe,Ultramar,45.354983,-75.735482,K2G 3J4,Nepean,Gas Station,4dc9201645dd9aa940b644fe
4b9fc720f964a520ca3d37e3,Petro-Canada,45.361259,-75.739137,K2C 0A9,Nepean,Gas Station,4dc9201645dd9aa940b644fe
4b7f09a3f964a520051230e3,refuel,45.36327249164529,-75.73428926759148,K2E 5P2,Nepean,Gas Station,4dc9201645dd9aa940b644fe
4b8b1444f964a520db9132e3,Esso,45.343381227579606,-75.72949900769844,K2G 3K4,Ottawa,Gas Station,4dc9201645dd9aa940b644fe
4c0c0c8d7e3fc9280c3ff682,Mr. Lube,45.361099,-75.740329,K2C 0B2,Ottawa,Gas Station,4dc9201645dd9aa940b644fe
51b4c3c9498e8a9622c7c684,Canadian Tire Gas+,45.34331252018479,-75.72950063603383,K2G 3K4,Nepean,Gas Station,4dc9201645dd9aa940b644fe
4b9fc720f964a520ca3d37e3,Petro-Canada,45.361259,-75.739137,K2C 0A9,Nepean,Gas Station,4c0c0c8d7e3fc9280c3ff682
4c0c0c8d7e3fc9280c3ff682,Mr. Lube,45.361099,-75.740329,K2C 0B2,Ottawa,Gas Station,4c0c0c8d7e3fc9280c3ff682
4be2e28c660ec928d972ca3b,Shell,45.35425577238386,-75.73592838496675,K2G 3J8,Nepean,Gas Station,4c0c0c8d7e3fc9280c3ff682
4b7f09a3f964a520051230e3,refuel,45.36327249164529,-75.73428926759148,K2E 5P2,Nepean,Gas Station,4c0c0c8d7e3fc9280c3ff682
4c0fec78f1b6a593e6117b27,Esso,45.35030126933906,-75.73367705668883,K2G 3K1,Ottawa,Gas Station,4c0c0c8d7e3fc9280c3ff682
4dc9201645dd9aa940b644fe,Ultramar,45.354983,-75.735482,K2G 3J4,Nepean,Gas Station,4c0c0c8d7e3fc9280c3ff682
4b1ea725f964a520491d24e3,Petro-Canada,45.407342,-75.703848,K1R 6J9,Ottawa,Gas Station,4bdf240fffdec928b3daeaa1
4b22db5af964a520e34e24e3,Petro-Canada,45.411115,-75.705966,K1R 6P4,Ottawa,Gas Station,4bdf240fffdec928b3daeaa1
4bdf240fffdec928b3daeaa1,Midas,45.408339,-75.704141,K1R 6J6,Ottawa,Gas Station,4bdf240fffdec928b3daeaa1
4b1868c5f964a52054d223e3,Drummond's Gas,45.403584510447324,-75.70106239522,K1S 4E7,Ottawa,Gas Station,4bdf240fffdec928b3daeaa1
4bae839bf964a5207abb3be3,MacEwen Petroleum,45.409604688574824,-75.69232818505336,K2P 1Z6,Ottawa,Gas Station,4bdf240fffdec928b3daeaa1
531a4cd211d271ffb807c620,Shell,45.41861,-75.69694,K2P 1T5,Ottawa,Gas Station,4bdf240fffdec928b3daeaa1
4b806d5ff964a5205b7130e3,Esso,45.411769150785275,-75.69355011976306,K2P 1Z1,Ottawa,Gas Station,4bdf240fffdec928b3daeaa1
4b1ea725f964a520491d24e3,Petro-Canada,45.407342,-75.703848,K1R 6J9,Ottawa,Gas Station,4b1868c5f964a52054d223e3
4b1868c5f964a52054d223e3,Drummond's Gas,45.403584510447324,-75.70106239522,K1S 4E7,Ottawa,Gas Station,4b1868c5f964a52054d223e3
4b22db5af964a520e34e24e3,Petro-Canada,45.411115,-75.705966,K1R 6P4,Ottawa,Gas Station,4b1868c5f964a52054d223e3
4bae839bf964a5207abb3be3,MacEwen Petroleum,45.409604688574824,-75.69232818505336,K2P 1Z6,Ottawa,Gas Station,4b1868c5f964a52054d223e3
4bdf240fffdec928b3daeaa1,Midas,45.408339,-75.704141,K1R 6J6,Ottawa,Gas Station,4b1868c5f964a52054d223e3
4b806d5ff964a5205b7130e3,Esso,45.411769150785275,-75.69355011976306,K2P 1Z1,Ottawa,Gas Station,4b1868c5f964a52054d223e3
531a4cd211d271ffb807c620,Shell,45.41861,-75.69694,K2P 1T5,Ottawa,Gas Station,4b1868c5f964a52054d223e3
4bae839bf964a5207abb3be3,MacEwen Petroleum,45.409604688574824,-75.69232818505336,K2P 1Z6,Ottawa,Gas Station,4bae839bf964a5207abb3be3
4b1ea725f964a520491d24e3,Petro-Canada,45.407342,-75.703848,K1R 6J9,Ottawa,Gas Station,4bae839bf964a5207abb3be3
4b22db5af964a520e34e24e3,Petro-Canada,45.411115,-75.705966,K1R 6P4,Ottawa,Gas Station,4bae839bf964a5207abb3be3
4b806d5ff964a5205b7130e3,Esso,45.411769150785275,-75.69355011976306,K2P 1Z1,Ottawa,Gas Station,4bae839bf964a5207abb3be3
531a4cd211d271ffb807c620,Shell,45.41861,-75.69694,K2P 1T5,Ottawa,Gas Station,4bae839bf964a5207abb3be3
4b1868c5f964a52054d223e3,Drummond's Gas,45.403584510447324,-75.70106239522,K1S 4E7,Ottawa,Gas Station,4bae839bf964a5207abb3be3
4bdf240fffdec928b3daeaa1,Midas,45.408339,-75.704141,K1R 6J6,Ottawa,Gas Station,4bae839bf964a5207abb3be3
4bae839bf964a5207abb3be3,MacEwen Petroleum,45.409604688574824,-75.69232818505336,K2P 1Z6,Ottawa,Gas Station,4b806d5ff964a5205b7130e3
4b1ea725f964a520491d24e3,Petro-Canada,45.407342,-75.703848,K1R 6J9,Ottawa,Gas Station,4b806d5ff964a5205b7130e3
4b22db5af964a520e34e24e3,Petro-Canada,45.411115,-75.705966,K1R 6P4,Ottawa,Gas Station,4b806d5ff964a5205b7130e3
4b806d5ff964a5205b7130e3,Esso,45.411769150785275,-75.69355011976306,K2P 1Z1,Ottawa,Gas Station,4b806d5ff964a5205b7130e3
531a4cd211d271ffb807c620,Shell,45.41861,-75.69694,K2P 1T5,Ottawa,Gas Station,4b806d5ff964a5205b7130e3
4bdf240fffdec928b3daeaa1,Midas,45.408339,-75.704141,K1R 6J6,Ottawa,Gas Station,4b806d5ff964a5205b7130e3
4b1868c5f964a52054d223e3,Drummond's Gas,45.403584510447324,-75.70106239522,K1S 4E7,Ottawa,Gas Station,4b806d5ff964a5205b7130e3
4c796199bd346dcbb63bf5ef,Petro-Canada,45.428758,-75.685672,K1N 5Y5,Ottawa,Gas Station,4b806d5ff964a5205b7130e3
531a4cd211d271ffb807c620,Shell,45.41861,-75.69694,K2P 1T5,Ottawa,Gas Station,531a4cd211d271ffb807c620
4b22db5af964a520e34e24e3,Petro-Canada,45.411115,-75.705966,K1R 6P4,Ottawa,Gas Station,531a4cd211d271ffb807c620
4c796199bd346dcbb63bf5ef,Petro-Canada,45.428758,-75.685672,K1N 5Y5,Ottawa,Gas Station,531a4cd211d271ffb807c620
4b1ea725f964a520491d24e3,Petro-Canada,45.407342,-75.703848,K1R 6J9,Ottawa,Gas Station,531a4cd211d271ffb807c620
4bae839bf964a5207abb3be3,MacEwen Petroleum,45.409604688574824,-75.69232818505336,K2P 1Z6,Ottawa,Gas Station,531a4cd211d271ffb807c620
4b806d5ff964a5205b7130e3,Esso,45.411769150785275,-75.69355011976306,K2P 1Z1,Ottawa,Gas Station,531a4cd211d271ffb807c620
4bdf240fffdec928b3daeaa1,Midas,45.408339,-75.704141,K1R 6J6,Ottawa,Gas Station,531a4cd211d271ffb807c620
4b1868c5f964a52054d223e3,Drummond's Gas,45.403584510447324,-75.70106239522,K1S 4E7,Ottawa,Gas Station,531a4cd211d271ffb807c620
4b755da6f964a52078082ee3,Petro-Canada,45.333823,-75.693783,K1V 2E8,Ottawa,Gas Station,4cadc3032a55224b1dc17069
4cadc3032a55224b1dc17069,Riverside Esso,45.34246271316887,-75.6925713746092,K1V 1G8,Ottawa,Gas Station,4cadc3032a55224b1dc17069
4bc21ef4abf4952110ffc193,Petro-Canada,45.353183,-75.70477,K2C 3V3,Ottawa,Gas Station,4cadc3032a55224b1dc17069
4bdb7d802a3a0f47c66bafb6,Petro-Canada,45.342989,-75.669964,K1V 1C3,Ottawa,Gas Station,4cadc3032a55224b1dc17069
4b7160b3f964a520a4432de3,Esso,45.33347452558583,-75.70196629171075,K2E 7A4,Ottawa,Gas Station,4cadc3032a55224b1dc17069
5878e52365e7c7514c7f656d,Ultramar,45.351015,-75.670291,K1V 0H9,Ottawa,Gas Station,4cadc3032a55224b1dc17069
4c34cebba0ced13afbcd186e,Quickie,45.35093511703351,-75.67023396492004,K1V 9X5,Ottawa,Gas Station,4cadc3032a55224b1dc17069
4f8828a910814e61a4fed181,Tim Hortons,45.327369205372676,-75.70152729749685,K2E 6Z8,Nepean,Coffee Shop,4cadc3032a55224b1dc17069
4ca33502f832a1cd70529be5,Shell,45.36856838407044,-75.70162800545937,K2C 1N6,Ottawa,Gas Station,4ca33502f832a1cd70529be5
4bc21ef4abf4952110ffc193,Petro-Canada,45.353183,-75.70477,K2C 3V3,Ottawa,Gas Station,4ca33502f832a1cd70529be5
4bbd217b4e069c74aa6d9ee3,Esso,45.36052102054499,-75.63177120424243,K1T 3Z3,Ottawa,Gas Station,587c8a6c9e35d312245f954d
587c8a6c9e35d312245f954d,Ultramar,45.360503,-75.631663,K1T 3Z3,Ottawa,Gas Station,587c8a6c9e35d312245f954d
4e67699e2271517970277eca,Esso,45.364149476057584,-75.61986646117148,K1T 3S4,Ottawa,Gas Station,587c8a6c9e35d312245f954d
57eeaba4498e1e1c58c104f1,Petro-Canada,45.35371,-75.642179,K1T 1M9,Gloucester,Gas Station,587c8a6c9e35d312245f954d
4c39cfd42c8020a14c368d00,Petro-Canada,45.353763,-75.646184,K1V 8R9,Ottawa,Gas Station,587c8a6c9e35d312245f954d
4b8538c2f964a520815131e3,Shell,45.35363847022218,-75.64327863505588,K1V 8S2,Ottawa,Gas Station,587c8a6c9e35d312245f954d
4c4ec2919efabe9a84fb986a,Petro-Canada,45.373824,-75.623971,K1G 3N4,Ottawa,Gas Station,587c8a6c9e35d312245f954d
4c13b3f5f1e0b71376b334bc,Pioneer Energy,45.347975,-75.625072,K1T 1N7,Gloucester,Gas Station,587c8a6c9e35d312245f954d
5878e52365e7c7514c7f656d,Ultramar,45.351015,-75.670291,K1V 0H9,Ottawa,Gas Station,4c34cebba0ced13afbcd186e
4c34cebba0ced13afbcd186e,Quickie,45.35093511703351,-75.67023396492004,K1V 9X5,Ottawa,Gas Station,4c34cebba0ced13afbcd186e
4bdb7d802a3a0f47c66bafb6,Petro-Canada,45.342989,-75.669964,K1V 1C3,Ottawa,Gas Station,4c34cebba0ced13afbcd186e
4c39cfd42c8020a14c368d00,Petro-Canada,45.353763,-75.646184,K1V 8R9,Ottawa,Gas Station,4c34cebba0ced13afbcd186e
4cadc3032a55224b1dc17069,Riverside Esso,45.34246271316887,-75.6925713746092,K1V 1G8,Ottawa,Gas Station,4c34cebba0ced13afbcd186e
5878e52365e7c7514c7f656d,Ultramar,45.351015,-75.670291,K1V 0H9,Ottawa,Gas Station,5878e52365e7c7514c7f656d
4c34cebba0ced13afbcd186e,Quickie,45.35093511703351,-75.67023396492004,K1V 9X5,Ottawa,Gas Station,5878e52365e7c7514c7f656d
4bdb7d802a3a0f47c66bafb6,Petro-Canada,45.342989,-75.669964,K1V 1C3,Ottawa,Gas Station,5878e52365e7c7514c7f656d
4c39cfd42c8020a14c368d00,Petro-Canada,45.353763,-75.646184,K1V 8R9,Ottawa,Gas Station,5878e52365e7c7514c7f656d
4cadc3032a55224b1dc17069,Riverside Esso,45.34246271316887,-75.6925713746092,K1V 1G8,Ottawa,Gas Station,5878e52365e7c7514c7f656d
4b9f87dcf964a520472937e3,Canadian Tire Gas+,45.435594318337024,-75.60664518764234,K1J 8X3,Ottawa,Gas Station,4ba3f3d5f964a520e77038e3
4ba3f3d5f964a520e77038e3,Mr Gas,45.43323771047425,-75.61272350836121,None,None,Gas Station,4ba3f3d5f964a520e77038e3
4bedbf82e24d20a104ee7114,Pioneer Gas,45.43640942259172,-75.60440651825871,None,Ottawa,Gas Station,4ba3f3d5f964a520e77038e3
4c7dbbe59221236a1755803d,Pioneer Energy,45.426103,-75.631007,K1J 8V1,Gloucester,Gas Station,4ba3f3d5f964a520e77038e3
4c0152630bce20a12782f6c6,Saab Gas Centre,45.42506294,-75.63533742,None,Ottawa,Gas Station,4ba3f3d5f964a520e77038e3
4e8673fbd66a9b178e911eda,Petro-Canada,45.447474,-75.59479,K1J 6M1,Gloucester,Gas Station,4b7c954df964a520429c2fe3
4c48b9726f1420a1c8eca954,Oil Changers,45.446784,-75.594309,None,Ottawa,Gas Station,4b7c954df964a520429c2fe3
4c8add853dc2a1cd332cb132,Petro-Canada,45.449477,-75.588401,K1J 1G4,Ottawa,Gas Station,4b7c954df964a520429c2fe3
4b7c954df964a520429c2fe3,Circle K,45.4479063,-75.5939022,K1J 6M6,Ottawa,Gas Station,4b7c954df964a520429c2fe3
4b9f87dcf964a520472937e3,Canadian Tire Gas+,45.435594318337024,-75.60664518764234,K1J 8X3,Ottawa,Gas Station,4b7c954df964a520429c2fe3
4bedbf82e24d20a104ee7114,Pioneer Gas,45.43640942259172,-75.60440651825871,None,Ottawa,Gas Station,4b7c954df964a520429c2fe3
4e001453d22d5ec6f277559b,Shell,45.38916716368916,-75.61822301686017,K1G 1B2,Ottawa,Gas Station,58776b636e60751134a23c0b
58776b636e60751134a23c0b,Ultramar,45.395459,-75.621428,K1G 2A1,Ottawa,Gas Station,58776b636e60751134a23c0b
4c65e3129cb82d7fcc478fd2,Quickie,45.39547230875543,-75.62157284902324,None,None,Gas Station,58776b636e60751134a23c0b
5a60f0654f0e586d106787c1,NAPA AUTOPRO - J & D Auto-Tech Inc,45.3953459,-75.6218727,K1G 2A1,Ottawa,Gas Station,58776b636e60751134a23c0b
4d474b0d14aa8cfadc96863d,Petro-Canada,45.405315,-75.62679,K1G 1A2,Ottawa,Gas Station,58776b636e60751134a23c0b
4b6d7bd3f964a52082772ce3,Esso,45.383077138391556,-75.63096040142683,K1H 1W1,Ottawa,Gas Station,58776b636e60751134a23c0b
51e04bcb1d9fb5b225504f25,Pioneer Energy,45.406635,-75.616974,K1B 4G6,Ottawa,Gas Station,58776b636e60751134a23c0b
57ee9e37498e4bb1d91214df,Petro-Pass Truck Stop,45.411983,-75.612086,K1B 4V5,Ottawa,Gas Station,58776b636e60751134a23c0b
4d493d025129a35d605237ac,MacEwen Gas,45.41232023329462,-75.63038569830562,None,Ottawa,Gas Station,58776b636e60751134a23c0b
4e001453d22d5ec6f277559b,Shell,45.38916716368916,-75.61822301686017,K1G 1B2,Ottawa,Gas Station,5a60f0654f0e586d106787c1
58776b636e60751134a23c0b,Ultramar,45.395459,-75.621428,K1G 2A1,Ottawa,Gas Station,5a60f0654f0e586d106787c1
4c65e3129cb82d7fcc478fd2,Quickie,45.39547230875543,-75.62157284902324,None,None,Gas Station,5a60f0654f0e586d106787c1
5a60f0654f0e586d106787c1,NAPA AUTOPRO - J & D Auto-Tech Inc,45.3953459,-75.6218727,K1G 2A1,Ottawa,Gas Station,5a60f0654f0e586d106787c1
4d474b0d14aa8cfadc96863d,Petro-Canada,45.405315,-75.62679,K1G 1A2,Ottawa,Gas Station,5a60f0654f0e586d106787c1
4b6d7bd3f964a52082772ce3,Esso,45.383077138391556,-75.63096040142683,K1H 1W1,Ottawa,Gas Station,5a60f0654f0e586d106787c1
51e04bcb1d9fb5b225504f25,Pioneer Energy,45.406635,-75.616974,K1B 4G6,Ottawa,Gas Station,5a60f0654f0e586d106787c1
4d493d025129a35d605237ac,MacEwen Gas,45.41232023329462,-75.63038569830562,None,Ottawa,Gas Station,5a60f0654f0e586d106787c1
4e001453d22d5ec6f277559b,Shell,45.38916716368916,-75.61822301686017,K1G 1B2,Ottawa,Gas Station,4c65e3129cb82d7fcc478fd2
58776b636e60751134a23c0b,Ultramar,45.395459,-75.621428,K1G 2A1,Ottawa,Gas Station,4c65e3129cb82d7fcc478fd2
4c65e3129cb82d7fcc478fd2,Quickie,45.39547230875543,-75.62157284902324,None,None,Gas Station,4c65e3129cb82d7fcc478fd2
5a60f0654f0e586d106787c1,NAPA AUTOPRO - J & D Auto-Tech Inc,45.3953459,-75.6218727,K1G 2A1,Ottawa,Gas Station,4c65e3129cb82d7fcc478fd2
4d474b0d14aa8cfadc96863d,Petro-Canada,45.405315,-75.62679,K1G 1A2,Ottawa,Gas Station,4c65e3129cb82d7fcc478fd2
4b6d7bd3f964a52082772ce3,Esso,45.383077138391556,-75.63096040142683,K1H 1W1,Ottawa,Gas Station,4c65e3129cb82d7fcc478fd2
51e04bcb1d9fb5b225504f25,Pioneer Energy,45.406635,-75.616974,K1B 4G6,Ottawa,Gas Station,4c65e3129cb82d7fcc478fd2
57ee9e37498e4bb1d91214df,Petro-Pass Truck Stop,45.411983,-75.612086,K1B 4V5,Ottawa,Gas Station,4c65e3129cb82d7fcc478fd2
4d493d025129a35d605237ac,MacEwen Gas,45.41232023329462,-75.63038569830562,None,Ottawa,Gas Station,4c65e3129cb82d7fcc478fd2
58af042976b8b22951f4a130,Ultramar,45.38041,-75.63939,K1V 6A1,Ottawa,Gas Station,58af042976b8b22951f4a130
4b6d7bd3f964a52082772ce3,Esso,45.383077138391556,-75.63096040142683,K1H 1W1,Ottawa,Gas Station,58af042976b8b22951f4a130
4c4ec2919efabe9a84fb986a,Petro-Canada,45.373824,-75.623971,K1G 3N4,Ottawa,Gas Station,58af042976b8b22951f4a130
4e001453d22d5ec6f277559b,Shell,45.38916716368916,-75.61822301686017,K1G 1B2,Ottawa,Gas Station,58af042976b8b22951f4a130
51e04bcb1d9fb5b225504f25,Pioneer Energy,45.406635,-75.616974,K1B 4G6,Ottawa,Gas Station,51e04bcb1d9fb5b225504f25
4d474b0d14aa8cfadc96863d,Petro-Canada,45.405315,-75.62679,K1G 1A2,Ottawa,Gas Station,51e04bcb1d9fb5b225504f25
57ee9e37498e4bb1d91214df,Petro-Pass Truck Stop,45.411983,-75.612086,K1B 4V5,Ottawa,Gas Station,51e04bcb1d9fb5b225504f25
4e8673fed66a9b178e91269f,Petro-Canada,45.414551778980865,-75.60870796122774,K1B 3K5,Ottawa,Gas Station,51e04bcb1d9fb5b225504f25
4b8a9a20f964a520947432e3,Esso,45.41493121831715,-75.60473716562313,None,Ottawa,Gas Station,51e04bcb1d9fb5b225504f25
5b4cd52eccad6b002cc840f8,Praxair Canada Inc.,45.4146462,-75.61596829999999,K1B 3W6,Ottawa,Gas Station,51e04bcb1d9fb5b225504f25
4e001453d22d5ec6f277559b,Shell,45.38916716368916,-75.61822301686017,K1G 1B2,Ottawa,Gas Station,51e04bcb1d9fb5b225504f25
4d493d025129a35d605237ac,MacEwen Gas,45.41232023329462,-75.63038569830562,None,Ottawa,Gas Station,51e04bcb1d9fb5b225504f25
58776b636e60751134a23c0b,Ultramar,45.395459,-75.621428,K1G 2A1,Ottawa,Gas Station,51e04bcb1d9fb5b225504f25
4c65e3129cb82d7fcc478fd2,Quickie,45.39547230875543,-75.62157284902324,None,None,Gas Station,51e04bcb1d9fb5b225504f25
5a60f0654f0e586d106787c1,NAPA AUTOPRO - J & D Auto-Tech Inc,45.3953459,-75.6218727,K1G 2A1,Ottawa,Gas Station,51e04bcb1d9fb5b225504f25
4c10d9ad6b7e2d7f80332835,Pioneer Energy,45.411151,-75.640736,K1G 0Z1,Ottawa,Gas Station,51e04bcb1d9fb5b225504f25
4b18fccef964a520f6d623e3,Petro-Canada,45.45939,-75.491225,K4A 3W3,Cumberland,Gas Station,4b6b34d5f964a52091f92be3
4b6b34d5f964a52091f92be3,Refuel at Superstore,45.45743763030909,-75.49643227302778,None,Ottawa,Gas Station,4b6b34d5f964a52091f92be3
4cd2eb3b25ee6dcbc511470f,Esso,45.455637,-75.505014,None,None,Gas Station,4b6b34d5f964a52091f92be3
4bd5ff26637ba593e56ef770,Shell,45.461483573685626,-75.48750349967173,K4A 4H8,Ottawa,Gas Station,4b6b34d5f964a52091f92be3
5a60fdcb5455b22bcfc2444e,NAPA AUTOPRO - Precision Automotive,45.459339237719526,-75.48951339558698,K4A 3W2,Orléans,Gas Station,4b6b34d5f964a52091f92be3
4e5e21851850b75573f4b878,Petro-Canada,45.46813748328399,-75.49171134368896,K1E 3E8,Orléans,Gas Station,4b6b34d5f964a52091f92be3
4e501f2c18383eb2af2bc185,Canadian Tire Gas+,45.467240870338756,-75.49085853668171,K1E 3X2,Orléans,Gas Station,4b6b34d5f964a52091f92be3
5a1c9a676dcf04231331bec6,Petro-Canada,45.467915,-75.491846,K1E 3E8,Orléans,Gas Station,4b6b34d5f964a52091f92be3
50cbbbbde4b05e3ef08039b0,Ultramar Brian Coburn & 10th,45.45082372071338,-75.48285131461155,None,None,Gas Station,4b6b34d5f964a52091f92be3
4bcb0823fb84c9b6cb061e3e,Circle K,45.4531781,-75.5119981,K1C 1T1,Orléans,Gas Station,4b6b34d5f964a52091f92be3
4e5e21851850b75573f4b878,Petro-Canada,45.46813748328399,-75.49171134368896,K1E 3E8,Orléans,Gas Station,4e5e21851850b75573f4b878
4b18fccef964a520f6d623e3,Petro-Canada,45.45939,-75.491225,K4A 3W3,Cumberland,Gas Station,4e5e21851850b75573f4b878
4e501f2c18383eb2af2bc185,Canadian Tire Gas+,45.467240870338756,-75.49085853668171,K1E 3X2,Orléans,Gas Station,4e5e21851850b75573f4b878
5a1c9a676dcf04231331bec6,Petro-Canada,45.467915,-75.491846,K1E 3E8,Orléans,Gas Station,4e5e21851850b75573f4b878
4bd5ff26637ba593e56ef770,Shell,45.461483573685626,-75.48750349967173,K4A 4H8,Ottawa,Gas Station,4e5e21851850b75573f4b878
5a60fdcb5455b22bcfc2444e,NAPA AUTOPRO - Precision Automotive,45.459339237719526,-75.48951339558698,K4A 3W2,Orléans,Gas Station,4e5e21851850b75573f4b878
4b6b34d5f964a52091f92be3,Refuel at Superstore,45.45743763030909,-75.49643227302778,None,Ottawa,Gas Station,4e5e21851850b75573f4b878
4cd2eb3b25ee6dcbc511470f,Esso,45.455637,-75.505014,None,None,Gas Station,4e5e21851850b75573f4b878
4dd9d376b0fb8af380c0e9d1,Petro-Canada,45.478342,-75.512485,K1C 1T1,Orléans,Gas Station,4e5e21851850b75573f4b878
4b7c612bf964a520e38f2fe3,Shell,45.47425707786498,-75.51559747645466,K1C 7C2,Orléans,Gas Station,4e5e21851850b75573f4b878
4cd2eb3b25ee6dcbc511470f,Esso,45.455637,-75.505014,None,None,Gas Station,4cd2eb3b25ee6dcbc511470f
4b18fccef964a520f6d623e3,Petro-Canada,45.45939,-75.491225,K4A 3W3,Cumberland,Gas Station,4cd2eb3b25ee6dcbc511470f
4b6b34d5f964a52091f92be3,Refuel at Superstore,45.45743763030909,-75.49643227302778,None,Ottawa,Gas Station,4cd2eb3b25ee6dcbc511470f
4bcb0823fb84c9b6cb061e3e,Circle K,45.4531781,-75.5119981,K1C 1T1,Orléans,Gas Station,4cd2eb3b25ee6dcbc511470f
4bd5ff26637ba593e56ef770,Shell,45.461483573685626,-75.48750349967173,K4A 4H8,Ottawa,Gas Station,4cd2eb3b25ee6dcbc511470f
4e5e21851850b75573f4b878,Petro-Canada,45.46813748328399,-75.49171134368896,K1E 3E8,Orléans,Gas Station,4cd2eb3b25ee6dcbc511470f
5a60fdcb5455b22bcfc2444e,NAPA AUTOPRO - Precision Automotive,45.459339237719526,-75.48951339558698,K4A 3W2,Orléans,Gas Station,4cd2eb3b25ee6dcbc511470f
4e501f2c18383eb2af2bc185,Canadian Tire Gas+,45.467240870338756,-75.49085853668171,K1E 3X2,Orléans,Gas Station,4cd2eb3b25ee6dcbc511470f
5a1c9a676dcf04231331bec6,Petro-Canada,45.467915,-75.491846,K1E 3E8,Orléans,Gas Station,4cd2eb3b25ee6dcbc511470f
50cbbbbde4b05e3ef08039b0,Ultramar Brian Coburn & 10th,45.45082372071338,-75.48285131461155,None,None,Gas Station,4cd2eb3b25ee6dcbc511470f
4b7d78a3f964a520a2c02fe3,Ultramar,45.447068,-75.52725,K1C 1T1,Ottawa,Gas Station,4cd2eb3b25ee6dcbc511470f
4b18fccef964a520f6d623e3,Petro-Canada,45.45939,-75.491225,K4A 3W3,Cumberland,Gas Station,50cbbbbde4b05e3ef08039b0
50cbbbbde4b05e3ef08039b0,Ultramar Brian Coburn & 10th,45.45082372071338,-75.48285131461155,None,None,Gas Station,50cbbbbde4b05e3ef08039b0
4bd5ff26637ba593e56ef770,Shell,45.461483573685626,-75.48750349967173,K4A 4H8,Ottawa,Gas Station,50cbbbbde4b05e3ef08039b0
4b6b34d5f964a52091f92be3,Refuel at Superstore,45.45743763030909,-75.49643227302778,None,Ottawa,Gas Station,50cbbbbde4b05e3ef08039b0
5a60fdcb5455b22bcfc2444e,NAPA AUTOPRO - Precision Automotive,45.459339237719526,-75.48951339558698,K4A 3W2,Orléans,Gas Station,50cbbbbde4b05e3ef08039b0
4cd2eb3b25ee6dcbc511470f,Esso,45.455637,-75.505014,None,None,Gas Station,50cbbbbde4b05e3ef08039b0
4e501f2c18383eb2af2bc185,Canadian Tire Gas+,45.467240870338756,-75.49085853668171,K1E 3X2,Orléans,Gas Station,50cbbbbde4b05e3ef08039b0
4bb3ed86737d76b039ea3a7c,Petro-Canada,45.46417,-75.539435,K1C 1E4,Orléans,Gas Station,5880afcfb50d5245de11f1c2
5880afcfb50d5245de11f1c2,Ultramar,45.461829,-75.548433,K1C 7C6,Orléans,Gas Station,5880afcfb50d5245de11f1c2
4b59d639f964a5200d9b28e3,Mr. Lube,45.463915,-75.540608,K1C 1E4,Orléans,Gas Station,5880afcfb50d5245de11f1c2
4fce4f7ce4b0231f2cd142e8,NAPA AUTOPRO - Orleans AUTOPRO,45.46740396072522,-75.53350698784925,K1C 1E7,Orléans,Gas Station,5880afcfb50d5245de11f1c2
4b7c612bf964a520e38f2fe3,Shell,45.47425707786498,-75.51559747645466,K1C 7C2,Orléans,Gas Station,4d3337416c7c721ed84eb756
4d3337416c7c721ed84eb756,Pioneer Energy,45.471675,-75.522841,K1C 1G5,Orléans,Gas Station,4d3337416c7c721ed84eb756
5b4d9379a42362002c3125d0,Meineke Car Care Centre,45.47134,-75.5234399,K1C 1G3,Ottawa,Gas Station,4d3337416c7c721ed84eb756
4dd9d376b0fb8af380c0e9d1,Petro-Canada,45.478342,-75.512485,K1C 1T1,Orléans,Gas Station,4d3337416c7c721ed84eb756
4bb3ed86737d76b039ea3a7c,Petro-Canada,45.46417,-75.539435,K1C 1E4,Orléans,Gas Station,4d3337416c7c721ed84eb756
4fce4f7ce4b0231f2cd142e8,NAPA AUTOPRO - Orleans AUTOPRO,45.46740396072522,-75.53350698784925,K1C 1E7,Orléans,Gas Station,4d3337416c7c721ed84eb756
4b59d639f964a5200d9b28e3,Mr. Lube,45.463915,-75.540608,K1C 1E4,Orléans,Gas Station,4d3337416c7c721ed84eb756
4e8673fed66a9b178e91269f,Petro-Canada,45.414551778980865,-75.60870796122774,K1B 3K5,Ottawa,Gas Station,5b4cd52eccad6b002cc840f8
4b8a9a20f964a520947432e3,Esso,45.41493121831715,-75.60473716562313,None,Ottawa,Gas Station,5b4cd52eccad6b002cc840f8
5b4cd52eccad6b002cc840f8,Praxair Canada Inc.,45.4146462,-75.61596829999999,K1B 3W6,Ottawa,Gas Station,5b4cd52eccad6b002cc840f8
57ee9e37498e4bb1d91214df,Petro-Pass Truck Stop,45.411983,-75.612086,K1B 4V5,Ottawa,Gas Station,5b4cd52eccad6b002cc840f8
51e04bcb1d9fb5b225504f25,Pioneer Energy,45.406635,-75.616974,K1B 4G6,Ottawa,Gas Station,5b4cd52eccad6b002cc840f8
4d474b0d14aa8cfadc96863d,Petro-Canada,45.405315,-75.62679,K1G 1A2,Ottawa,Gas Station,5b4cd52eccad6b002cc840f8
4d493d025129a35d605237ac,MacEwen Gas,45.41232023329462,-75.63038569830562,None,Ottawa,Gas Station,5b4cd52eccad6b002cc840f8
4c95098638dd8cfa3cd2ce62,Petro-Canada,45.419393,-75.596303,K1B 4C6,Gloucester,Gas Station,5b4cd52eccad6b002cc840f8
4c10d9ad6b7e2d7f80332835,Pioneer Energy,45.411151,-75.640736,K1G 0Z1,Ottawa,Gas Station,5b4cd52eccad6b002cc840f8
4c7dbbe59221236a1755803d,Pioneer Energy,45.426103,-75.631007,K1J 8V1,Gloucester,Gas Station,5b4cd52eccad6b002cc840f8
4c0152630bce20a12782f6c6,Saab Gas Centre,45.42506294,-75.63533742,None,Ottawa,Gas Station,5b4cd52eccad6b002cc840f8
4d36046c48098cfa08504217,Esso,45.491051038281554,-75.47998721813163,K1T 1C1,Ottawa,Gas Station,4ee0fb7ff9ab28df82836187
4e5e21851850b75573f4b878,Petro-Canada,45.46813748328399,-75.49171134368896,K1E 3E8,Orléans,Gas Station,4ee0fb7ff9ab28df82836187
5a1c9a676dcf04231331bec6,Petro-Canada,45.467915,-75.491846,K1E 3E8,Orléans,Gas Station,4ee0fb7ff9ab28df82836187
4e501f2c18383eb2af2bc185,Canadian Tire Gas+,45.467240870338756,-75.49085853668171,K1E 3X2,Orléans,Gas Station,4ee0fb7ff9ab28df82836187
4e5e21851850b75573f4b878,Petro-Canada,45.46813748328399,-75.49171134368896,K1E 3E8,Orléans,Gas Station,4c6294b579d1e21eeb59d615
4b18fccef964a520f6d623e3,Petro-Canada,45.45939,-75.491225,K4A 3W3,Cumberland,Gas Station,4c6294b579d1e21eeb59d615
4dd9d376b0fb8af380c0e9d1,Petro-Canada,45.478342,-75.512485,K1C 1T1,Orléans,Gas Station,4c6294b579d1e21eeb59d615
5a1c9a676dcf04231331bec6,Petro-Canada,45.467915,-75.491846,K1E 3E8,Orléans,Gas Station,4c6294b579d1e21eeb59d615
4e501f2c18383eb2af2bc185,Canadian Tire Gas+,45.467240870338756,-75.49085853668171,K1E 3X2,Orléans,Gas Station,4c6294b579d1e21eeb59d615
4b7c612bf964a520e38f2fe3,Shell,45.47425707786498,-75.51559747645466,K1C 7C2,Orléans,Gas Station,4c6294b579d1e21eeb59d615
4bd5ff26637ba593e56ef770,Shell,45.461483573685626,-75.48750349967173,K4A 4H8,Ottawa,Gas Station,4c6294b579d1e21eeb59d615
4d36046c48098cfa08504217,Esso,45.491051038281554,-75.47998721813163,K1T 1C1,Ottawa,Gas Station,4c6294b579d1e21eeb59d615
5a60fdcb5455b22bcfc2444e,NAPA AUTOPRO - Precision Automotive,45.459339237719526,-75.48951339558698,K4A 3W2,Orléans,Gas Station,4c6294b579d1e21eeb59d615
4dd9d376b0fb8af380c0e9d1,Petro-Canada,45.478342,-75.512485,K1C 1T1,Orléans,Gas Station,4dd9d376b0fb8af380c0e9d1
4b7c612bf964a520e38f2fe3,Shell,45.47425707786498,-75.51559747645466,K1C 7C2,Orléans,Gas Station,4dd9d376b0fb8af380c0e9d1
4d3337416c7c721ed84eb756,Pioneer Energy,45.471675,-75.522841,K1C 1G5,Orléans,Gas Station,4dd9d376b0fb8af380c0e9d1
5b4d9379a42362002c3125d0,Meineke Car Care Centre,45.47134,-75.5234399,K1C 1G3,Ottawa,Gas Station,4dd9d376b0fb8af380c0e9d1
4e5e21851850b75573f4b878,Petro-Canada,45.46813748328399,-75.49171134368896,K1E 3E8,Orléans,Gas Station,4dd9d376b0fb8af380c0e9d1
5a1c9a676dcf04231331bec6,Petro-Canada,45.467915,-75.491846,K1E 3E8,Orléans,Gas Station,4dd9d376b0fb8af380c0e9d1
4b7c612bf964a520e38f2fe3,Shell,45.47425707786498,-75.51559747645466,K1C 7C2,Orléans,Gas Station,4b7c612bf964a520e38f2fe3
4dd9d376b0fb8af380c0e9d1,Petro-Canada,45.478342,-75.512485,K1C 1T1,Orléans,Gas Station,4b7c612bf964a520e38f2fe3
4d3337416c7c721ed84eb756,Pioneer Energy,45.471675,-75.522841,K1C 1G5,Orléans,Gas Station,4b7c612bf964a520e38f2fe3
5b4d9379a42362002c3125d0,Meineke Car Care Centre,45.47134,-75.5234399,K1C 1G3,Ottawa,Gas Station,4b7c612bf964a520e38f2fe3
4e5e21851850b75573f4b878,Petro-Canada,45.46813748328399,-75.49171134368896,K1E 3E8,Orléans,Gas Station,4b7c612bf964a520e38f2fe3
4fce4f7ce4b0231f2cd142e8,NAPA AUTOPRO - Orleans AUTOPRO,45.46740396072522,-75.53350698784925,K1C 1E7,Orléans,Gas Station,4b7c612bf964a520e38f2fe3
5a1c9a676dcf04231331bec6,Petro-Canada,45.467915,-75.491846,K1E 3E8,Orléans,Gas Station,4b7c612bf964a520e38f2fe3
4b4fe6ecf964a520181927e3,Petro-Canada,45.425284,-75.637431,K1J 7S4,Gloucester,Gas Station,4c0152630bce20a12782f6c6
4d10ef9ad467236a912ec74a,Petro-Canada,45.42856176,-75.63915804,K1J 7S4,Ottawa,Gas Station,4c0152630bce20a12782f6c6
4c0152630bce20a12782f6c6,Saab Gas Centre,45.42506294,-75.63533742,None,Ottawa,Gas Station,4c0152630bce20a12782f6c6
4c7dbbe59221236a1755803d,Pioneer Energy,45.426103,-75.631007,K1J 8V1,Gloucester,Gas Station,4c0152630bce20a12782f6c6
5a9d97486eda02095169baf2,Petro-Canada,45.42836,-75.6391918,K1K 3B1,Ottawa,Gas Station,4c0152630bce20a12782f6c6
4c10d9ad6b7e2d7f80332835,Pioneer Energy,45.411151,-75.640736,K1G 0Z1,Ottawa,Gas Station,4c0152630bce20a12782f6c6
4d493d025129a35d605237ac,MacEwen Gas,45.41232023329462,-75.63038569830562,None,Ottawa,Gas Station,4c0152630bce20a12782f6c6
4e29bad245ddfe8f9dff7183,Pioneer Energy,45.441638,-75.644181,K1K 0T9,Ottawa,Gas Station,4c0152630bce20a12782f6c6
4ba3f3d5f964a520e77038e3,Mr Gas,45.43323771047425,-75.61272350836121,None,None,Gas Station,4c0152630bce20a12782f6c6
5b4cd52eccad6b002cc840f8,Praxair Canada Inc.,45.4146462,-75.61596829999999,K1B 3W6,Ottawa,Gas Station,4c0152630bce20a12782f6c6
4d10ef9ad467236a912ec74a,Petro-Canada,45.42856176,-75.63915804,K1J 7S4,Ottawa,Gas Station,5a9d97486eda02095169baf2
4b4fe6ecf964a520181927e3,Petro-Canada,45.425284,-75.637431,K1J 7S4,Gloucester,Gas Station,5a9d97486eda02095169baf2
5a9d97486eda02095169baf2,Petro-Canada,45.42836,-75.6391918,K1K 3B1,Ottawa,Gas Station,5a9d97486eda02095169baf2
4c0152630bce20a12782f6c6,Saab Gas Centre,45.42506294,-75.63533742,None,Ottawa,Gas Station,5a9d97486eda02095169baf2
4c7dbbe59221236a1755803d,Pioneer Energy,45.426103,-75.631007,K1J 8V1,Gloucester,Gas Station,5a9d97486eda02095169baf2
4e29bad245ddfe8f9dff7183,Pioneer Energy,45.441638,-75.644181,K1K 0T9,Ottawa,Gas Station,5a9d97486eda02095169baf2
4c10d9ad6b7e2d7f80332835,Pioneer Energy,45.411151,-75.640736,K1G 0Z1,Ottawa,Gas Station,5a9d97486eda02095169baf2
4d493d025129a35d605237ac,MacEwen Gas,45.41232023329462,-75.63038569830562,None,Ottawa,Gas Station,5a9d97486eda02095169baf2
4b4fe6ecf964a520181927e3,Petro-Canada,45.425284,-75.637431,K1J 7S4,Gloucester,Gas Station,4c7dbbe59221236a1755803d
4c7dbbe59221236a1755803d,Pioneer Energy,45.426103,-75.631007,K1J 8V1,Gloucester,Gas Station,4c7dbbe59221236a1755803d
4d10ef9ad467236a912ec74a,Petro-Canada,45.42856176,-75.63915804,K1J 7S4,Ottawa,Gas Station,4c7dbbe59221236a1755803d
4c0152630bce20a12782f6c6,Saab Gas Centre,45.42506294,-75.63533742,None,Ottawa,Gas Station,4c7dbbe59221236a1755803d
5a9d97486eda02095169baf2,Petro-Canada,45.42836,-75.6391918,K1K 3B1,Ottawa,Gas Station,4c7dbbe59221236a1755803d
4c10d9ad6b7e2d7f80332835,Pioneer Energy,45.411151,-75.640736,K1G 0Z1,Ottawa,Gas Station,4c7dbbe59221236a1755803d
4d493d025129a35d605237ac,MacEwen Gas,45.41232023329462,-75.63038569830562,None,Ottawa,Gas Station,4c7dbbe59221236a1755803d
4ba3f3d5f964a520e77038e3,Mr Gas,45.43323771047425,-75.61272350836121,None,None,Gas Station,4c7dbbe59221236a1755803d
5b4cd52eccad6b002cc840f8,Praxair Canada Inc.,45.4146462,-75.61596829999999,K1B 3W6,Ottawa,Gas Station,4c7dbbe59221236a1755803d
4d493d025129a35d605237ac,MacEwen Gas,45.41232023329462,-75.63038569830562,None,Ottawa,Gas Station,4d493d025129a35d605237ac
4d474b0d14aa8cfadc96863d,Petro-Canada,45.405315,-75.62679,K1G 1A2,Ottawa,Gas Station,4d493d025129a35d605237ac
4c10d9ad6b7e2d7f80332835,Pioneer Energy,45.411151,-75.640736,K1G 0Z1,Ottawa,Gas Station,4d493d025129a35d605237ac
4b4fe6ecf964a520181927e3,Petro-Canada,45.425284,-75.637431,K1J 7S4,Gloucester,Gas Station,4d493d025129a35d605237ac
51e04bcb1d9fb5b225504f25,Pioneer Energy,45.406635,-75.616974,K1B 4G6,Ottawa,Gas Station,4d493d025129a35d605237ac
5b4cd52eccad6b002cc840f8,Praxair Canada Inc.,45.4146462,-75.61596829999999,K1B 3W6,Ottawa,Gas Station,4d493d025129a35d605237ac
4e8673fed66a9b178e91269f,Petro-Canada,45.414551778980865,-75.60870796122774,K1B 3K5,Ottawa,Gas Station,4d493d025129a35d605237ac
57ee9e37498e4bb1d91214df,Petro-Pass Truck Stop,45.411983,-75.612086,K1B 4V5,Ottawa,Gas Station,4d493d025129a35d605237ac
4d10ef9ad467236a912ec74a,Petro-Canada,45.42856176,-75.63915804,K1J 7S4,Ottawa,Gas Station,4d493d025129a35d605237ac
4c0152630bce20a12782f6c6,Saab Gas Centre,45.42506294,-75.63533742,None,Ottawa,Gas Station,4d493d025129a35d605237ac
4c7dbbe59221236a1755803d,Pioneer Energy,45.426103,-75.631007,K1J 8V1,Gloucester,Gas Station,4d493d025129a35d605237ac
5a9d97486eda02095169baf2,Petro-Canada,45.42836,-75.6391918,K1K 3B1,Ottawa,Gas Station,4d493d025129a35d605237ac
58776b636e60751134a23c0b,Ultramar,45.395459,-75.621428,K1G 2A1,Ottawa,Gas Station,4d493d025129a35d605237ac
4c65e3129cb82d7fcc478fd2,Quickie,45.39547230875543,-75.62157284902324,None,None,Gas Station,4d493d025129a35d605237ac
5a60f0654f0e586d106787c1,NAPA AUTOPRO - J & D Auto-Tech Inc,45.3953459,-75.6218727,K1G 2A1,Ottawa,Gas Station,4d493d025129a35d605237ac
4e29bad245ddfe8f9dff7183,Pioneer Energy,45.441638,-75.644181,K1K 0T9,Ottawa,Gas Station,4e29bad245ddfe8f9dff7183
4d10ef9ad467236a912ec74a,Petro-Canada,45.42856176,-75.63915804,K1J 7S4,Ottawa,Gas Station,4e29bad245ddfe8f9dff7183
4b4fe6ecf964a520181927e3,Petro-Canada,45.425284,-75.637431,K1J 7S4,Gloucester,Gas Station,4e29bad245ddfe8f9dff7183
5a9d97486eda02095169baf2,Petro-Canada,45.42836,-75.6391918,K1K 3B1,Ottawa,Gas Station,4e29bad245ddfe8f9dff7183
4c0152630bce20a12782f6c6,Saab Gas Centre,45.42506294,-75.63533742,None,Ottawa,Gas Station,4e29bad245ddfe8f9dff7183
4cb3345aeb65b1f703fb81cd,MacEwen Petroleum,45.2697594004997,-75.5945612535884,K1G 3N3,Ottawa,Gas Station,4bfe591de529c928bd2abc8c
4bfe591de529c928bd2abc8c,MacEwen Gas,45.26980177996046,-75.59434545497373,None,Ottawa,Gas Station,4bfe591de529c928bd2abc8c
5124de9ee4b089c767c17aff,MacEwens,45.29716039113579,-75.58080914147426,None,Ottawa,Gas Station,513f544ae4b0f802737daf6a
513f544ae4b0f802737daf6a,MacEWAN Gas Bar,45.29684601468064,-75.58058236768369,None,Ottawa,Gas Station,513f544ae4b0f802737daf6a
4d17c458b15cb1f7b597b621,Drummonds Gas Station,45.281599669070715,-75.57097457191362,None,Ottawa,Gas Station,513f544ae4b0f802737daf6a
4e8673fcd66a9b178e911faa,Petro-Canada,45.2834,-75.56604,K1T 1M9,Gloucester,Gas Station,513f544ae4b0f802737daf6a
4d20e92916cfb60c7c1d5d61,Esso,45.331288,-75.5995287,K1T 3W5,Ottawa,Gas Station,4dc99dc22271f579debd3058
4dc99dc22271f579debd3058,Leitrim Service Centre,45.331494,-75.599134,None,Gloucester,Gas Station,4dc99dc22271f579debd3058
4c200933b4e62d7fa697e093,Stinson,45.32472595936018,-75.59658744189625,None,Ottawa,Gas Station,4dc99dc22271f579debd3058
53767622498e1d9a9944d4b7,Canadian Tire + Gas Bar,45.319459,-75.593361,None,Findlay Creek,Gas Station,4dc99dc22271f579debd3058
527fd04211d2e567e60fd037,Canadian Tire Gas+,45.31815093064238,-75.59388641230454,K1T 0K8,Gloucester,Gas Station,4dc99dc22271f579debd3058
527fd04211d2e567e60fd037,Canadian Tire Gas+,45.31815093064238,-75.59388641230454,K1T 0K8,Gloucester,Gas Station,53767622498e1d9a9944d4b7
53767622498e1d9a9944d4b7,Canadian Tire + Gas Bar,45.319459,-75.593361,None,Findlay Creek,Gas Station,53767622498e1d9a9944d4b7
4c200933b4e62d7fa697e093,Stinson,45.32472595936018,-75.59658744189625,None,Ottawa,Gas Station,53767622498e1d9a9944d4b7
4d20e92916cfb60c7c1d5d61,Esso,45.331288,-75.5995287,K1T 3W5,Ottawa,Gas Station,53767622498e1d9a9944d4b7
4dc99dc22271f579debd3058,Leitrim Service Centre,45.331494,-75.599134,None,Gloucester,Gas Station,53767622498e1d9a9944d4b7
527fd04211d2e567e60fd037,Canadian Tire Gas+,45.31815093064238,-75.59388641230454,K1T 0K8,Gloucester,Gas Station,527fd04211d2e567e60fd037
53767622498e1d9a9944d4b7,Canadian Tire + Gas Bar,45.319459,-75.593361,None,Findlay Creek,Gas Station,527fd04211d2e567e60fd037
4c200933b4e62d7fa697e093,Stinson,45.32472595936018,-75.59658744189625,None,Ottawa,Gas Station,527fd04211d2e567e60fd037
4d20e92916cfb60c7c1d5d61,Esso,45.331288,-75.5995287,K1T 3W5,Ottawa,Gas Station,527fd04211d2e567e60fd037
4dc99dc22271f579debd3058,Leitrim Service Centre,45.331494,-75.599134,None,Gloucester,Gas Station,527fd04211d2e567e60fd037
4c48a3513013a5939789b0e1,Petro-Canada,45.268864,-75.749585,K2J 4B1,Ottawa,Gas Station,4c6f03eed97fa14326c1f1ca
4c6f03eed97fa14326c1f1ca,Canadian Tire Gas Bar,45.27246178219889,-75.74671366321382,None,None,Gas Station,4c6f03eed97fa14326c1f1ca
583c9f7d24f61108b96a2b73,Canadian Tire Gas+,45.272268,-75.7457082,K2J 4Y6,Nepean,Gas Station,4c6f03eed97fa14326c1f1ca
4b76bac2f964a5201d5b2ee3,Esso,45.27453796446751,-75.73826557792235,K2J 5L4,Barrhaven,Gas Station,4c6f03eed97fa14326c1f1ca
4bef0ed6c80dc928a46f27e3,Petro-Canada,45.287359,-75.757252,K2J 1A1,Nepean,Gas Station,4c6f03eed97fa14326c1f1ca
4b622087f964a52042372ae3,MacEWEN,45.26915772645751,-75.80187214994338,None,Nepean,Gas Station,4b622087f964a52042372ae3
5824862bf2c98b32f0bf22b5,Costco Gasoline,45.26883848573053,-75.78267559772908,None,Ottawa,Gas Station,4b622087f964a52042372ae3
4fb68d77e4b0b2d0a84cee2b,cedarview automotive,45.2869,-75.806,k2r 1j1,Ottawa,Gas Station,4b622087f964a52042372ae3
4fb68d77e4b0b2d0a84cee2b,cedarview automotive,45.2869,-75.806,k2r 1j1,Ottawa,Gas Station,4fb68d77e4b0b2d0a84cee2b
4b622087f964a52042372ae3,MacEWEN,45.26915772645751,-75.80187214994338,None,Nepean,Gas Station,4fb68d77e4b0b2d0a84cee2b
